{"type":"Topology","arcs":[[[53166,47393],[356,-2177]],[[53522,45216],[-3469,229],[-1286,-28]],[[48767,45417],[-6,85]],[[48761,45502],[653,1688]],[[49414,47190],[2014,44],[1738,159]],[[85919,47226],[677,-396],[-285,-479],[-650,-183],[-561,580],[819,478]],[[91979,48025],[1260,-525],[299,357],[1630,-583],[-927,-1038],[-297,-647],[-781,-203],[-1040,86],[-1376,578],[-704,715],[693,106],[577,1042],[666,112]],[[84290,45726],[442,-171],[735,-815],[103,-417],[-669,-489],[-9,-412]],[[84892,43422],[-769,-880],[-1759,-432],[-1062,-546]],[[81302,41564],[-566,-50],[-1809,-677],[-1212,-1429],[-243,-634],[465,-919]],[[77937,37855],[-2297,507],[659,1278],[251,782],[3,911],[-1339,1415]],[[75214,42748],[542,1074],[-229,459],[558,1317],[1210,941],[282,752],[529,283],[1111,-125],[289,258]],[[79506,47707],[352,-26],[383,636],[783,162],[1600,-1417],[879,-516],[787,-820]],[[48761,45502],[-1522,-53],[-155,-391],[-908,-178],[-1072,-828]],[[45104,44052],[-290,-314],[-1274,96],[-344,222],[-1091,-388],[-201,-402],[-1520,-967]],[[40384,42299],[-1094,522]],[[39290,42821],[522,611],[255,1014],[-49,1889]],[[40018,46335],[1415,285],[-9,540],[462,714],[-355,402]],[[41531,48276],[1265,751],[488,-29],[506,512],[927,-431],[590,4],[1699,740]],[[47006,49823],[249,-1083],[461,-518],[1698,-1032]],[[21828,45312],[-536,-593],[-1812,29]],[[19480,44748],[2,818],[-1172,340]],[[18310,45906],[815,1570],[-551,349],[-584,883],[308,924],[-542,411],[11,1035]],[[17767,51078],[1087,163]],[[18854,51241],[187,-695],[-22,-1216],[347,-1012],[499,-239],[836,-893],[467,-1010],[94,-825],[566,-39]],[[79737,50779],[-540,-102],[52,167],[488,-65]],[[74110,51171],[184,-296],[-130,-11],[-54,307]],[[71162,51506],[-488,-168],[-845,537]],[[69829,51875],[764,131],[569,-500]],[[83732,50310],[3847,-1609]],[[87579,48701],[17,-831],[453,-620],[159,-951]],[[88208,46299],[-1064,204],[-250,-267],[-1720,-433],[-884,-77]],[[79506,47707],[490,1086],[792,266],[-377,1170],[-29,768]],[[80382,50997],[327,-584],[1558,-646],[1465,543]],[[30305,52618],[155,-807],[344,-491],[1374,-474],[1333,-1039],[401,23],[625,-568],[1485,-505],[128,288],[1083,-351],[610,101],[173,-534]],[[38016,48261],[-710,-155],[-143,-578],[132,-958]],[[37295,46570],[342,-565],[-392,-171],[-1165,282],[-2054,-8],[-995,-480],[-870,-37],[-560,-488],[173,-415]],[[31774,44688],[-790,-238]],[[30984,44450],[-171,579],[-1951,948],[-374,22],[-812,-608]],[[27676,45391],[-315,419]],[[27361,45810],[-139,799]],[[27222,46609],[1379,6],[-297,885],[-109,1869],[274,182],[490,1124],[1388,454],[-314,775],[-55,781]],[[29978,52685],[327,-67]],[[42381,52777],[106,-634],[612,-1103]],[[43099,51040],[-984,-262],[-747,40],[-1837,-294],[-79,-526],[-579,-48],[-1884,274],[-338,520],[1026,1635],[505,-51],[143,392],[1374,106],[1114,-186],[1568,137]],[[20946,52991],[175,-469],[892,119],[124,-719]],[[22137,51922],[-2093,-222],[-1190,-459]],[[17767,51078],[-91,1060]],[[17676,52138],[1009,288],[-422,434],[431,328]],[[18694,53188],[632,-419],[1620,222]],[[46180,53011],[677,-342],[-112,-759]],[[46745,51910],[-1387,1051],[822,50]],[[20686,53257],[260,-266]],[[18694,53188],[587,127],[1405,-58]],[[46745,51910],[-1455,208],[-573,-806],[-1618,-272]],[[42381,52777],[2232,310],[115,204],[1452,-280]],[[76412,50987],[-655,-436],[2,-793]],[[75759,49758],[-747,-1254],[-1563,-479],[-1071,19]],[[72378,48044],[-2368,244]],[[70010,48288],[564,263],[-154,326],[4,1500],[851,899],[-113,230]],[[71162,51506],[438,305],[643,-21],[1433,1375]],[[73676,53165],[1888,-934],[618,-1201],[230,-43]],[[27361,45810],[-1837,-57],[-59,-548]],[[25465,45205],[-3108,217],[-529,-110]],[[22137,51922],[139,-481],[1273,-1331],[596,-222],[422,-501],[1081,-402],[163,-766],[477,-728],[934,-882]],[[29125,53069],[95,-395]],[[29220,52674],[-119,-313],[-1266,-57],[-1241,372],[-812,-748],[-207,664],[-674,114],[116,849],[-915,-21],[-298,734]],[[23804,54268],[788,58],[552,-456],[695,-223],[682,480],[1336,-191],[268,-404],[1000,-463]],[[99227,44086],[-1143,587],[-919,286],[-1064,-204],[-554,-761],[-929,24],[-159,414],[-737,72],[-547,-240],[836,-534],[-441,-292],[1306,-1528],[523,-282],[641,286],[719,16]],[[96759,41930],[-95,-1011],[-655,-1294],[-610,-823],[-727,-385]],[[94672,38417],[-1186,109],[-1506,-100],[-681,-283],[-492,309],[-876,-27]],[[89931,38425],[-761,753],[-897,538],[-232,445],[1211,1053],[866,134],[-344,573],[623,954],[-171,696],[477,1303],[-1113,-302],[-1037,399],[-727,537],[382,791]],[[87579,48701],[464,435],[239,1152],[-277,442],[-856,205],[-851,-171],[-1603,614]],[[84695,51378],[1037,856],[726,-280],[1999,385],[737,800],[501,848],[1211,-597],[65,-549],[1101,-184],[1958,-1029],[1005,-230],[1242,-528],[607,-475],[-448,-1227],[1025,-395],[856,-1266],[-348,-647],[-723,-786],[1911,-374],[842,407],[-103,-1086],[-669,-935]],[[89720,52403],[-943,-1254],[830,-1066],[1657,30],[689,1043],[-691,584],[-1542,663]],[[70880,54315],[6,-909],[-624,334],[193,603],[425,-28]],[[51795,54577],[771,-195],[776,117],[1516,-607]],[[54858,53892],[-586,-356],[-139,-843]],[[54133,52693],[-24,-495],[-696,-785],[-263,-1117],[192,-1620]],[[53342,48676],[207,-966],[-383,-317]],[[47006,49823],[550,240],[260,729],[-564,479],[385,138],[745,1748],[-423,773]],[[47959,53930],[623,157],[236,-417],[1582,51],[792,868],[603,-12]],[[21305,53955],[-619,-698]],[[17676,52138],[-1268,995],[465,335],[190,1159]],[[17063,54627],[1021,143],[2113,-192],[1108,-623]],[[68469,48462],[-1086,-284],[-932,-554],[-511,-575],[220,-855]],[[66160,46194],[-1241,-460]],[[64919,45734],[-1170,-311],[-1454,-1222]],[[62295,44201],[-1640,194],[-1076,608],[-175,352],[607,881],[-2864,1150]],[[57147,47386],[1782,1325],[1230,1897],[74,978]],[[60233,51586],[1750,-780],[783,149],[1796,1012],[395,57],[398,857],[859,389]],[[66214,53270],[2255,-4808]],[[23804,54268],[-269,2]],[[23535,54270],[-75,661],[534,755],[257,755]],[[24251,56441],[5343,467]],[[29594,56908],[137,-1159],[-404,-1090],[645,-1127],[-847,-463]],[[20620,56975],[466,-599],[662,267],[917,31],[188,-433],[1398,200]],[[23535,54270],[-924,-24],[-1306,-291]],[[17063,54627],[132,608],[-420,588],[882,-159],[909,94],[-341,767]],[[18225,56525],[1271,559],[1124,-109]],[[41164,57110],[-57,-1054],[-322,-679]],[[40785,55377],[-1913,-604],[-574,43],[-593,575],[591,1028],[-550,758]],[[37746,57177],[771,199],[1108,31],[1539,-297]],[[24465,57267],[-214,-826]],[[20620,56975],[98,900]],[[20718,57875],[441,-407],[846,-192],[460,175],[1464,-402],[536,218]],[[40785,55377],[1393,-1],[1262,-899],[594,-248],[1278,12],[949,-368]],[[46261,53873],[896,-66],[236,308],[548,-164]],[[47941,53951],[18,-21]],[[41531,48276],[-860,-90],[66,240],[-1233,240],[-967,-690],[-521,285]],[[30305,52618],[137,402],[1278,-186],[1476,1037],[976,-589],[831,-126],[11,569],[-436,154],[-913,1264]],[[33665,55143],[-396,382],[68,747],[482,686]],[[33819,56958],[995,472]],[[34814,57430],[605,231],[614,751],[547,-4],[1008,-556],[158,-675]],[[24310,57801],[155,-534]],[[20718,57875],[572,1428]],[[21290,59303],[1655,-556],[767,-30],[598,-916]],[[47756,59448],[252,-177],[1298,-49],[1430,-1439],[697,-507],[764,-100]],[[52197,57176],[-222,-2114],[-180,-485]],[[47941,53951],[-163,771],[572,246],[-264,370],[-650,-174],[-741,344]],[[46695,55508],[273,665],[-586,550],[275,420],[-653,862]],[[46004,58005],[828,683],[-262,240],[1186,520]],[[32118,58920],[-525,-744],[273,-572],[645,-566],[583,-108]],[[33094,56930],[-654,-361]],[[32440,56569],[-1405,255],[-1441,84]],[[24310,57801],[983,219],[82,1182]],[[25375,59202],[1997,26],[401,753],[1160,42],[554,295]],[[29487,60318],[-126,-234],[1444,-861],[733,2],[580,-305]],[[19607,60256],[897,-674],[786,-279]],[[18225,56525],[-485,1138],[-1023,926],[-557,1037]],[[16160,59626],[578,1079],[1100,232],[1769,-681]],[[31094,61274],[336,-334],[211,-1153],[581,-337],[-104,-530]],[[29487,60318],[475,402],[70,705],[1062,-151]],[[32440,56569],[508,-1325],[717,-101]],[[29978,52685],[-758,-11]],[[35412,4855],[52,-348]],[[35464,4507],[171,-595],[-1785,-788]],[[33850,3124],[-764,-553],[-3431,474],[-758,997],[155,780],[-342,799]],[[28710,5621],[254,330],[-311,659],[659,388],[950,-216],[914,240]],[[31176,7022],[2655,-1472],[1002,-311],[579,-384]],[[26645,12639],[-550,-1004]],[[26095,11635],[-833,-503],[-2374,-984],[-1482,-94],[-946,-220]],[[20460,9834],[-1089,535],[-1614,109],[40,2233],[-258,1037]],[[17539,13748],[1550,350],[84,151]],[[19173,14249],[4527,-54],[500,359],[92,543]],[[24292,15097],[774,137]],[[25066,15234],[463,-439],[646,-1824],[470,-332]],[[42436,14727],[679,-177],[1217,189],[292,-635],[1366,-699],[685,308],[271,-999],[-720,-112],[-936,-540],[-382,-906],[-1005,-587],[-918,-9],[-1240,555],[-1448,93],[-149,434],[-883,600],[-1249,-14],[-238,-226]],[[37778,12002],[-926,849],[-520,213]],[[36332,13064],[290,647]],[[36622,13711],[1535,488],[230,214]],[[38387,14413],[1458,748],[2591,-434]],[[31430,16089],[-213,-186]],[[31217,15903],[-175,-171],[394,-1417],[921,-1345],[1615,-1625]],[[33972,11345],[603,-207],[1770,-176]],[[36345,10962],[1349,-736],[-254,-509],[72,-782],[-438,-555],[-211,-1039],[-890,-1727],[-561,-759]],[[31176,7022],[-296,348],[662,959],[113,799],[-976,-38],[-593,265],[-390,1179]],[[29696,10534],[807,2166],[-390,204],[-1579,309],[-1889,-574]],[[25066,15234],[1541,835],[87,702]],[[26694,16771],[558,223],[1203,-241],[198,-263],[975,-291],[344,321],[630,-562],[828,131]],[[26600,16915],[94,-144]],[[24292,15097],[-461,96],[-937,694],[-63,331]],[[22831,16218],[645,640]],[[23476,16858],[2007,194],[1117,-137]],[[37057,15850],[-560,328]],[[36497,16178],[-90,-2]],[[36407,16176],[-97,1115],[284,212]],[[36594,17503],[1238,162],[1606,-552],[-219,-1075],[-1100,-212],[-1062,24]],[[19005,15757],[943,-95],[1900,473],[983,83]],[[19173,14249],[-1273,470],[1105,1038]],[[11778,18294],[-740,-1189],[-1834,-1013]],[[9204,16092],[-3446,1902],[1877,932],[241,335]],[[7876,19261],[907,79],[1228,-509],[1767,-537]],[[16538,17745],[1489,-34],[1463,-333],[646,119]],[[20136,17497],[527,-262],[-68,-574],[-1590,-904]],[[17539,13748],[-945,925],[82,515],[615,709],[-472,107],[-969,-199],[-765,198],[-1544,30],[-1484,354],[-418,-1544],[-2435,1249]],[[11778,18294],[471,1339]],[[12249,19633],[1099,-372],[1228,-632],[1377,-1063],[585,179]],[[31430,16089],[-49,961],[-1067,1046]],[[30314,18096],[1482,854],[1460,646]],[[33256,19596],[973,-982],[1278,-1089],[-238,-482],[358,-791]],[[35627,16252],[-228,-72],[-1252,574],[-1533,-119],[-705,-1070],[-692,338]],[[17296,21334],[268,-1100],[1170,-783],[-5,-366],[-2191,-1340]],[[12249,19633],[-68,491]],[[12181,20124],[937,172],[1160,602]],[[14278,20898],[1062,-4],[924,593],[1032,-153]],[[7876,19261],[-532,434],[638,2103]],[[7982,21798],[763,-590],[1182,-148],[1200,-916],[1054,-20]],[[38387,14413],[-1199,622],[-131,815]],[[36594,17503],[1511,1525],[1115,142],[725,680],[705,1008],[325,149]],[[40975,21007],[1712,238],[60,603]],[[42747,21848],[480,-309],[232,-982],[498,-840],[2209,-187],[426,-716],[173,-889],[-1553,-633],[-2795,-2490],[19,-75]],[[21677,22607],[571,-592],[-374,-898],[1043,-35],[1310,-675],[679,-125],[417,-789],[367,-192]],[[25690,19301],[-716,-933],[1116,-465]],[[26090,17903],[510,-988]],[[23476,16858],[-967,1266],[156,846],[-1482,38],[-454,-302],[-152,-841],[-441,-368]],[[17296,21334],[907,549],[1325,512],[2149,212]],[[66104,21222],[-1095,-971],[-712,405],[-584,781],[-1326,-195],[1969,1885]],[[64356,23127],[512,-707],[1236,-1198]],[[25675,22886],[2586,-1420],[-921,-1087],[-1650,-1078]],[[21677,22607],[943,684],[694,-375],[297,628]],[[23611,23544],[2064,-658]],[[47084,25146],[501,-1100],[-124,-1242],[-935,422],[165,523],[-1081,500]],[[45610,24249],[583,866],[891,31]],[[3584,23904],[-435,-149],[-900,-920],[-2249,-1503],[62,521],[868,1988],[-305,408],[210,1288],[937,259],[482,469]],[[2254,26265],[174,-1228],[1156,-1133]],[[64356,23127],[-602,1431],[-812,1020],[-3,348]],[[62939,25926],[937,693]],[[63876,26619],[2780,-905],[1569,-114],[474,-532],[-285,-1179],[-1130,-1669],[-1180,-998]],[[22267,26119],[-129,-747],[-1271,-896],[-1980,629],[-1250,212]],[[17637,25317],[867,1266],[-715,596]],[[17789,27179],[907,-383],[1437,80],[1921,-582],[213,-175]],[[30000,27158],[144,-78]],[[30144,27080],[-183,-650],[259,-547],[866,-721],[401,-1033]],[[31487,24129],[-780,-506],[-3279,-229],[-972,237],[-854,-425],[73,-320]],[[23611,23544],[62,703],[453,593],[-750,369]],[[23376,25209],[132,453],[811,-309],[535,914],[30,697]],[[24884,26964],[2200,-187],[1466,397],[1450,-16]],[[35231,25777],[588,-441],[970,-1117],[739,-533]],[[37528,23686],[-508,-780],[53,-608],[-1365,-642],[-404,226],[-652,-449],[-599,-35],[-109,-440],[-604,-448],[-84,-914]],[[30314,18096],[-896,571],[-1269,-390],[-835,66],[-1224,-440]],[[31487,24129],[1160,-341],[1294,301],[294,735],[-401,435],[-665,-93],[-1161,271],[1790,554],[761,76],[-628,-597],[815,-19],[485,326]],[[23841,28804],[-332,-1460],[1354,-161],[21,-219]],[[23376,25209],[-870,890],[-239,20]],[[17789,27179],[-300,305]],[[17489,27484],[1184,371],[1487,-148],[545,719]],[[20705,28426],[2220,432],[916,-54]],[[40228,29224],[-112,-1088],[222,-953],[-1126,-2103],[-1684,-1394]],[[35231,25777],[-175,757],[-426,436],[-38,688]],[[34592,27658],[-82,189]],[[34510,27847],[171,286],[1742,377],[382,211]],[[36805,28721],[1078,-545],[672,-32],[480,1257]],[[39035,29401],[1193,-177]],[[29861,29451],[-214,-832],[353,-1461]],[[23841,28804],[1049,18],[1525,613],[1074,271],[844,-8],[1528,-247]],[[47377,25720],[-293,-574]],[[45610,24249],[-1181,-574],[-1335,-1282],[-347,-545]],[[40975,21007],[-1672,836],[-1775,1843]],[[40228,29224],[944,192],[822,395]],[[41994,29811],[447,-212],[-136,-1483],[956,-863],[1349,-956],[2767,-577]],[[36805,28721],[303,1034]],[[37108,29755],[1470,102]],[[38578,29857],[457,-456]],[[34592,27658],[-1300,-3],[-1176,286],[-1089,-288],[-883,-573]],[[29861,29451],[334,282]],[[30195,29733],[552,169],[814,-546],[1487,-581],[1462,-928]],[[18012,30911],[2441,-299],[791,61]],[[21244,30673],[23,-144]],[[21267,30529],[-27,-446],[-535,-1657]],[[17489,27484],[-28,42]],[[17461,27526],[-629,1101],[451,2144],[-229,235]],[[17054,31006],[958,-95]],[[36908,31368],[1101,-320],[569,-1191]],[[37108,29755],[-1541,680],[-447,404],[190,451],[617,198],[981,-120]],[[26672,31757],[1115,-12]],[[27787,31745],[1362,-505],[1046,-1507]],[[21267,30529],[2697,111],[2199,1141],[509,-24]],[[47776,31399],[-255,-972],[244,-652],[-84,-962],[-791,-472],[-1528,131],[-884,1007],[1858,2165]],[[46336,31644],[948,34],[492,-279]],[[54694,30997],[882,-444],[459,-468],[393,192],[499,-397],[1067,-127],[748,328]],[[58742,30081],[1225,-1654],[837,-836],[485,550],[1471,902]],[[62760,29043],[515,-185],[-82,-1179],[331,-902],[352,-158]],[[62939,25926],[-2512,-363],[-942,110],[-3530,1180],[-275,952],[-1695,245],[-1005,-165],[-2826,-754]],[[50154,27131],[-1246,742],[252,557],[687,457],[840,882],[757,442]],[[51444,30211],[931,557]],[[52375,30768],[864,979]],[[53239,31747],[540,-499],[915,-251]],[[43426,32176],[1526,-538],[1384,6]],[[47776,31399],[2139,-693],[218,-245],[1311,-250]],[[50154,27131],[-680,-169],[-2097,-1242]],[[41994,29811],[306,331],[-352,799],[572,764],[-112,596]],[[42408,32301],[1018,-125]],[[17754,32525],[295,-659],[-37,-955]],[[17054,31006],[-365,282],[-147,1006]],[[16542,32294],[973,259]],[[17515,32553],[239,-28]],[[17754,32525],[2527,268]],[[20281,32793],[932,-1796],[31,-324]],[[36908,31368],[339,343]],[[37247,31711],[1194,246],[1684,-1187],[260,402],[-447,403],[576,807],[252,703]],[[40766,33085],[1642,-784]],[[58742,30081],[968,974],[259,673],[786,937],[586,218],[1852,65],[453,330]],[[63646,33278],[1322,-1147],[-434,-420],[41,-988],[-1414,-500],[-401,-1180]],[[37247,31711],[320,1549]],[[37567,33260],[2535,307]],[[40102,33567],[664,-482]],[[20395,33893],[-114,-1100]],[[17515,32553],[732,1241],[766,127]],[[19013,33921],[1382,-28]],[[26672,31757],[-374,1377]],[[26298,33134],[1214,1011]],[[27512,34145],[315,-1469],[-40,-931]],[[42784,33313],[989,-316]],[[43773,32997],[-347,-821]],[[40102,33567],[767,615]],[[40869,34182],[1915,-869]],[[43773,32997],[1298,-237],[968,125],[2609,1634],[710,312]],[[49358,34831],[-152,-423],[840,-757],[162,-1089],[1308,-1249],[859,-545]],[[16542,32294],[223,2457]],[[16765,34751],[1685,132],[396,183],[167,-1145]],[[39617,34944],[1252,-762]],[[37567,33260],[433,593],[-465,698],[416,504]],[[37951,35055],[1666,-111]],[[25226,35335],[-423,-624],[-1257,-855],[-349,-468],[1013,-105],[569,-313],[1257,4],[262,160]],[[20395,33893],[-43,763],[856,43],[1187,355]],[[22395,35054],[653,-10],[1189,281],[989,10]],[[63090,33678],[556,-400]],[[54694,30997],[267,460],[77,1953],[293,783],[1057,260],[239,352],[1135,554],[2129,-1126],[1040,-91],[653,-263],[1506,-201]],[[36649,35395],[205,-51]],[[36854,35344],[1076,3],[21,-292]],[[27512,34145],[897,340],[1797,420],[1398,147]],[[31604,35052],[580,-3],[2917,486]],[[35101,35535],[241,-274],[1307,134]],[[36649,35395],[504,819],[891,161],[-163,-766],[-1027,-265]],[[49064,36059],[294,-1228]],[[42784,33313],[938,454],[1737,1799],[-73,517]],[[45386,36083],[1416,-92],[1517,126],[363,308],[382,-366]],[[83394,36240],[664,-1136],[-220,-1807],[396,-484]],[[84234,32813],[-811,-506],[-341,98],[-2143,-40],[612,3125],[326,975]],[[81877,36465],[1517,-225]],[[39617,34944],[352,459],[515,1287],[-273,786]],[[40211,37476],[1251,-365],[1743,58],[314,696]],[[43519,37865],[593,-131],[1114,-1188],[160,-463]],[[88265,34384],[-996,-179],[-3035,-1392]],[[83394,36240],[89,1413]],[[83483,37653],[819,111],[606,-351],[452,-663],[1423,-1046],[501,-615],[981,-705]],[[22395,35054],[279,771],[-116,657],[127,1130],[507,645]],[[23192,38257],[801,-111],[1125,160],[149,-1561],[506,-207],[-76,-1120],[-471,-83]],[[31604,35052],[111,1350],[694,977],[145,712],[759,646]],[[33313,38737],[697,377]],[[34010,39114],[1375,47]],[[35385,39161],[177,-710],[-341,-493],[-359,-1561],[239,-862]],[[16765,34751],[220,1796],[-209,297],[507,2633]],[[17283,39477],[2676,-617],[466,720]],[[20425,39580],[1382,-769],[1385,-554]],[[39778,39544],[370,-1282],[63,-786]],[[35385,39161],[833,678],[604,212]],[[36822,40051],[973,-429],[1983,-78]],[[84596,39738],[480,-451],[1228,75],[1134,-233]],[[87438,39129],[790,-237],[633,-685],[1070,218]],[[94672,38417],[-2251,-1282],[315,-167]],[[92736,36968],[-562,-137],[-1441,21],[-187,-1210]],[[90546,35642],[-2281,-1258]],[[83483,37653],[46,967],[-539,637],[426,369],[1180,112]],[[42928,39679],[667,-736],[-76,-1078]],[[39778,39544],[384,-39],[636,1005],[496,-70],[1634,-761]],[[23192,38257],[503,927],[2062,1184]],[[25757,40368],[802,625],[1168,196]],[[27727,41189],[311,-720],[3389,-887],[345,-417],[1541,-428]],[[36895,40974],[-73,-923]],[[34010,39114],[-35,515],[844,695],[8,1109]],[[34827,41433],[2068,-459]],[[81877,36465],[22,512],[-3962,878]],[[81302,41564],[548,-206],[-1,-425],[488,-189],[1334,-82],[925,-924]],[[21988,41451],[-333,-826],[-1230,-1045]],[[17283,39477],[443,1010],[14,1568]],[[17740,42055],[2065,-46],[2183,-558]],[[53166,40667],[361,-370],[-417,-1197],[-311,-421],[-347,-1208],[271,-282],[-152,-1670],[-361,-984],[1146,-274],[418,-365],[116,-1361],[-710,-347],[59,-441]],[[49064,36059],[269,507],[605,207],[-323,261],[0,672],[-681,183],[879,696]],[[49813,38585],[-1073,158],[-9,474],[722,1246],[-84,1377]],[[49369,41840],[579,24]],[[49948,41864],[2679,-847],[539,-350]],[[21988,41451],[639,591],[979,-132],[2151,-1542]],[[63245,36521],[-770,1365],[36,1144],[233,259],[-474,825],[1064,291]],[[63334,40405],[390,156],[1973,206],[889,1074],[327,111]],[[66913,41952],[564,-1517],[-420,-1656],[-1298,-479],[-379,-388],[-636,-1423],[-840,319],[-659,-287]],[[62613,41927],[-46,-469],[767,-1053]],[[63245,36521],[-21,-107]],[[63224,36414],[-971,29],[-2944,897],[-667,1399],[636,988],[-10,1016],[-303,514],[118,758]],[[59083,42015],[1764,-134],[1766,46]],[[92736,36968],[750,-207],[1913,-188],[1566,-668],[1569,-931],[758,-1268],[-997,-719],[-1008,-473],[-3313,996],[-1792,886],[-1636,1246]],[[63224,36414],[59,-208],[-537,-1741],[344,-787]],[[53166,40667],[2514,122],[684,126],[546,672],[-666,862]],[[56244,42449],[2839,-434]],[[40384,42299],[401,-869],[1082,-754],[222,240],[1075,-253]],[[43164,40663],[-236,-984]],[[36895,40974],[813,329],[642,1233],[940,285]],[[46865,38811],[1306,-262],[1642,36]],[[43164,40663],[526,-491],[1002,-240],[479,-541],[846,-430],[848,-150]],[[84892,43422],[1125,-564],[481,-685],[345,-1908],[577,-331],[18,-805]],[[49948,41864],[380,485],[810,10],[1360,917],[1272,601],[410,523]],[[54180,44400],[1463,-974],[114,-1083],[487,106]],[[53522,45216],[658,-816]],[[49369,41840],[-172,263],[-1015,259],[-581,588]],[[47601,42950],[716,479],[566,922],[-243,345]],[[48640,44696],[127,721]],[[46941,43262],[67,-1817],[325,-588],[-555,-1701],[87,-345]],[[45104,44052],[471,-399],[1366,-391]],[[19480,44748],[-1133,-627],[-780,23]],[[17567,44144],[296,904]],[[17863,45048],[447,858]],[[27676,45391],[1032,-839],[1162,46],[1114,-148]],[[31774,44688],[816,-691],[339,-1650],[1898,-914]],[[27727,41189],[-646,1131],[-113,778],[-288,142],[-1215,1965]],[[37295,46570],[1125,-286],[1598,51]],[[42822,61531],[773,-769],[761,46]],[[44356,60808],[-541,-599],[413,-1006],[916,-828]],[[45144,58375],[-1788,-553],[-1760,-282],[-432,-430]],[[34814,57430],[740,2133],[-13,543],[894,139],[-41,811]],[[36394,61056],[725,501]],[[37119,61557],[2254,-338],[779,132],[1471,-157],[638,402],[561,-65]],[[46004,58005],[-860,370]],[[44356,60808],[1005,762],[856,217],[518,-314],[304,-643],[18,-946],[699,-436]],[[36394,61056],[-1211,-153]],[[35183,60903],[-244,1018],[274,-50],[607,802]],[[35820,62673],[685,-142],[802,241]],[[37307,62772],[-188,-1215]],[[33037,63018],[2783,-345]],[[35183,60903],[-841,-284],[-1855,718],[-655,-128],[-559,377]],[[31273,61586],[-877,658]],[[30396,62244],[493,576],[2148,198]],[[26881,61737],[-1359,-1006],[283,-445],[-777,-455],[-331,-517],[678,-112]],[[19607,60256],[-315,484],[55,856],[1904,659],[119,1063],[356,408]],[[21726,63726],[1585,-563],[1089,-1316],[1533,-231],[948,121]],[[43264,62062],[-442,-531]],[[37307,62772],[395,596],[1458,274],[362,205]],[[39522,63847],[107,-569],[642,-428],[2993,-788]],[[14788,64286],[920,-193],[925,230],[885,-12],[542,279],[1644,-10]],[[19704,64580],[131,-919],[-390,-408],[-1291,-564],[-608,18],[-662,370],[-652,57],[-1055,-684]],[[15177,62450],[-1289,-128],[-396,320],[-1065,-41]],[[12427,62601],[-171,1046],[-433,508]],[[11823,64155],[740,566],[515,106],[1710,-541]],[[29818,64916],[1647,-387],[380,325],[1137,-35]],[[32982,64819],[375,-289],[72,-570],[-392,-942]],[[30396,62244],[-2504,878],[-1144,964],[-72,358],[584,456]],[[27260,64900],[1391,-122],[733,253],[434,-115]],[[31273,61586],[-179,-312]],[[26881,61737],[380,1414],[-637,321],[-526,906],[-423,248]],[[25675,64626],[470,690]],[[26145,65316],[1115,-416]],[[21818,65004],[-242,-659],[150,-619]],[[16160,59626],[-845,1090],[-167,465],[414,554],[-385,715]],[[19704,64580],[1268,789]],[[20972,65369],[846,-365]],[[22848,66014],[538,-424],[778,-156],[1511,-808]],[[21818,65004],[10,677],[589,-3],[431,336]],[[8997,64066],[-1216,-553],[-1324,-305],[-1355,438],[-692,24],[-707,346],[106,998],[393,474],[1005,97],[1128,335],[620,-117],[1628,359]],[[8583,66162],[1162,-1133],[-67,-575],[-681,-388]],[[20972,65369],[639,1136]],[[21611,66505],[1237,-491]],[[20509,67549],[483,-695],[619,-349]],[[14788,64286],[1353,1887],[182,1007],[350,220]],[[16673,67400],[1118,-32],[1237,238],[1481,-57]],[[38965,66419],[59,-1150],[498,-1422]],[[32982,64819],[580,139],[1450,796],[1202,1223],[1761,754]],[[37975,67731],[990,-1312]],[[48850,65235],[-714,-1257],[10,-739],[-837,-257],[-2054,-204],[-1991,-716]],[[38965,66419],[1698,-39],[230,695],[802,867]],[[41695,67942],[1461,-380],[1102,-117],[1250,-547],[506,-386],[2043,-762],[793,-515]],[[30186,67523],[242,-813],[-1008,-1332],[398,-462]],[[26145,65316],[962,1837]],[[27107,67153],[714,1029]],[[27821,68182],[532,-63],[1833,-596]],[[20509,67549],[-51,640],[918,616]],[[21376,68805],[2110,-969],[1093,925],[702,23]],[[25281,68784],[321,33]],[[25602,68817],[153,-244],[-152,-1020],[1504,-400]],[[25602,68817],[1125,172]],[[26727,68989],[1094,-807]],[[16258,69270],[456,-1088],[-41,-782]],[[11823,64155],[-1387,-473],[-1439,384]],[[8583,66162],[1729,-389],[1189,-428],[-452,1403],[119,1103],[1168,916],[1373,514],[564,449]],[[14273,69730],[1761,-92],[224,-368]],[[21376,68805],[791,1097]],[[22167,69902],[873,-570],[149,127],[2092,-675]],[[42462,69594],[-880,-1266],[113,-386]],[[37975,67731],[4,2]],[[37979,67733],[748,374],[596,648],[-134,1273]],[[39189,70028],[244,304],[963,47],[1334,-223],[732,-562]],[[49258,69532],[1181,-858],[-229,-1159],[389,-487]],[[50599,67028],[321,-1051],[-2070,-742]],[[42462,69594],[956,856]],[[43418,70450],[1044,3],[2906,-608],[1890,-313]],[[21389,70696],[846,-294],[-68,-500]],[[16258,69270],[712,25],[1301,587],[708,673],[156,465]],[[19135,71020],[849,-238],[1405,-86]],[[37979,67733],[-814,101],[-734,403],[-1539,494],[-176,1967]],[[34716,70698],[4333,186]],[[39049,70884],[140,-856]],[[14273,69730],[-992,337],[-21,228]],[[13260,70295],[1565,1009],[147,322]],[[14972,71626],[1810,111],[1257,296],[787,-339],[309,-674]],[[34901,71506],[-185,-808]],[[30186,67523],[358,624],[-900,867],[84,664],[-267,778]],[[29461,70456],[872,387],[1202,72],[817,1055],[1211,177],[1338,-641]],[[21389,70696],[894,947],[122,537],[699,449]],[[23104,72629],[1582,-152],[-73,-547],[1299,-216],[-93,-1847],[908,-878]],[[43418,70450],[-478,714],[73,1380],[598,325]],[[43611,72869],[498,-665],[2924,-126],[1209,-177],[2202,549],[899,459]],[[51343,72909],[-138,-312],[1076,-1614],[1219,-577],[-607,-256],[-2073,-366],[-707,26],[-855,-278]],[[27558,73472],[-359,-376],[1259,-353],[-52,-211],[1732,-573],[-624,-562],[-877,260],[-349,-379],[1173,-822]],[[23104,72629],[776,-15],[856,669],[1596,352]],[[26332,73635],[1226,-163]],[[50303,74895],[1007,-216],[351,-271]],[[51661,74408],[-662,-674],[344,-825]],[[43611,72869],[49,59]],[[43660,72928],[659,550],[639,-68],[140,324],[1800,700],[498,341],[1441,-15],[1466,135]],[[13260,70295],[-2073,1086],[-404,-103],[-1536,594],[-227,1100],[146,551],[463,209],[117,556],[1083,765],[932,177]],[[11761,75230],[491,-453],[-505,-1046],[2249,-782],[-13,-391],[519,-692],[470,-240]],[[42073,75124],[-214,-793],[-527,-715]],[[41332,73616],[-160,-85]],[[41172,73531],[-627,359],[-645,1163],[625,277],[1284,3],[264,-209]],[[32259,74985],[1013,-459],[585,-791],[-335,-337],[371,-479],[1251,-473],[-243,-940]],[[27558,73472],[678,262],[-342,763]],[[27894,74497],[1108,153]],[[29002,74650],[353,112],[-1095,898]],[[28260,75660],[536,114],[1745,-153],[1314,-664],[404,28]],[[27894,74497],[-788,-573]],[[27106,73924],[-328,897],[-1852,870],[233,720],[1127,24],[203,-403],[695,190],[-180,-447],[1998,-1125]],[[11580,76328],[-84,-325]],[[11496,76003],[-1038,-169],[-85,793],[401,341]],[[10774,76968],[806,-640]],[[43660,72928],[-705,858],[-1365,-5],[-258,-165]],[[42073,75124],[474,61],[600,1165],[1206,425],[2382,51],[642,-217]],[[47377,76609],[1357,-441],[1490,-725],[79,-548]],[[53668,74866],[-796,-757],[-1211,299]],[[47377,76609],[406,908],[306,1712]],[[48089,79229],[1203,-69],[1867,-1306],[723,-646],[940,-1393],[-496,-905],[1342,-44]],[[12829,79423],[379,-189],[165,-2312]],[[13373,76922],[-1051,-526],[-742,-68]],[[10774,76968],[-493,430],[496,283],[1784,1877]],[[12561,79558],[268,-135]],[[39087,73364],[-1166,1513],[-1414,1236],[-1890,274],[-851,1501]],[[33766,77888],[1225,750]],[[34991,78638],[84,-495],[1097,-580],[2140,-154],[2660,641],[1918,-812],[2598,1831],[835,253],[-330,462],[308,246],[914,-452],[13,-321],[861,-28]],[[41172,73531],[-2085,-167]],[[23080,80832],[708,-497],[1551,-288],[55,-360],[590,-30]],[[25984,79657],[288,-253],[-529,-1006],[71,-556]],[[25814,77842],[-992,257],[-818,-189],[-483,-387]],[[23521,77523],[-627,874],[-521,1136],[-363,131]],[[22010,79664],[-11,662]],[[21999,80326],[1081,506]],[[30244,80544],[877,-1154],[463,-1017],[1805,-639]],[[33389,77734],[82,-676],[-336,-339],[187,-412],[-493,-985],[-570,-337]],[[28260,75660],[-1056,850],[-372,1643],[-1018,-311]],[[25984,79657],[813,371],[79,343],[1075,161]],[[27951,80532],[949,184],[1344,-172]],[[33766,77888],[-377,-154]],[[30244,80544],[725,419],[1157,-187],[1388,322]],[[33514,81098],[1137,-795],[340,-1665]],[[20016,82199],[1411,-1093],[572,-780]],[[22010,79664],[-1425,73],[-1585,-227],[-845,-291],[-658,304],[-1122,871],[-143,779]],[[16232,81173],[229,152],[1136,-142],[753,258],[561,821]],[[18911,82262],[1105,-63]],[[22058,83789],[-2042,-1590]],[[18911,82262],[117,385],[-318,861]],[[18710,83508],[907,-34],[605,-318],[433,397],[1403,236]],[[19165,75402],[-2010,704],[-1411,92],[-1203,280],[-635,507],[-533,-63]],[[12829,79423],[882,1248],[930,1038]],[[14641,81709],[1591,-536]],[[23521,77523],[-1042,-829],[-2398,-1315],[-916,23]],[[25012,83422],[-222,-1134],[-683,-951],[-106,-557],[-921,52]],[[22058,83789],[809,1125]],[[22867,84914],[1433,-1310],[712,-182]],[[28369,84439],[1203,-1218]],[[29572,83221],[-699,-108],[-490,-494],[-537,-1532],[105,-555]],[[25012,83422],[271,1612]],[[25283,85034],[613,-42],[1292,-493],[978,181],[203,-241]],[[20506,86182],[2361,-1268]],[[18710,83508],[-1549,736],[-767,-31],[-876,457]],[[15518,84670],[638,505]],[[16156,85175],[1164,649],[1607,444],[1579,-86]],[[40281,83056],[605,327],[490,-136],[173,680],[-474,355],[-297,901],[-36,820]],[[40742,86003],[-16,63]],[[40726,86066],[1454,80],[845,-114],[884,-552],[1885,-1721],[-646,-428],[-321,-617],[-755,-557],[-832,-307],[-1057,328],[-845,61],[-1057,817]],[[40281,83056],[-1473,745],[-658,143],[-95,737],[-940,100],[-391,506],[615,318]],[[37339,85605],[636,409],[1050,277],[612,359],[1105,-647]],[[22466,87720],[-350,-174],[577,-588],[2219,-897]],[[24912,86061],[371,-1027]],[[20506,86182],[567,886],[-284,969],[880,199]],[[21669,88236],[797,-516]],[[22466,87720],[1643,438],[383,407]],[[24492,88565],[469,-167],[1000,537]],[[25961,88935],[275,-1285],[-197,-735],[-450,-564],[-677,-290]],[[25961,88935],[226,-296],[843,-236],[-289,-655],[1332,-182],[1203,89],[1239,-559],[-837,-1742],[-1309,-915]],[[15518,84670],[-405,-731],[-9,-821],[-463,-1409]],[[12561,79558],[15,428],[-996,1107],[-233,549],[-55,981],[-940,889],[-444,1229],[444,538],[-49,2253],[-366,1171],[3761,424]],[[13698,89127],[-338,-527],[102,-871],[-626,-463],[-110,-677],[267,-646],[520,-445],[2643,-323]],[[21086,90060],[-255,-308],[437,-958],[-307,-154],[708,-404]],[[13698,89127],[6770,760],[131,196]],[[20599,90083],[487,-23]],[[23146,90019],[1283,-711]],[[24429,89308],[-542,139],[-100,-587],[705,-295]],[[21086,90060],[602,273],[691,-394],[767,80]],[[25442,91109],[-211,-496],[44,-825],[-846,-480]],[[23146,90019],[100,502],[1367,737],[829,-149]],[[26787,92482],[423,-516],[1582,-238]],[[28792,91728],[-559,-832],[781,-314],[157,-503],[1219,-118],[417,-1216],[-125,-1051],[914,48],[1051,431],[1768,-642],[526,-313]],[[34941,87218],[1008,-356],[620,456],[290,-1046],[480,-667]],[[40726,86066],[396,1647],[511,627],[-875,1328],[1751,2289]],[[42509,91957],[611,-634],[309,-811],[764,130],[409,460]],[[44602,91102],[884,-255],[1273,-739],[369,93],[1755,-390],[1357,350]],[[50240,90161],[1610,-974],[420,-899],[594,-542],[636,119],[766,-762],[-102,-306],[870,-731],[-282,-1032],[257,-639],[-491,-429],[1509,-1332],[984,-563],[691,117],[975,-457],[-75,-168],[-2311,-464],[-722,-951],[895,-1121],[1582,-172],[2642,-708],[-998,-808],[-271,-929],[391,-582],[-2263,-1054],[-994,339],[-1612,-56],[-604,-420],[-669,229]],[[33514,81098],[786,1755],[-8,336],[-979,202],[-1251,-807],[-1873,118],[-617,519]],[[25442,91109],[-18,949],[1363,424]],[[24861,93875],[1792,-660],[134,-733]],[[20599,90083],[2703,4057]],[[23302,94140],[1559,-265]],[[42509,91957],[-1296,-400],[-460,393],[-743,-138],[-327,275],[-735,-117],[-1137,209],[-117,773],[605,232],[88,379],[-1105,312],[-463,-134],[-704,281],[1517,126]],[[37632,94148],[740,344],[723,53]],[[39095,94545],[561,-345],[951,100],[794,-289],[1192,-162],[772,-1424],[603,-468],[879,-248],[-245,-607]],[[39095,94545],[1989,383],[642,-218],[1219,-18],[1625,-1296],[2015,-1070],[784,-590],[1783,-826],[1088,-749]],[[34941,87218],[-57,1671],[-847,395],[744,564],[-1173,1482],[1201,720],[152,826],[-1380,206]],[[33581,93082],[751,1060],[1238,1098],[2062,-1092]],[[23302,94140],[269,405],[-1850,1472],[584,3867],[761,115],[3211,-2735],[-252,-273],[136,-624],[-1005,124],[-870,496],[-480,-832],[54,-382],[1001,-1898]],[[28710,5621],[-1235,-259],[-1785,241],[-469,-226],[-697,1057],[-68,1202],[-1489,885],[-298,-559],[-344,57],[-968,1016],[-1964,223],[1067,576]],[[26095,11635],[1526,-1125],[2075,24]],[[37778,12002],[-1200,-371],[-233,-669]],[[33972,11345],[282,326],[1238,313],[840,1080]],[[35627,16252],[780,-76]],[[36497,16178],[-339,-77],[-1412,-1398],[780,-942],[1096,-50]],[[35464,4507],[1574,-378],[905,-503],[1219,-210],[4549,558],[1146,-518],[708,-855],[-927,-1468],[-1447,-299],[-918,-371],[-531,-463],[-498,629],[-681,359],[-2809,1029],[-356,247],[-1915,717],[-1633,143]],[[99227,44086],[57,-1253],[-618,-546],[-859,-274],[-1048,-83]],[[79506,47707],[-284,650],[-751,578]],[[78471,48935],[409,210],[380,881],[-1464,1220]],[[77796,51246],[721,358],[114,456],[1205,-508],[546,-555]],[[78471,48935],[-1908,495],[-804,328]],[[76412,50987],[445,-109],[939,368]],[[83732,50310],[675,239],[288,829]],[[69829,51875],[-799,418],[-781,975],[-273,632]],[[67976,53900],[2435,714]],[[70411,54614],[1813,1370],[580,-249],[484,-685],[1761,-834],[63,-714],[-1048,-55],[-388,-282]],[[70010,48288],[-1000,604],[-541,-430]],[[66214,53270],[1762,630]],[[75214,42748],[-698,545],[-616,70],[-530,-461]],[[73370,42902],[-169,751],[-825,781],[-772,1032]],[[71604,45466],[414,1707],[360,871]],[[73370,42902],[-1250,-1274],[-574,-221],[-1019,147],[-1552,498],[-1327,-7]],[[67648,42045],[-859,505],[141,1087],[297,555]],[[67227,44192],[453,11],[886,550],[181,1035]],[[68747,45788],[1558,129],[1299,-451]],[[67227,44192],[-2091,680],[-217,862]],[[66160,46194],[723,-212],[1864,-194]],[[67648,42045],[-735,-93]],[[62613,41927],[-382,1290],[64,984]],[[53342,48676],[784,-394],[1076,-81],[577,-502],[1368,-313]],[[46941,43262],[660,-312]],[[46941,43262],[1699,1434]],[[54133,52693],[900,107],[2596,-468],[969,-370],[1635,-376]],[[14278,20898],[883,383],[181,598],[984,1567],[1311,1871]],[[26332,73635],[774,289]],[[23104,72629],[-1720,116],[-1211,1447],[-1148,851],[140,359]],[[11761,75230],[323,301],[-588,472]],[[33819,56958],[-725,-28]],[[46261,53873],[-786,1351],[1220,284]],[[52197,57176],[1026,225],[1968,-169]],[[55191,57232],[750,-1231],[2252,-262]],[[58193,55739],[-488,-501],[-1943,-436],[-338,-960],[-566,50]],[[52197,57176],[98,884],[983,739],[645,1443],[874,494],[504,615],[986,-77]],[[56287,61274],[-504,-544],[978,-265]],[[56761,60465],[68,-428],[-626,-366],[-225,-469],[234,-470],[-1021,-1500]],[[56761,60465],[1618,-90]],[[58379,60375],[184,103]],[[58563,60478],[352,-890],[670,-393],[526,-1037],[449,-412],[-438,-202],[-1366,-1157],[-563,-648]],[[63177,60362],[770,-1067],[1000,-226],[108,-584],[636,50],[516,-392],[115,-520],[1344,-23],[201,-743],[800,-1030],[401,-1009],[1343,-204]],[[58563,60478],[678,463],[1460,-457],[1238,198],[559,-303],[679,-17]],[[58379,60375],[22,478],[556,1555],[-41,454]],[[58916,62862],[306,21],[669,953],[-43,504]],[[59848,64340],[2267,-728],[2783,-660],[-670,-697],[-587,-1364],[-464,-529]],[[56287,61274],[272,318],[-485,223],[-1106,-235],[-1021,1305],[30,287]],[[53977,63172],[2574,-99],[1073,-305],[1292,94]],[[54809,66235],[-892,-1863],[36,-431],[655,-105],[-631,-664]],[[50599,67028],[1273,-111],[2937,-682]],[[54809,66235],[839,-380],[130,-361],[1388,-385],[290,-1203],[1008,-719],[19,256],[1365,897]],[[39049,70884],[688,659],[-650,1821]],[[28792,91728],[1373,-407],[667,-370],[1241,1258],[1508,873]],[[17740,42055],[-211,1257],[38,832]],[[17567,44144],[-873,193],[361,730],[808,-19]],[[7982,21798],[406,1872],[-47,367],[-988,645],[-2622,-264],[-247,-291],[-900,-223]],[[2254,26265],[395,589],[-365,256],[490,298],[-40,762],[-298,212],[357,991],[702,-21]],[[3495,29352],[864,-311],[1159,99],[79,534],[620,289],[-81,603],[-699,777]],[[5437,31343],[12024,-3817]],[[3495,29352],[1639,2100]],[[5134,31452],[303,-109]],[[5134,31452],[-1053,613],[-410,625],[-957,392],[-21,521],[-442,1249],[-34,968],[192,661],[2069,1616],[2192,2767],[463,862],[702,330],[336,1040],[60,2870],[-414,992],[-72,1166],[-470,968],[-432,297],[0,821],[-260,1170],[566,591],[879,508],[783,801],[555,1149],[-173,1073],[959,1199],[545,1031],[121,1390],[-37,2183],[508,594],[542,131],[596,571]]],"transform":{"scale":[6.3089630896309755e-06,8.249282492824916e-06],"translate":[81.14644,18.39263]},"objects":{"villages":{"type":"GeometryCollection","geometries":[{"arcs":[[0,1,2,3,4]],"type":"Polygon","properties":{"n":"Burdikarka","c":450193,"d":"Dantewada","s":"CHHATTISGARH"}},{"arcs":[[5]],"type":"Polygon","properties":{"n":"P F","c":0,"d":"Dantewada","s":"CHHATTISGARH"}},{"arcs":[[6]],"type":"Polygon","properties":{"n":"Kalepal","c":450254,"d":"Dantewada","s":"CHHATTISGARH"}},{"arcs":[[7,8,9,10,11,12]],"type":"Polygon","properties":{"n":"Gudase","c":450216,"d":"Dantewada","s":"CHHATTISGARH"}},{"arcs":[[-4,13,14,15,16,17,18,19]],"type":"Polygon","properties":{"n":"Gadhmiri","c":450229,"d":"Dantewada","s":"CHHATTISGARH"}},{"arcs":[[20,21,22,23,24]],"type":"Polygon","properties":{"n":"Bhansi","c":450093,"d":"Dantewada","s":"CHHATTISGARH"}},{"arcs":[[25]],"type":"Polygon","properties":{"n":"P F","c":0,"d":"Dantewada","s":"CHHATTISGARH"}},{"arcs":[[26]],"type":"Polygon","properties":{"n":"P F","c":0,"d":"Dantewada","s":"CHHATTISGARH"}},{"arcs":[[27,28]],"type":"Polygon","properties":{"n":"GATAM P F","c":0,"d":"Dantewada","s":"CHHATTISGARH"}},{"arcs":[[29,30,31,-13,32,33],[-6]],"type":"Polygon","properties":{"n":"Parcheli","c":450218,"d":"Dantewada","s":"CHHATTISGARH"}},{"arcs":[[34,35,36,37,38,39,40,41,42]],"type":"Polygon","properties":{"n":"Masenar","c":450107,"d":"Dantewada","s":"CHHATTISGARH"}},{"arcs":[[43,44]],"type":"Polygon","properties":{"n":"Chandenar","c":450117,"d":"Dantewada","s":"CHHATTISGARH"}},{"arcs":[[45,46,-24,47,48,49]],"type":"Polygon","properties":{"n":"Basanpur","c":450091,"d":"Dantewada","s":"CHHATTISGARH"}},{"arcs":[[50,51]],"type":"Polygon","properties":{"n":"Chhotegodre","c":450068,"d":"Dantewada","s":"CHHATTISGARH"}},{"arcs":[[52,-50,53]],"type":"Polygon","properties":{"n":"P F","c":0,"d":"Dantewada","s":"CHHATTISGARH"}},{"arcs":[[-52,54,-44,55]],"type":"Polygon","properties":{"n":"Netapur","c":450116,"d":"Dantewada","s":"CHHATTISGARH"}},{"arcs":[[56,57,58,59,60,61],[-27]],"type":"Polygon","properties":{"n":"Bengloor","c":450187,"d":"Dantewada","s":"CHHATTISGARH"}},{"arcs":[[-41,62,63,-25,-47,64]],"type":"Polygon","properties":{"n":"Dhurli","c":450090,"d":"Dantewada","s":"CHHATTISGARH"}},{"arcs":[[65,66,67]],"type":"Polygon","properties":{"n":"P F","c":0,"d":"Dantewada","s":"CHHATTISGARH"}},{"arcs":[[68,69,70,71,-31,72,73],[-7],[74]],"type":"Polygon","properties":{"n":"KANGER RESERVED FOREST","c":0,"d":"Dantewada","s":"CHHATTISGARH"}},{"arcs":[[75]],"type":"Polygon","properties":{"n":"P F","c":0,"d":"Dantewada","s":"CHHATTISGARH"}},{"arcs":[[76,77,78,79,-5,-20,80,81]],"type":"Polygon","properties":{"n":"Gadapal","c":450108,"d":"Dantewada","s":"CHHATTISGARH"}},{"arcs":[[82,-54,-49,83,84]],"type":"Polygon","properties":{"n":"Jhirka","c":450085,"d":"Dantewada","s":"CHHATTISGARH"}},{"arcs":[[85,86,87,88,89,90,91]],"type":"Polygon","properties":{"n":"Badelekhapal","c":450190,"d":"Dantewada","s":"CHHATTISGARH"}},{"arcs":[[-68,92,93,94,95]],"type":"Polygon","properties":{"n":"Kundeli","c":450087,"d":"Dantewada","s":"CHHATTISGARH"}},{"arcs":[[96,-94,97,-85,98,99]],"type":"Polygon","properties":{"n":"Kamaloor","c":450086,"d":"Dantewada","s":"CHHATTISGARH"}},{"arcs":[[100,101,102]],"type":"Polygon","properties":{"n":"Murki","c":450062,"d":"Dantewada","s":"CHHATTISGARH"}},{"arcs":[[103,-97,104,105]],"type":"Polygon","properties":{"n":"P F","c":0,"d":"Dantewada","s":"CHHATTISGARH"}},{"arcs":[[-102,106,107,108,-81,-19,109,-35,110,111,112,113],[-45,-55,-51,-56]],"type":"Polygon","properties":{"n":"CHANDENAR R F","c":0,"d":"Dantewada","s":"CHHATTISGARH"}},{"arcs":[[114,-106,115,116]],"type":"Polygon","properties":{"n":"Mangnar","c":450084,"d":"Dantewada","s":"CHHATTISGARH"}},{"arcs":[[117,118,-82,-109,119,120,121]],"type":"Polygon","properties":{"n":"Badegodre","c":450067,"d":"Dantewada","s":"CHHATTISGARH"}},{"arcs":[[122,123,124,-95,-104,-115,125,126,127]],"type":"Polygon","properties":{"n":"Degalras","c":450077,"d":"Dantewada","s":"CHHATTISGARH"}},{"arcs":[[128,-116,-105,-100,129,130]],"type":"Polygon","properties":{"n":"Gondpal","c":450081,"d":"Dantewada","s":"CHHATTISGARH"}},{"arcs":[[131,-128,132]],"type":"Polygon","properties":{"n":"Kathiyarras","c":931268,"d":"Dantewada","s":"CHHATTISGARH"}},{"arcs":[[133,-111,-43,134,-66,-96,-125]],"type":"Polygon","properties":{"n":"Kumharras","c":450088,"d":"Dantewada","s":"CHHATTISGARH"}},{"arcs":[[135,136,137,138,139]],"type":"Polygon","properties":{"n":"Nahadi","c":450269,"d":"Dantewada","s":"CHHATTISGARH"}},{"arcs":[[140,141,142,143,144,145,146]],"type":"Polygon","properties":{"n":"Aranpur","c":450266,"d":"Dantewada","s":"CHHATTISGARH"}},{"arcs":[[147,148,149,150,151]],"type":"Polygon","properties":{"n":"Burgum","c":450274,"d":"Dantewada","s":"CHHATTISGARH"}},{"arcs":[[152,153,154,155,-140,156,157,-147,158,159]],"type":"Polygon","properties":{"n":"Potali","c":450271,"d":"Dantewada","s":"CHHATTISGARH"}},{"arcs":[[160,-159,-146,161,162,163]],"type":"Polygon","properties":{"n":"Pedka","c":450264,"d":"Dantewada","s":"CHHATTISGARH"}},{"arcs":[[164,165,166,167]],"type":"Polygon","properties":{"n":"Barrem","c":450277,"d":"Dantewada","s":"CHHATTISGARH"}},{"arcs":[[168,-162,-145,169]],"type":"Polygon","properties":{"n":"Acheli","c":450265,"d":"Dantewada","s":"CHHATTISGARH"}},{"arcs":[[170,171,172]],"type":"Polygon","properties":{"n":"BODE PALLI","c":0,"d":"Dantewada","s":"CHHATTISGARH"}},{"arcs":[[173,174,-170,-144,175,-171,176,177]],"type":"Polygon","properties":{"n":"Porokakadi","c":450308,"d":"Dantewada","s":"CHHATTISGARH"}},{"arcs":[[178,179,180,181,-153]],"type":"Polygon","properties":{"n":"Arbe","c":450275,"d":"Dantewada","s":"CHHATTISGARH"}},{"arcs":[[182,-178,183,184,185]],"type":"Polygon","properties":{"n":"Aalnar","c":450260,"d":"Dantewada","s":"CHHATTISGARH"}},{"arcs":[[-184,-177,-173,186,187]],"type":"Polygon","properties":{"n":"Bodepali","c":450259,"d":"Dantewada","s":"CHHATTISGARH"}},{"arcs":[[-152,188,-168,189,190,191]],"type":"Polygon","properties":{"n":"Rewali","c":450273,"d":"Dantewada","s":"CHHATTISGARH"}},{"arcs":[[192,193,194,-164,195,-174,-183,196]],"type":"Polygon","properties":{"n":"Gumiyapal","c":450261,"d":"Dantewada","s":"CHHATTISGARH"}},{"arcs":[[197,198]],"type":"Polygon","properties":{"n":"Dodpal","c":450208,"d":"Dantewada","s":"CHHATTISGARH"}},{"arcs":[[199,-193,200,201]],"type":"Polygon","properties":{"n":"Kutrem","c":450262,"d":"Dantewada","s":"CHHATTISGARH"}},{"arcs":[[202,203]],"type":"Polygon","properties":{"n":"Kidariras","c":450202,"d":"Dantewada","s":"CHHATTISGARH"}},{"arcs":[[204,205]],"type":"Polygon","properties":{"n":"Purangel","c":450249,"d":"Dantewada","s":"CHHATTISGARH"}},{"arcs":[[-199,206,207,208]],"type":"Polygon","properties":{"n":"Adpal","c":450207,"d":"Dantewada","s":"CHHATTISGARH"}},{"arcs":[[209,210,211]],"type":"Polygon","properties":{"n":"Pirnar","c":450252,"d":"Dantewada","s":"CHHATTISGARH"}},{"arcs":[[212,213,214,-202,215,216,217]],"type":"Polygon","properties":{"n":"Samalwar","c":450255,"d":"Dantewada","s":"CHHATTISGARH"}},{"arcs":[[218,219,-180,220,-194,-200,-215,221]],"type":"Polygon","properties":{"n":"Sameli","c":450256,"d":"Dantewada","s":"CHHATTISGARH"}},{"arcs":[[222,-217,223,-212,224,225,226]],"type":"Polygon","properties":{"n":"Perpa","c":450253,"d":"Dantewada","s":"CHHATTISGARH"}},{"arcs":[[227,-219,228,229,230,231,232]],"type":"Polygon","properties":{"n":"Palnar","c":450279,"d":"Dantewada","s":"CHHATTISGARH"}},{"arcs":[[233,-218,-223,234]],"type":"Polygon","properties":{"n":"Cholnar","c":450247,"d":"Dantewada","s":"CHHATTISGARH"}},{"arcs":[[235,-204,236,-191,237,-228,238,239]],"type":"Polygon","properties":{"n":"Fulpad","c":450281,"d":"Dantewada","s":"CHHATTISGARH"}},{"arcs":[[-232,240,241,242]],"type":"Polygon","properties":{"n":"Penta","c":450280,"d":"Dantewada","s":"CHHATTISGARH"}},{"arcs":[[-230,243,-213,-234,244,245]],"type":"Polygon","properties":{"n":"Kalepal","c":450254,"d":"Dantewada","s":"CHHATTISGARH"}},{"arcs":[[246,247,248,-226,249,250,251]],"type":"Polygon","properties":{"n":"Kirandul (M)","c":802071,"d":"Dantewada","s":"CHHATTISGARH"}},{"arcs":[[252,-242,253]],"type":"Polygon","properties":{"n":"Lendra","c":450243,"d":"Dantewada","s":"CHHATTISGARH"}},{"arcs":[[254,255,-245,-235,-227,-249,256]],"type":"Polygon","properties":{"n":"Madadi","c":450246,"d":"Dantewada","s":"CHHATTISGARH"}},{"arcs":[[257,258]],"type":"Polygon","properties":{"n":"Chhote Bedma","c":450200,"d":"Dantewada","s":"CHHATTISGARH"}},{"arcs":[[259,260,261,-208,262,263,264,265,266]],"type":"Polygon","properties":{"n":"Bhusaras","c":450205,"d":"Dantewada","s":"CHHATTISGARH"}},{"arcs":[[267,-258,268,-264,269,-240,270,271]],"type":"Polygon","properties":{"n":"Bade Bedma","c":450201,"d":"Dantewada","s":"CHHATTISGARH"}},{"arcs":[[272,-252,273,274,275]],"type":"Polygon","properties":{"n":"Kodenar","c":450244,"d":"Dantewada","s":"CHHATTISGARH"}},{"arcs":[[-247,-273,276,277]],"type":"Polygon","properties":{"n":"Bainpal","c":450100,"d":"Dantewada","s":"CHHATTISGARH"}},{"arcs":[[-271,-239,-233,-243,-253,278,279,280]],"type":"Polygon","properties":{"n":"Koriras","c":450199,"d":"Dantewada","s":"CHHATTISGARH"}},{"arcs":[[-261,281,282]],"type":"Polygon","properties":{"n":"Dudhiras","c":450206,"d":"Dantewada","s":"CHHATTISGARH"}},{"arcs":[[-280,283,284,285]],"type":"Polygon","properties":{"n":"Mahrahaurnar","c":450236,"d":"Dantewada","s":"CHHATTISGARH"}},{"arcs":[[286,-277,-276,287,288]],"type":"Polygon","properties":{"n":"Bainpal","c":450100,"d":"Dantewada","s":"CHHATTISGARH"}},{"arcs":[[-255,289,290,291]],"type":"Polygon","properties":{"n":"Cholnar","c":450247,"d":"Dantewada","s":"CHHATTISGARH"}},{"arcs":[[292,293,-272,-281,-286,294,295]],"type":"Polygon","properties":{"n":"Chhotehadma Munda","c":450198,"d":"Dantewada","s":"CHHATTISGARH"}},{"arcs":[[-265,-269,-259,-268,-294,296,297]],"type":"Polygon","properties":{"n":"Mahrakarka","c":450204,"d":"Dantewada","s":"CHHATTISGARH"}},{"arcs":[[-288,-275,298,299]],"type":"Polygon","properties":{"n":"Padhapur","c":450097,"d":"Dantewada","s":"CHHATTISGARH"}},{"arcs":[[300,-295,-285,301,302]],"type":"Polygon","properties":{"n":"Doriras","c":450241,"d":"Dantewada","s":"CHHATTISGARH"}},{"arcs":[[303,-290,-257,-248,-278,-287,304,305]],"type":"Polygon","properties":{"n":"Kadampal","c":450245,"d":"Dantewada","s":"CHHATTISGARH"}},{"arcs":[[306,-282,-260,307]],"type":"Polygon","properties":{"n":"Chhotegudra","c":450210,"d":"Dantewada","s":"CHHATTISGARH"}},{"arcs":[[308,309,-302,-284,-279,-254,-241,-231,-246,-256,-292,310,311,312]],"type":"Polygon","properties":{"n":"Tikanpal","c":450242,"d":"Dantewada","s":"CHHATTISGARH"}},{"arcs":[[-309,313]],"type":"Polygon","properties":{"n":"Jimer","c":450240,"d":"Dantewada","s":"CHHATTISGARH"}},{"arcs":[[314,-297,-293,315,316]],"type":"Polygon","properties":{"n":"Bade Hadmamunda","c":450237,"d":"Dantewada","s":"CHHATTISGARH"}},{"arcs":[[317,318,319]],"type":"Polygon","properties":{"n":"Tongpal","c":450224,"d":"Dantewada","s":"CHHATTISGARH"}},{"arcs":[[-316,-296,-301,320,321,322]],"type":"Polygon","properties":{"n":"Gongpal","c":450235,"d":"Dantewada","s":"CHHATTISGARH"}},{"arcs":[[323,-318,324,325]],"type":"Polygon","properties":{"n":"Jangampal","c":450225,"d":"Dantewada","s":"CHHATTISGARH"}},{"arcs":[[-306,326,327]],"type":"Polygon","properties":{"n":"Pinabacheli","c":450098,"d":"Dantewada","s":"CHHATTISGARH"}},{"arcs":[[-312,328,329,330,331]],"type":"Polygon","properties":{"n":"Khutepal","c":450238,"d":"Dantewada","s":"CHHATTISGARH"}},{"arcs":[[-327,-305,-289,-300,332,333,334]],"type":"Polygon","properties":{"n":"Bacheli","c":0,"d":"Dantewada","s":"CHHATTISGARH"}},{"arcs":[[335,-321,-303,-310,-314,-313,-332,336,337]],"type":"Polygon","properties":{"n":"Samgiri","c":450239,"d":"Dantewada","s":"CHHATTISGARH"}},{"arcs":[[338,339,-71,340,341,342,-326,343]],"type":"Polygon","properties":{"n":"Pratapgiri","c":450226,"d":"Dantewada","s":"CHHATTISGARH"}},{"arcs":[[344,-322,-336,345]],"type":"Polygon","properties":{"n":"Hitawar","c":450233,"d":"Dantewada","s":"CHHATTISGARH"}},{"arcs":[[-329,-311,-291,-304,-328,346,347,348]],"type":"Polygon","properties":{"n":"Dugeli","c":450101,"d":"Dantewada","s":"CHHATTISGARH"}},{"arcs":[[349,-337,-331,350,351]],"type":"Polygon","properties":{"n":"Udela","c":450103,"d":"Dantewada","s":"CHHATTISGARH"}},{"arcs":[[-344,-325,-320,352,-10,353]],"type":"Polygon","properties":{"n":"Badegadam","c":450223,"d":"Dantewada","s":"CHHATTISGARH"}},{"arcs":[[354,-334,355,356]],"type":"Polygon","properties":{"n":"Nerli","c":450096,"d":"Dantewada","s":"CHHATTISGARH"}},{"arcs":[[357,-266,-298,-315,358,359,360,361]],"type":"Polygon","properties":{"n":"Mokhpal","c":450203,"d":"Dantewada","s":"CHHATTISGARH"}},{"arcs":[[-347,-335,-355,362]],"type":"Polygon","properties":{"n":"Behnar","c":450099,"d":"Dantewada","s":"CHHATTISGARH"}},{"arcs":[[363,364,365]],"type":"Polygon","properties":{"n":"Jihakodta","c":450214,"d":"Dantewada","s":"CHHATTISGARH"}},{"arcs":[[366,-364,367,368,369]],"type":"Polygon","properties":{"n":"Adpal","c":450207,"d":"Dantewada","s":"CHHATTISGARH"}},{"arcs":[[-342,370]],"type":"Polygon","properties":{"n":"Chhote Lakhapal","c":450227,"d":"Dantewada","s":"CHHATTISGARH"}},{"arcs":[[-369,371,-308,-267,-358,372,373]],"type":"Polygon","properties":{"n":"Badegudra","c":450209,"d":"Dantewada","s":"CHHATTISGARH"}},{"arcs":[[374,375,-346,-338,-350,376,-16]],"type":"Polygon","properties":{"n":"Nakulnar","c":450230,"d":"Dantewada","s":"CHHATTISGARH"}},{"arcs":[[377,-359,-317,-323,-345,-376,378]],"type":"Polygon","properties":{"n":"Mailawada","c":450234,"d":"Dantewada","s":"CHHATTISGARH"}},{"arcs":[[-339,-354,-9,379]],"type":"Polygon","properties":{"n":"Munaga","c":450219,"d":"Dantewada","s":"CHHATTISGARH"}},{"arcs":[[-373,-362,380,381]],"type":"Polygon","properties":{"n":"Duwalikarka","c":450196,"d":"Dantewada","s":"CHHATTISGARH"}},{"arcs":[[382,-381,-361,383,384,385,-2]],"type":"Polygon","properties":{"n":"Dhanikarka","c":450194,"d":"Dantewada","s":"CHHATTISGARH"}},{"arcs":[[386,-379,-375,-15,387]],"type":"Polygon","properties":{"n":"Kuakonda","c":450231,"d":"Dantewada","s":"CHHATTISGARH"}},{"arcs":[[388,389,390,-22]],"type":"Polygon","properties":{"n":"Porokameli","c":450094,"d":"Dantewada","s":"CHHATTISGARH"}},{"arcs":[[-40,391,-38,392,-351,-330,-349,393,-63]],"type":"Polygon","properties":{"n":"Molasnar","c":450105,"d":"Dantewada","s":"CHHATTISGARH"}},{"arcs":[[-392,-39]],"type":"Polygon","properties":{"n":"Kuhchepal","c":450104,"d":"Dantewada","s":"CHHATTISGARH"}},{"arcs":[[-17,-377,-352,-393,-37,394]],"type":"Polygon","properties":{"n":"Ganjenar","c":450106,"d":"Dantewada","s":"CHHATTISGARH"}},{"arcs":[[395,396,397,-103,-114,398,399,400]],"type":"Polygon","properties":{"n":"Balood","c":450063,"d":"Dantewada","s":"CHHATTISGARH"}},{"arcs":[[-122,401,-397,402]],"type":"Polygon","properties":{"n":"Chitaloor","c":450064,"d":"Dantewada","s":"CHHATTISGARH"}},{"arcs":[[-400,403,404,405,406]],"type":"Polygon","properties":{"n":"Bhairamband","c":450071,"d":"Dantewada","s":"CHHATTISGARH"}},{"arcs":[[407,-405,408,409,410]],"type":"Polygon","properties":{"n":"Aawrnabhata","c":931266,"d":"Dantewada","s":"CHHATTISGARH"}},{"arcs":[[411,-126,-117,-129,412,413]],"type":"Polygon","properties":{"n":"Kawalnar","c":450079,"d":"Dantewada","s":"CHHATTISGARH"}},{"arcs":[[414,-401,-407,415,416]],"type":"Polygon","properties":{"n":"Balpet","c":450070,"d":"Dantewada","s":"CHHATTISGARH"}},{"arcs":[[417,418,419,420,421]],"type":"Polygon","properties":{"n":"Midkulnar","c":450073,"d":"Dantewada","s":"CHHATTISGARH"}},{"arcs":[[422,423,-411,424,425]],"type":"Polygon","properties":{"n":"Chitalanka","c":450072,"d":"Dantewada","s":"CHHATTISGARH"}},{"arcs":[[-425,-410,426,-133,-127,-412,427,428,429]],"type":"Polygon","properties":{"n":"Tudparas","c":450078,"d":"Dantewada","s":"CHHATTISGARH"}},{"arcs":[[430,-413,-131,431,-419,432,433]],"type":"Polygon","properties":{"n":"Keshapur","c":450080,"d":"Dantewada","s":"CHHATTISGARH"}},{"arcs":[[434,-428,-414,-431,435]],"type":"Polygon","properties":{"n":"Bhogam","c":450075,"d":"Dantewada","s":"CHHATTISGARH"}},{"arcs":[[436,437]],"type":"Polygon","properties":{"n":"Muhander","c":450160,"d":"Dantewada","s":"CHHATTISGARH"}},{"arcs":[[-436,-434,438,439]],"type":"Polygon","properties":{"n":"Rewnar","c":450074,"d":"Dantewada","s":"CHHATTISGARH"}},{"arcs":[[440,-439,-433,-418,441,442]],"type":"Polygon","properties":{"n":"Faraspal","c":450161,"d":"Dantewada","s":"CHHATTISGARH"}},{"arcs":[[443,-416,-406,-408,-424,444,445]],"type":"Polygon","properties":{"n":"Teknar","c":450069,"d":"Dantewada","s":"CHHATTISGARH"}},{"arcs":[[446,-417,-444,447,448]],"type":"Polygon","properties":{"n":"Gumda","c":450176,"d":"Dantewada","s":"CHHATTISGARH"}},{"arcs":[[449,-426,-430,450,451,452]],"type":"Polygon","properties":{"n":"Jhodiyawadam","c":450167,"d":"Dantewada","s":"CHHATTISGARH"}},{"arcs":[[-451,-429,-435,-440,-441,453,454,455,456]],"type":"Polygon","properties":{"n":"Binjam","c":450166,"d":"Dantewada","s":"CHHATTISGARH"}},{"arcs":[[-452,-457,457,458]],"type":"Polygon","properties":{"n":"Kutulnar","c":450165,"d":"Dantewada","s":"CHHATTISGARH"}},{"arcs":[[459,-442,-422,460,-438,461,462]],"type":"Polygon","properties":{"n":"Masodi","c":450159,"d":"Dantewada","s":"CHHATTISGARH"}},{"arcs":[[-455,463,464]],"type":"Polygon","properties":{"n":"Siyanar","c":450164,"d":"Dantewada","s":"CHHATTISGARH"}},{"arcs":[[465,-448,-446,466,467,468]],"type":"Polygon","properties":{"n":"Haurnar","c":450174,"d":"Dantewada","s":"CHHATTISGARH"}},{"arcs":[[469,470,-449,-466,471,472]],"type":"Polygon","properties":{"n":"Jaunga","c":450175,"d":"Dantewada","s":"CHHATTISGARH"}},{"arcs":[[473,-464,-454,-443,-460,474,475]],"type":"Polygon","properties":{"n":"Alnar","c":450162,"d":"Dantewada","s":"CHHATTISGARH"}},{"arcs":[[-468,476,477,478]],"type":"Polygon","properties":{"n":"Haram","c":450169,"d":"Dantewada","s":"CHHATTISGARH"}},{"arcs":[[-475,-463,479,480,481]],"type":"Polygon","properties":{"n":"Kundenar","c":450158,"d":"Dantewada","s":"CHHATTISGARH"}},{"arcs":[[482,-477,-467,-445,-423,-450,483,484]],"type":"Polygon","properties":{"n":"Karli","c":450170,"d":"Dantewada","s":"CHHATTISGARH"}},{"arcs":[[-458,-456,-465,-474,485,486]],"type":"Polygon","properties":{"n":"Samlur","c":450163,"d":"Dantewada","s":"CHHATTISGARH"}},{"arcs":[[-473,487,488,489]],"type":"Polygon","properties":{"n":"Badepaneda","c":450173,"d":"Dantewada","s":"CHHATTISGARH"}},{"arcs":[[490,-484,-453,-459,-487,491,492]],"type":"Polygon","properties":{"n":"KARLI RESERVED FOREST","c":0,"d":"Dantewada","s":"CHHATTISGARH"}},{"arcs":[[493,494,-489,495,496]],"type":"Polygon","properties":{"n":"Madase","c":450172,"d":"Dantewada","s":"CHHATTISGARH"}},{"arcs":[[-481,497,498]],"type":"Polygon","properties":{"n":"Bangapal","c":450155,"d":"Dantewada","s":"CHHATTISGARH"}},{"arcs":[[499,500,501]],"type":"Polygon","properties":{"n":"Hiroli","c":450138,"d":"Dantewada","s":"CHHATTISGARH"}},{"arcs":[[502,-485,-491,503,504,505,506]],"type":"Polygon","properties":{"n":"Karli","c":450170,"d":"Dantewada","s":"CHHATTISGARH"}},{"arcs":[[-505,507,508]],"type":"Polygon","properties":{"n":"Budhpadar","c":450182,"d":"Dantewada","s":"CHHATTISGARH"}},{"arcs":[[509,510,511]],"type":"Polygon","properties":{"n":"Kandakarka","c":450148,"d":"Dantewada","s":"CHHATTISGARH"}},{"arcs":[[512,-500,513,514,-497]],"type":"Polygon","properties":{"n":"Nagul","c":450171,"d":"Dantewada","s":"CHHATTISGARH"}},{"arcs":[[515,-494,-515,516,517]],"type":"Polygon","properties":{"n":"Katulnar","c":450139,"d":"Dantewada","s":"CHHATTISGARH"}},{"arcs":[[518,519,-512,520,521]],"type":"Polygon","properties":{"n":"Nelgoda","c":450147,"d":"Dantewada","s":"CHHATTISGARH"}},{"arcs":[[522,523,524,-517,-514,-502,525]],"type":"Polygon","properties":{"n":"Hiroli","c":450138,"d":"Dantewada","s":"CHHATTISGARH"}},{"arcs":[[526,527,528,529,530,531]],"type":"Polygon","properties":{"n":"Gutoli","c":450151,"d":"Dantewada","s":"CHHATTISGARH"}},{"arcs":[[532,533,-507,534,-528,535,536]],"type":"Polygon","properties":{"n":"Kasoli","c":450141,"d":"Dantewada","s":"CHHATTISGARH"}},{"arcs":[[-524,537,-533,538,539]],"type":"Polygon","properties":{"n":"Ronje","c":450140,"d":"Dantewada","s":"CHHATTISGARH"}},{"arcs":[[540,-531,541,542,543]],"type":"Polygon","properties":{"n":"Tarlapal","c":450146,"d":"Dantewada","s":"CHHATTISGARH"}},{"arcs":[[544,-544,545,546]],"type":"Polygon","properties":{"n":"R F","c":0,"d":"Dantewada","s":"CHHATTISGARH"}},{"arcs":[[547,-519,548,549,-542,-530,550]],"type":"Polygon","properties":{"n":"Chhotetumar","c":450149,"d":"Dantewada","s":"CHHATTISGARH"}},{"arcs":[[551,-532,-541,-545,552,553]],"type":"Polygon","properties":{"n":"Salnar","c":450145,"d":"Dantewada","s":"CHHATTISGARH"}},{"arcs":[[554,555,-536,-527,-552,556,557]],"type":"Polygon","properties":{"n":"Chhindnar","c":450125,"d":"Dantewada","s":"CHHATTISGARH"}},{"arcs":[[558,-553,-547,559,560,561]],"type":"Polygon","properties":{"n":"Mustalnar","c":450143,"d":"Dantewada","s":"CHHATTISGARH"}},{"arcs":[[562,563,564]],"type":"Polygon","properties":{"n":"Hidpal","c":450134,"d":"Dantewada","s":"CHHATTISGARH"}},{"arcs":[[-563,565,566]],"type":"Polygon","properties":{"n":"Upet","c":450133,"d":"Dantewada","s":"CHHATTISGARH"}},{"arcs":[[567,568,-557,-554,-559,569,570]],"type":"Polygon","properties":{"n":"Pahurnar","c":450124,"d":"Dantewada","s":"CHHATTISGARH"}},{"arcs":[[-568,571,572,573]],"type":"Polygon","properties":{"n":"Chhote Karka","c":450122,"d":"Dantewada","s":"CHHATTISGARH"}},{"arcs":[[-558,-569,-574,574]],"type":"Polygon","properties":{"n":"Badekarka","c":450123,"d":"Dantewada","s":"CHHATTISGARH"}},{"arcs":[[-561,575,-549,-522,576,577]],"type":"Polygon","properties":{"n":"Garsa","c":0,"d":"Dantewada","s":"CHHATTISGARH"}},{"arcs":[[578,-570,-562,-578,579,580]],"type":"Polygon","properties":{"n":"Kaurgaon","c":450118,"d":"Dantewada","s":"CHHATTISGARH"}},{"arcs":[[581,582,-572,-571,-579,583]],"type":"Polygon","properties":{"n":"Cherpal","c":450120,"d":"Dantewada","s":"CHHATTISGARH"}},{"arcs":[[584,-582,585]],"type":"Polygon","properties":{"n":"Padmeta","c":450121,"d":"Dantewada","s":"CHHATTISGARH"}},{"arcs":[[586,587,588,-566,-565,589,590,591,592,-518,-525,-540,593,-555,-575,-573,-583,-585,594]],"type":"Polygon","properties":{"n":"Norli","c":450135,"d":"Dantewada","s":"CHHATTISGARH"}},{"arcs":[[595,-595,-586,-584,-581,596,597]],"type":"Polygon","properties":{"n":"Tumirgunda","c":450119,"d":"Dantewada","s":"CHHATTISGARH"}},{"arcs":[[-591,598,599,600]],"type":"Polygon","properties":{"n":"Hitameta","c":450127,"d":"Dantewada","s":"CHHATTISGARH"}},{"arcs":[[-592,-601,601]],"type":"Polygon","properties":{"n":"Bhatpal","c":450130,"d":"Dantewada","s":"CHHATTISGARH"}},{"arcs":[[-599,-590,-564,-567,-589,602,603]],"type":"Polygon","properties":{"n":"Barsur (NP)","c":802069,"d":"Dantewada","s":"CHHATTISGARH"}},{"arcs":[[-598,604]],"type":"Polygon","properties":{"n":"NERALI","c":0,"d":"Dantewada","s":"CHHATTISGARH"}},{"arcs":[[-157,-139,605,-142,606]],"type":"Polygon","properties":{"n":"Kakadi","c":450268,"d":"Dantewada","s":"CHHATTISGARH"}},{"arcs":[[-607,-141,-158]],"type":"Polygon","properties":{"n":"Mendpal","c":450267,"d":"Dantewada","s":"CHHATTISGARH"}},{"arcs":[[-169,-175,-196,-163]],"type":"Polygon","properties":{"n":"Taneli","c":450263,"d":"Dantewada","s":"CHHATTISGARH"}},{"arcs":[[607,-155,608,-149]],"type":"Polygon","properties":{"n":"Pujaripal","c":450272,"d":"Dantewada","s":"CHHATTISGARH"}},{"arcs":[[609,-166,610,-150,-609,-154,-182]],"type":"Polygon","properties":{"n":"Nilawaya","c":450278,"d":"Dantewada","s":"CHHATTISGARH"}},{"arcs":[[-137,611]],"type":"Polygon","properties":{"n":"Muler","c":450270,"d":"Dantewada","s":"CHHATTISGARH"}},{"arcs":[[-179,-160,-161,-195,-221]],"type":"Polygon","properties":{"n":"Madenda","c":450257,"d":"Dantewada","s":"CHHATTISGARH"}},{"arcs":[[-220,-238,-190,-167,-610,-181]],"type":"Polygon","properties":{"n":"Jabeli","c":450276,"d":"Dantewada","s":"CHHATTISGARH"}},{"arcs":[[-222,-214,-244,-229]],"type":"Polygon","properties":{"n":"PROTECTED FOREST","c":0,"d":"Dantewada","s":"CHHATTISGARH"}},{"arcs":[[-8,-32,-72,-340,-380]],"type":"Polygon","properties":{"n":"Chikpal","c":450220,"d":"Dantewada","s":"CHHATTISGARH"}},{"arcs":[[612,-69]],"type":"Polygon","properties":{"n":"Marjum","c":450221,"d":"Dantewada","s":"CHHATTISGARH"}},{"arcs":[[-75]],"type":"Polygon","properties":{"n":"Mundenar","c":449640,"d":"Dantewada","s":"CHHATTISGARH"}},{"arcs":[[-33,613,614,615],[-26]],"type":"Polygon","properties":{"n":"Lakharas","c":450189,"d":"Dantewada","s":"CHHATTISGARH"}},{"arcs":[[616,-57,617,-615]],"type":"Polygon","properties":{"n":"Katekalyan","c":450188,"d":"Dantewada","s":"CHHATTISGARH"}},{"arcs":[[-30,618,-73]],"type":"Polygon","properties":{"n":"Nadenar","c":450217,"d":"Dantewada","s":"CHHATTISGARH"}},{"arcs":[[-61,-29,619,620,621],[-76]],"type":"Polygon","properties":{"n":"Mathadi","c":450186,"d":"Dantewada","s":"CHHATTISGARH"}},{"arcs":[[-28,-60,622,-92,623,-620]],"type":"Polygon","properties":{"n":"Gatam","c":450185,"d":"Dantewada","s":"CHHATTISGARH"}},{"arcs":[[-614,-12,624,625,626,-58,-617]],"type":"Polygon","properties":{"n":"Tumakpal","c":450215,"d":"Dantewada","s":"CHHATTISGARH"}},{"arcs":[[-626,627,628,629,630]],"type":"Polygon","properties":{"n":"Telam","c":450213,"d":"Dantewada","s":"CHHATTISGARH"}},{"arcs":[[631,-87,632,-630]],"type":"Polygon","properties":{"n":"Kodaripal","c":450191,"d":"Dantewada","s":"CHHATTISGARH"}},{"arcs":[[-629,633,-365,-367,634,-88,-632]],"type":"Polygon","properties":{"n":"Tetam","c":450212,"d":"Dantewada","s":"CHHATTISGARH"}},{"arcs":[[-89,-635,-370,-374,-382,-383,-1,-80,635]],"type":"Polygon","properties":{"n":"Surnar","c":450197,"d":"Dantewada","s":"CHHATTISGARH"}},{"arcs":[[-86,-623,-59,-627,-631,-633]],"type":"Polygon","properties":{"n":"Nayanar","c":450192,"d":"Dantewada","s":"CHHATTISGARH"}},{"arcs":[[-384,-360,-378,-387,636]],"type":"Polygon","properties":{"n":"Halbaras","c":450232,"d":"Dantewada","s":"CHHATTISGARH"}},{"arcs":[[-637,637,-385]],"type":"Polygon","properties":{"n":"Nadiyapadar","c":450195,"d":"Dantewada","s":"CHHATTISGARH"}},{"arcs":[[-386,-638,-388,-14,-3]],"type":"Polygon","properties":{"n":"GARHPADAR","c":0,"d":"Dantewada","s":"CHHATTISGARH"}},{"arcs":[[-18,-395,-36,-110]],"type":"Polygon","properties":{"n":"Renganar","c":450228,"d":"Dantewada","s":"CHHATTISGARH"}},{"arcs":[[-90,-636,-79,638]],"type":"Polygon","properties":{"n":"Toylanka","c":450110,"d":"Dantewada","s":"CHHATTISGARH"}},{"arcs":[[-65,-46,-53,-83,-98,-93,-67,-135,-42]],"type":"Polygon","properties":{"n":"Gamawada","c":450089,"d":"Dantewada","s":"CHHATTISGARH"}},{"arcs":[[639,-210,-224,-216,-201,-197,-186]],"type":"Polygon","properties":{"n":"Madkamiras","c":450251,"d":"Dantewada","s":"CHHATTISGARH"}},{"arcs":[[-550,-576,-560,-546,-543]],"type":"Polygon","properties":{"n":"Gumalnar","c":450144,"d":"Dantewada","s":"CHHATTISGARH"}},{"arcs":[[640,-508,-504,-493]],"type":"Polygon","properties":{"n":"Japodi","c":450168,"d":"Dantewada","s":"CHHATTISGARH"}},{"arcs":[[-506,-509,-641,-492,641,-551,-529,-535]],"type":"Polygon","properties":{"n":"Budhpadar","c":450182,"d":"Dantewada","s":"CHHATTISGARH"}},{"arcs":[[-642,-486,-476,-482,-499,642,-510,-520,-548]],"type":"Polygon","properties":{"n":"Badetumnar","c":450157,"d":"Dantewada","s":"CHHATTISGARH"}},{"arcs":[[643,-123,-132,-427,-409,-404,-399,-113]],"type":"Polygon","properties":{"n":"Dantewada (NP)","c":802067,"d":"Dantewada","s":"CHHATTISGARH"}},{"arcs":[[-134,-124,-644,-112]],"type":"Polygon","properties":{"n":"Karnjener","c":450061,"d":"Dantewada","s":"CHHATTISGARH"}},{"arcs":[[-120,-108,644]],"type":"Polygon","properties":{"n":"Badegodre","c":450067,"d":"Dantewada","s":"CHHATTISGARH"}},{"arcs":[[-645,-107,-101,-398,-402,-121]],"type":"Polygon","properties":{"n":"Matenar","c":450065,"d":"Dantewada","s":"CHHATTISGARH"}},{"arcs":[[-77,-119,645,646,647]],"type":"Polygon","properties":{"n":"Muskel","c":450109,"d":"Dantewada","s":"CHHATTISGARH"}},{"arcs":[[-646,648,649,650]],"type":"Polygon","properties":{"n":"Jaram","c":450059,"d":"Dantewada","s":"CHHATTISGARH"}},{"arcs":[[-647,-651,651,652,653]],"type":"Polygon","properties":{"n":"Mendoli","c":450114,"d":"Dantewada","s":"CHHATTISGARH"}},{"arcs":[[654,-621,-624,-91,-639,-78,-648,-654,655]],"type":"Polygon","properties":{"n":"Metapal","c":450115,"d":"Dantewada","s":"CHHATTISGARH"}},{"arcs":[[-656,-653,656,657,658]],"type":"Polygon","properties":{"n":"Kawadgaon","c":450111,"d":"Dantewada","s":"CHHATTISGARH"}},{"arcs":[[-657,-652,-650,659,660]],"type":"Polygon","properties":{"n":"Dumam","c":450112,"d":"Dantewada","s":"CHHATTISGARH"}},{"arcs":[[661,-660,-649,-118,-403,-396,-415,-447,-471,662]],"type":"Polygon","properties":{"n":"Pondum","c":450060,"d":"Dantewada","s":"CHHATTISGARH"}},{"arcs":[[-658,-661,-662,663]],"type":"Polygon","properties":{"n":"Dabpal","c":450113,"d":"Dantewada","s":"CHHATTISGARH"}},{"arcs":[[-496,-488,-472,-469,-479,664,-526,-501,-513]],"type":"Polygon","properties":{"n":"Geedam (NP)","c":802070,"d":"Dantewada","s":"CHHATTISGARH"}},{"arcs":[[-665,-478,-483,-503,-534,-538,-523]],"type":"Polygon","properties":{"n":"Hiranar","c":450142,"d":"Dantewada","s":"CHHATTISGARH"}},{"arcs":[[-539,-537,-556,-594]],"type":"Polygon","properties":{"n":"Korlapal","c":450132,"d":"Dantewada","s":"CHHATTISGARH"}},{"arcs":[[-588,665,-603]],"type":"Polygon","properties":{"n":"Muchnar","c":450126,"d":"Dantewada","s":"CHHATTISGARH"}},{"arcs":[[666,-389,-21,-64,-394,-348,-363,-357]],"type":"Polygon","properties":{"n":"Badekameli","c":450095,"d":"Dantewada","s":"CHHATTISGARH"}},{"arcs":[[-390,667]],"type":"Polygon","properties":{"n":"KAMELI","c":0,"d":"Dantewada","s":"CHHATTISGARH"}},{"arcs":[[-250,-225,-211,-640,-185,-188,668,-206,669,670,671]],"type":"Polygon","properties":{"n":"BAILADILA R F","c":0,"d":"Dantewada","s":"CHHATTISGARH"}},{"arcs":[[-671,672,673]],"type":"Polygon","properties":{"n":"Lawa","c":450248,"d":"Dantewada","s":"CHHATTISGARH"}},{"arcs":[[-432,-130,-99,-84,-48,-23,-391,-668,-667,-356,-333,-299,-274,-251,-672,-674,674,-420]],"type":"Polygon","properties":{"n":"Bade Bacheli (M)","c":802068,"d":"Dantewada","s":"CHHATTISGARH"}}]}}}