{"type":"Topology","arcs":[[[41869,36932],[1895,-1338]],[[43764,35594],[-1472,-1097],[29,-1472],[-214,-901],[228,-577]],[[42335,31547],[-979,-1208]],[[41356,30339],[-1601,-1134],[-1395,898]],[[38360,30103],[-1230,619],[-1162,172],[-1062,511],[-1563,1411],[-931,68],[-1290,545]],[[31122,33429],[-708,514]],[[30414,33943],[417,819],[985,1106],[461,1179],[-488,837]],[[31789,37884],[1164,779]],[[32953,38663],[3519,-1372],[3738,-818],[-52,309],[1711,150]],[[19899,11559],[1494,-1099],[2928,-1054]],[[24321,9406],[102,-441],[-585,-864]],[[23838,8101],[-2149,-226],[-1767,193],[-553,-491],[-961,167]],[[18408,7744],[-263,536],[-1041,1159]],[[17104,9439],[945,626],[946,1381]],[[18995,11446],[257,146]],[[19252,11592],[647,-33]],[[18423,49813],[587,-938],[684,-480]],[[19694,48395],[299,-275]],[[19993,48120],[327,-1276],[602,-1340],[467,-552],[866,-178]],[[22255,44774],[-483,-1165],[-1286,-700],[-412,-708]],[[20074,42201],[-1417,1479],[-1168,430],[-1244,-130],[-740,365],[-699,-1096],[-1139,76],[-701,320]],[[12966,43645],[-1570,1088]],[[11396,44733],[-636,1640],[385,888]],[[11145,47261],[1071,824],[1059,264],[1823,1156],[1267,479],[77,651]],[[16442,50635],[911,-225],[1070,-597]],[[6578,42122],[-526,-939],[919,-1147],[949,-210]],[[7920,39826],[-701,-1076],[1373,-1396],[1458,-1013],[1732,-982],[1354,-572]],[[13136,34787],[-238,-282]],[[12898,34505],[-614,-1371],[-821,-955]],[[11463,32179],[-1133,-438]],[[10330,31741],[-682,-175],[-1234,434],[-1269,-186],[-1027,193],[-2219,-20],[214,1336],[-815,-333],[-32,-489],[-613,33],[-1044,1883],[-1153,1554],[204,1059],[1047,2393],[-10,1692]],[[1697,41115],[906,377],[705,663],[2377,-347],[893,314]],[[22770,48903],[794,-345],[-60,-764],[1195,-279]],[[24699,47515],[-480,-759]],[[24219,46756],[-867,-957],[-564,-935]],[[22788,44864],[-533,-90]],[[19993,48120],[2777,783]],[[42814,28994],[-404,-612],[-160,-1172],[442,-1182]],[[42692,26028],[-1325,-418],[-1900,123]],[[39467,25733],[-2468,1471],[336,638],[431,1852],[594,409]],[[41356,30339],[1458,-1345]],[[42196,41429],[-371,-2613]],[[41825,38816],[-1566,1039],[-2053,790],[-1717,248]],[[36489,40893],[1066,1661],[-344,599]],[[37211,43153],[-185,95]],[[37026,43248],[315,348],[1259,409],[-168,211],[954,618],[220,499]],[[39606,45333],[664,-505],[1926,-3399]],[[16482,36992],[-403,-1283],[608,-192]],[[16687,35517],[-149,-385]],[[16538,35132],[-1162,278],[-14,790],[-430,177],[303,814]],[[15235,37191],[1247,-199]],[[17375,36869],[-591,-731],[-97,-621]],[[16482,36992],[893,-123]],[[21980,27344],[-540,108],[199,1194]],[[21639,28646],[838,-169],[1436,368],[991,-184],[-2924,-1317]],[[35180,47532],[828,1],[1093,-610]],[[37101,46923],[1468,-1069],[1037,-521]],[[37026,43248],[-3746,91],[-1343,-75],[-1475,300]],[[30462,43564],[247,1346],[-429,743]],[[30280,45653],[-5,693]],[[30275,46346],[828,1167],[973,650]],[[32076,48163],[1217,-827],[1887,196]],[[43434,25118],[1156,-890]],[[44590,24228],[-121,-536],[-977,-633],[-1893,-1695]],[[41599,21364],[-1356,194],[105,227],[-1397,412]],[[38951,22197],[-1270,1404]],[[37681,23601],[1263,1807]],[[38944,25408],[523,325]],[[42692,26028],[742,-910]],[[30806,11223],[569,-100]],[[31375,11123],[-1102,-653],[-1298,-1494],[-1074,-502],[-614,-720],[-1471,-975]],[[25816,6779],[-1978,1322]],[[24321,9406],[811,676],[2277,1013],[886,854]],[[28295,11949],[2511,-726]],[[37211,43153],[-1091,-524],[-716,-829],[-1043,-691],[-1230,41],[-3102,781]],[[30029,41931],[433,1633]],[[18390,37441],[1261,-568],[804,-796],[2389,-686]],[[22844,35391],[25,-400]],[[22869,34991],[-2098,-5231]],[[20771,29760],[-1087,546],[-1102,218],[-1690,1055],[-1099,363],[-340,-280],[-1568,-309],[-1584,221],[-838,605]],[[12898,34505],[1545,-927],[157,-679],[737,-168],[1201,2401]],[[17375,36869],[689,672],[326,-100]],[[13136,34787],[75,1721]],[[13211,36508],[589,-10],[73,851],[1362,-158]],[[44335,7877],[-65,-1217],[-549,-701],[-1043,354],[-909,-99],[-1779,-482],[-701,51],[-1610,574]],[[37679,6357],[116,1412],[670,1051],[863,247],[840,-165],[415,261],[1647,-145],[-11,-554],[880,-438],[1236,-149]],[[34208,8452],[-1259,98],[-77,393],[-842,761],[-376,1232],[-279,187]],[[30806,11223],[492,281]],[[31298,11504],[2441,1030]],[[33739,12534],[618,227]],[[34357,12761],[879,-605],[823,-1151],[-292,-210],[697,-468],[-618,-737],[-1638,-1138]],[[30280,45653],[-803,-505],[-2340,-490],[-543,100],[-1605,1547],[-770,451]],[[24699,47515],[796,315],[1074,837]],[[26569,48667],[121,-980],[1644,-777],[1941,-564]],[[56855,32910],[-987,-668],[676,-297],[-1027,-665],[-408,-998],[-629,-897],[-77,-837],[220,-1679]],[[54623,26869],[-551,192],[-2109,-816],[-239,-1051],[-906,139]],[[50818,25333],[95,460],[-2957,1475]],[[47956,27268],[697,806],[-1492,1932],[-3104,-208],[-1243,-804]],[[42335,31547],[519,-325],[2619,-344],[1101,189],[1641,-151],[1049,204],[305,1464],[297,484],[329,1659]],[[50195,34727],[590,678],[1617,-480],[1357,15],[2233,-1756],[863,-274]],[[41825,38816],[-174,-881],[218,-1003]],[[32953,38663],[1348,1018],[1327,445],[861,767]],[[47087,15920],[-1394,-1073],[-1670,-677],[-1381,-1145]],[[42642,13025],[-1203,86],[-1028,298],[99,427]],[[40510,13836],[1301,165],[993,1796],[365,1290]],[[43169,17087],[1510,-4],[1246,-495],[1162,-668]],[[11440,40558],[-828,209],[-1323,-902],[-1294,168],[-75,-207]],[[6578,42122],[1855,195]],[[8433,42317],[1223,329],[469,1039],[1271,1048]],[[12966,43645],[-987,-1001],[-442,-1219],[-97,-867]],[[30029,41931],[-645,-685]],[[29384,41246],[-1566,591],[-1475,1061],[-1817,1077],[-1298,601]],[[23228,44576],[-440,288]],[[31789,37884],[-873,741],[-863,1146],[-669,1475]],[[36512,17342],[321,-394]],[[36833,16948],[42,-1058],[-218,-1594],[166,-741]],[[36823,13555],[-693,-348],[-1773,-446]],[[33739,12534],[137,1928],[-249,1589],[-64,1795],[835,408],[849,-559],[1265,-353]],[[43764,35594],[1222,324],[1076,563]],[[46062,36481],[2045,-490],[2088,-1264]],[[37681,23601],[-999,182],[-2338,779],[-1991,-742]],[[32353,23820],[-877,481]],[[31476,24301],[313,1319],[-305,199],[220,954],[-37,1541],[813,-21],[701,383],[-17,-773],[1647,-187],[1952,-822],[-204,-168],[2385,-1318]],[[41520,17541],[934,-477],[715,23]],[[40510,13836],[-1576,-75],[-869,-357],[-1242,151]],[[36833,16948],[521,573],[1035,-157],[1263,606],[1507,5],[361,-434]],[[38951,22197],[-2520,-1892]],[[36431,20305],[-583,577],[-1012,428],[-460,-110],[-1550,226],[-558,553]],[[32268,21979],[85,1841]],[[20771,29760],[-384,-268],[-1074,96],[255,-1546],[-724,-310],[-52,-520],[-774,-207],[-1238,573],[-736,-1263],[-263,-1020],[-1386,-713],[-632,90],[-63,434],[-692,398],[-1527,-728],[-1070,-1]],[[10411,24775],[98,185],[-1203,1335],[1599,1930],[-106,2197],[-469,1319]],[[20862,29671],[85,-82]],[[20947,29589],[-260,-542],[-682,5],[857,619]],[[30414,33943],[-4732,827],[-1214,-21],[-468,257],[-1131,-15]],[[22844,35391],[92,1115],[-274,647],[137,754],[614,348],[840,2],[188,433],[-782,850],[-188,959],[49,1943],[-126,999],[-307,450],[141,685]],[[18390,37441],[537,259],[1248,1610],[54,895],[560,1429],[-715,567]],[[8437,49689],[-11,-1614],[-661,-1306],[-1363,-1882],[958,-650],[934,-1104],[139,-816]],[[1697,41115],[-349,370],[658,793],[-48,1646],[-848,507],[-71,630],[890,954],[74,704],[-315,413],[685,730],[161,1197],[1790,469],[1315,646]],[[5639,50174],[1097,276],[1701,-761]],[[8437,49689],[1163,84]],[[9600,49773],[158,-1039],[840,-1294],[547,-179]],[[36431,20305],[81,-2963]],[[31298,11504],[70,679],[595,827],[-141,960],[-1136,950],[-1806,1073],[-1979,-567]],[[26901,15426],[-701,416]],[[26200,15842],[566,1702],[-427,1441],[145,720]],[[26484,19705],[801,139],[1138,630],[257,-95],[770,707],[1180,-448],[1170,1124],[468,217]],[[16235,16128],[-394,-1545]],[[15841,14583],[-141,116],[-1268,-1202],[-1290,-726],[-1327,-540]],[[11815,12231],[-1427,272],[-989,1180],[-1120,489],[-601,-638],[-1906,-1403],[-780,-1008],[-104,-580],[857,-536],[-289,-679],[-729,-577],[-2778,1225],[-1507,380],[-442,427],[270,1383],[-48,1804],[1363,1598],[1652,920],[967,219],[983,-40],[4173,813],[406,-199],[616,617]],[[10382,17898],[662,-165],[1074,257],[1914,115],[481,248]],[[14513,18353],[791,87]],[[15304,18440],[914,-1003],[17,-1309]],[[28295,11949],[-112,1033],[-708,1296],[-45,668],[-529,480]],[[11440,40558],[-189,-840],[819,-1207],[-319,-547],[228,-1005],[1232,-451]],[[47956,27268],[-1767,531],[-1805,-1033],[-1692,-738]],[[10382,17898],[-1207,1099],[-241,1382],[63,2219],[962,696]],[[9959,23294],[1253,95],[18,-1030],[1859,-983],[526,-720],[-446,-429],[1336,-1318],[8,-556]],[[26569,48667],[720,-28],[2798,469]],[[30087,49108],[-59,-343],[1208,-515],[840,-87]],[[50818,25333],[-1162,-575],[-1348,-1532]],[[48308,23226],[-761,43],[-1696,814],[-1261,145]],[[43434,25118],[278,200],[2313,745],[854,399],[1077,806]],[[31476,24301],[-1481,467],[-2078,-474],[-1217,144],[-1101,-797],[-662,29]],[[24937,23670],[-1278,667],[573,511],[101,601]],[[24333,25449],[3383,3981],[1052,940],[1895,2164],[459,895]],[[24333,25449],[-1731,509],[105,380],[-727,1006]],[[21639,28646],[-692,943]],[[20862,29671],[-91,89]],[[15841,14583],[1424,-1300],[239,-555],[1491,-1282]],[[17104,9439],[-1527,-148],[-883,129],[-888,675],[-1841,847],[-150,1289]],[[48308,23226],[556,-380],[917,95],[3179,-1043],[415,-1621],[680,-896],[284,-1197],[261,-205]],[[54600,17979],[-1256,-459],[-734,-609],[-735,-209],[-1302,-1215]],[[50573,15487],[-1230,-501],[-1141,164],[-1115,770]],[[41520,17541],[542,1431],[-780,985],[317,1407]],[[24937,23670],[-877,-1046],[-307,-1227]],[[23753,21397],[-2047,-870],[-2574,-1822],[-2252,172],[-1576,-437]],[[9959,23294],[452,1481]],[[26200,15842],[-1701,-15],[-520,-518],[-836,-29],[-633,-660],[-568,-159],[-1331,-1098],[-135,-1313],[-577,-491]],[[19252,11592],[258,942],[470,33],[253,1282],[-520,421],[512,1613],[-879,363],[-1050,-812],[-1342,784],[-719,-90]],[[23753,21397],[632,-293],[2099,-1399]],[[34208,8452],[1109,-895]],[[35317,7557],[-1307,-1132],[-1524,-2225],[-1553,-1695],[-649,410],[-689,-385],[-674,305],[-355,-325],[-1314,-61],[-198,512],[-1827,8]],[[25227,2969],[-746,952],[25,1114],[1310,1744]],[[42642,13025],[-379,-675],[865,-1499],[253,-983],[644,-812],[310,-1179]],[[37679,6357],[-2362,1200]],[[25227,2969],[-779,-1162],[-1575,-1056],[-680,164],[-1178,-192],[-1217,113],[-832,-836],[-825,643],[-683,1942],[328,1499],[-732,1558],[519,1278],[835,824]],[[76949,84539],[148,-256]],[[77097,84283],[-884,-305],[753,-378],[-129,-298],[-1505,330]],[[75332,83632],[885,1089],[732,-182]],[[70485,86026],[377,-781],[556,-400]],[[71418,84845],[-1116,-623],[258,-438],[-1960,-524]],[[68600,83260],[-818,244]],[[67782,83504],[-1652,1068],[-63,222]],[[66067,84794],[-383,212]],[[65684,85006],[1381,441],[979,559],[234,395]],[[68278,86401],[1804,-533],[403,158]],[[34871,67192],[-37,-2220]],[[34834,64972],[-1419,28],[-1478,253],[-353,-142]],[[31584,65111],[-1605,401]],[[29979,65512],[562,1249]],[[30541,66761],[1269,1090],[554,264],[889,-51],[1618,-872]],[[64725,87261],[361,-817],[-228,-876],[826,-562]],[[66067,84794],[-761,-338],[-292,-489]],[[65014,83967],[-921,-226]],[[64093,83741],[-1215,-21],[-204,1671]],[[62674,85391],[146,874],[-426,683]],[[62394,86948],[506,475]],[[62900,87423],[285,-479],[701,14],[33,802]],[[63919,87760],[806,-499]],[[75508,90103],[363,-1085],[45,-1071]],[[75916,87947],[-765,15]],[[75151,87962],[-618,50],[79,1472],[896,619]],[[75066,80488],[27,-1931],[-145,-325],[-1126,-310],[329,-415],[-425,-1367],[685,-221]],[[74411,75919],[-1392,-793]],[[73019,75126],[-730,514],[-523,-208],[-1895,621],[-1278,65]],[[68593,76118],[25,496],[-910,-96],[-96,1409],[869,1572]],[[68481,79499],[788,8],[1740,570]],[[71009,80077],[1506,827],[848,664]],[[73363,81568],[1794,-826],[-91,-254]],[[57850,89484],[494,-989]],[[58344,88495],[21,-359],[-1344,-727]],[[57021,87409],[-1037,956]],[[55984,88365],[-442,372],[367,663]],[[55909,89400],[206,341],[1735,-257]],[[52844,82231],[-629,-1678],[-149,-865]],[[52066,79688],[-688,-206],[-735,539],[658,3],[-651,879],[-965,41],[347,1303],[-527,856],[-633,3]],[[48872,83106],[898,972]],[[49770,84078],[2334,-176],[980,814],[100,370]],[[53184,85086],[272,-139],[-222,-1506],[-390,-1210]],[[38140,69824],[-104,-422],[-585,61],[-715,-370],[-681,-719],[-377,98],[-299,-1038],[-508,-242]],[[30541,66761],[-156,1936]],[[30385,68697],[1502,262],[918,990],[1817,645]],[[34622,70594],[486,131],[2592,-339],[440,-562]],[[55146,69544],[724,-1135],[197,-881],[809,-1694]],[[56876,65834],[-341,-474]],[[56535,65360],[-3017,691],[-971,-141]],[[52547,65910],[1048,302],[-17,1256],[353,224],[-36,1852]],[[53895,69544],[467,68]],[[54362,69612],[436,40]],[[54798,69652],[348,-108]],[[53962,67329],[479,-472],[0,776],[-479,-304]],[[62674,85391],[-1673,247]],[[61001,85638],[-181,607],[257,618]],[[61077,86863],[1317,85]],[[58083,84668],[570,-2064],[711,-1363]],[[59364,81241],[-1364,-219],[6,-394],[-830,-592]],[[57176,80036],[-1086,580],[107,219],[-1837,1177]],[[54360,82012],[541,1310],[-518,767],[869,1182]],[[55252,85271],[2831,-603]],[[64725,87261],[716,410],[2489,290]],[[67930,87961],[394,-518],[-334,-994],[288,-48]],[[51506,71257],[-1045,-255],[-1273,-37]],[[49188,70965],[-977,-620]],[[48211,70345],[-540,2072],[42,1118]],[[47713,73535],[946,28],[31,1179],[367,234]],[[49057,74976],[850,442]],[[49907,75418],[0,-1775],[1715,-1812],[-116,-574]],[[54876,92857],[-692,-929]],[[54184,91928],[-600,279],[-433,-508],[-1386,-51],[-611,-207],[-1050,83]],[[50104,91524],[199,906]],[[50303,92430],[664,130],[195,671]],[[51162,93231],[1222,146],[802,572]],[[53186,93949],[1072,212]],[[54258,94161],[618,-1304]],[[74909,71469],[-115,-580],[1319,-391]],[[76113,70498],[-1387,-1867],[-581,-491],[1044,-1018],[2567,-1040],[1460,-411],[921,1783]],[[80137,67454],[151,-380],[-582,-1351],[1308,-475]],[[81014,65248],[-1246,-1021]],[[79768,64227],[-1108,-938],[-1066,-577]],[[77594,62712],[-356,517],[-1658,91],[-468,518],[-436,-526],[-844,-265],[-1147,456]],[[72685,63503],[652,1384],[-2678,880],[255,591]],[[70914,66358],[-309,1062],[546,498],[-135,966]],[[71016,68884],[332,683],[1667,1494],[1172,83],[722,325]],[[81906,70131],[212,-157]],[[82118,69974],[-1774,-856],[-207,-1664]],[[76113,70498],[3657,-863],[858,-53],[1278,549]],[[76319,86273],[1097,-318],[574,261]],[[77990,86216],[-45,-1027]],[[77945,85189],[-996,-650]],[[75332,83632],[-318,-657]],[[75014,82975],[-695,464],[635,659]],[[74954,84098],[529,1520],[836,655]],[[48682,98784],[653,-219],[-1740,-1615]],[[47595,96950],[-434,252]],[[47161,97202],[386,378],[-570,191],[247,537]],[[47224,98308],[877,494],[581,-18]],[[88655,79096],[70,-728]],[[88725,78368],[-1443,58]],[[87282,78426],[-341,741],[982,487],[732,-558]],[[72497,87594],[1377,-101]],[[73874,87493],[6,-1011],[572,-489],[442,-904],[-552,-633]],[[74342,84456],[-645,194]],[[73697,84650],[-93,414],[-825,648],[-1124,-744]],[[71655,84968],[-237,-123]],[[70485,86026],[987,1676],[535,463]],[[72007,88165],[490,-571]],[[49439,99447],[-757,-663]],[[47224,98308],[-606,456]],[[46618,98764],[508,605],[450,-284],[967,-46],[896,408]],[[29979,65512],[-2209,-103]],[[27770,65409],[-1039,468],[-326,980],[-669,247],[-898,946]],[[24838,68050],[719,1362]],[[25557,69412],[973,-204],[381,238],[793,-253],[1225,527]],[[28929,69720],[1456,-1023]],[[52916,70902],[135,-1225],[-278,-814],[-406,-198]],[[52367,68665],[-1585,25],[-186,816],[-1160,327],[-248,1132]],[[51506,71257],[544,132],[866,-487]],[[53138,75471],[-305,-847],[550,-1399],[-157,-894],[93,-1305]],[[53319,71026],[-403,-124]],[[49907,75418],[247,50]],[[50154,75468],[2213,176],[771,-173]],[[49368,85994],[-386,-792],[788,-1124]],[[48872,83106],[-1669,-88]],[[47203,83018],[-102,1184]],[[47101,84202],[-348,927],[195,913]],[[46948,86042],[2420,-48]],[[78805,86692],[-815,-476]],[[76319,86273],[180,414],[-572,935]],[[75927,87622],[2679,-58],[199,-872]],[[83955,84855],[-1053,-230],[-2014,830]],[[80888,85455],[715,1072]],[[81603,86527],[670,250],[83,-1026],[686,-63],[913,-833]],[[85019,79920],[-900,429],[-770,-80],[-1132,708]],[[82217,80977],[2132,1025]],[[84349,82002],[1319,-453],[-649,-1629]],[[85201,82859],[-852,-857]],[[82217,80977],[-695,917]],[[81522,81894],[1396,35],[-550,1099],[1815,37],[1018,-206]],[[67782,83504],[-532,143],[-185,-451],[-1106,265],[-945,506]],[[80888,85455],[-1139,-945]],[[79749,84510],[-1418,286],[-386,393]],[[78805,86692],[2319,-374],[479,209]],[[83955,84855],[552,-1278],[470,-320]],[[84977,83257],[365,-61]],[[85342,83196],[-141,-337]],[[81522,81894],[-647,715]],[[80875,82609],[-529,1137],[-856,519],[259,245]],[[38304,95970],[-863,-975]],[[37441,94995],[-2141,456],[-532,547],[340,556],[2080,436],[1116,-1020]],[[59918,70066],[139,-1611],[326,-882]],[[60383,67573],[-1767,-1020],[-859,-766],[-881,47]],[[55146,69544],[431,217]],[[55577,69761],[1029,412],[1435,87],[351,347]],[[58392,70607],[1526,-541]],[[54362,69612],[436,40]],[[55577,69761],[-448,1154],[834,380],[1520,-267],[703,516]],[[58186,71544],[206,-937]],[[55115,71018],[-933,-149],[-463,559],[1311,175],[85,-585]],[[38851,91789],[-352,-464]],[[38499,91325],[-351,-83],[-2449,162]],[[35699,91404],[-168,1497]],[[35531,92901],[1646,65]],[[37177,92966],[1898,-781],[-224,-396]],[[72685,63503],[-454,-526]],[[72231,62977],[-543,-325],[-938,398],[-2491,-673]],[[68259,62377],[-1489,768]],[[66770,63145],[-473,1102]],[[66297,64247],[-62,592],[463,438],[1893,343],[633,663],[1690,75]],[[39859,76348],[1387,-802],[1622,-730]],[[42868,74816],[-16,-1417],[-790,-987],[101,-799]],[[42163,71613],[-1431,-187]],[[40732,71426],[-1217,274],[-330,853],[-160,1209],[-638,247]],[[38387,74009],[0,759],[443,1519]],[[38830,76287],[1029,61]],[[41730,83284],[472,-329],[1301,189],[773,-278],[544,-690]],[[44820,82176],[-8,-292]],[[44812,81884],[-59,-1265],[-309,-404],[-1489,-761]],[[42955,79454],[-118,207],[-2180,121]],[[40657,79782],[-112,219],[-1694,532]],[[38851,80533],[46,672],[-707,490]],[[38190,81695],[1754,821],[942,710],[844,58]],[[91973,70640],[2943,-444],[155,-922]],[[95071,69274],[-383,-51],[-589,-889],[-737,-468],[-377,125],[-1159,-312],[-482,390],[-2084,255]],[[89260,68324],[-336,549],[1087,1321],[512,362],[1450,84]],[[47744,90070],[1182,-793],[1265,-519]],[[50191,88758],[-139,-1963]],[[50052,86795],[-684,-801]],[[46948,86042],[-1647,365]],[[45301,86407],[-1977,786]],[[43324,87193],[1023,864],[-33,471]],[[44314,88528],[1559,809]],[[45873,89337],[1871,733]],[[64796,80095],[960,-5],[2134,-542]],[[67890,79548],[591,-49]],[[68593,76118],[-866,-1202],[-1102,-885],[230,-161],[-951,-499],[-206,-768]],[[65698,72603],[-1647,-161],[-1957,581],[-365,-899],[-1048,-1054],[305,-309],[-1068,-695]],[[58186,71544],[-182,348],[568,908],[877,370],[316,667],[-403,36],[199,657],[-383,1424],[178,817],[-886,272],[274,342]],[[58744,77385],[960,636],[633,-26],[512,1392],[-929,327],[-230,920]],[[59690,80634],[1866,-892],[3240,353]],[[57021,87409],[972,-284],[1956,-274],[1128,12]],[[61001,85638],[-25,-511],[-548,-567]],[[60428,84560],[-2345,108]],[[55252,85271],[-792,193]],[[54460,85464],[545,2142]],[[55005,87606],[979,759]],[[55534,92283],[-415,-403],[83,-1429],[-265,-438]],[[54937,90013],[-1187,322]],[[53750,90335],[434,1593]],[[54876,92857],[658,-574]],[[77992,81674],[-290,-803]],[[77702,80871],[-1887,-636],[-749,253]],[[73363,81568],[1046,421]],[[74409,81989],[1163,520]],[[75572,82509],[1433,65]],[[77005,82574],[987,-900]],[[66770,63145],[-962,-44],[31,-528],[-1408,-602]],[[64431,61971],[-1419,902],[-1119,943],[-894,-1079],[-830,-415],[44,-567]],[[60213,61755],[-720,700],[-2472,104],[-938,-444]],[[56083,62115],[-257,232]],[[55826,62347],[-31,396],[1012,1771],[-272,846]],[[60383,67573],[477,79],[1003,-399],[1292,-1101],[1253,-729],[819,-243],[363,-925],[707,-8]],[[40680,96434],[1060,-253]],[[41740,96181],[854,-836],[558,118]],[[43152,95463],[517,84]],[[43669,95547],[614,-402],[-440,-773],[-815,-221],[-60,-701],[657,-189]],[[43625,93261],[-441,-350],[27,-607]],[[43211,92304],[-283,-412],[-1740,170],[-1553,-495],[-784,222]],[[37177,92966],[361,522],[121,987],[-218,520]],[[38304,95970],[1572,489]],[[39876,96459],[804,-25]],[[85019,79920],[857,-989],[1041,-23],[365,-482]],[[87282,78426],[-1761,-657],[-834,-36],[-1448,283]],[[83239,78016],[-725,14],[205,1031],[-436,666]],[[82283,79727],[-470,781],[404,469]],[[47101,84202],[-1178,345],[-101,-773],[-357,7]],[[45465,83781],[-268,1872],[104,754]],[[44523,90867],[-995,-353],[-73,-580]],[[43455,89934],[-247,-365],[-1399,147],[-1792,-895]],[[40017,88821],[-388,657],[176,497],[-616,395],[-690,955]],[[43211,92304],[1312,-1437]],[[71009,80077],[-186,970],[-894,-157],[-1002,848]],[[68927,81738],[278,849],[-605,673]],[[71655,84968],[725,-113],[-137,-1043],[-935,-288],[425,-640],[-721,-1217],[1051,-504],[259,357],[1041,48]],[[73697,84650],[-352,-1534],[1064,-1127]],[[48211,70345],[-230,-181]],[[47981,70164],[-1201,557],[-1100,-282]],[[45680,70439],[-580,453],[-1433,410],[-1319,61],[-185,250]],[[42868,74816],[349,1139],[321,196]],[[43538,76151],[581,-613],[1404,-387],[1680,-696],[510,-920]],[[87746,82576],[-39,-183],[-2047,523],[-318,280]],[[84977,83257],[1197,1373],[1056,207],[585,507],[408,-243],[-481,-334],[280,-1112],[-276,-1079]],[[43213,98316],[-1064,-1139],[-409,-996]],[[40680,96434],[442,987],[-966,308]],[[40156,97729],[429,531],[859,-138],[721,579],[1048,-385]],[[81954,75670],[435,-1908],[-804,-242],[-113,-763],[422,-321],[-504,-398],[4,-599],[512,-1308]],[[74909,71469],[493,1812],[371,607],[-607,104],[-2147,1134]],[[74411,75919],[1539,-720],[41,183],[1836,45],[748,847],[1491,-406],[1888,-198]],[[54360,82012],[-1022,-1603],[-75,-1492],[-479,366]],[[52784,79283],[-718,405]],[[52844,82231],[1516,-219]],[[65698,72603],[1164,272],[1267,-854],[1429,-381],[670,-590],[-210,-1418],[81,-771],[917,23]],[[42134,64955],[-1582,-342],[-1073,29],[-754,268]],[[38725,64910],[852,406],[848,1070],[1010,416],[297,-565],[495,132],[-93,-1414]],[[52367,68665],[-79,-814],[259,-1941]],[[52547,65910],[-1427,-962],[-1217,-165]],[[49903,64783],[-369,1354],[-1377,2706],[-176,1321]],[[45902,81236],[349,-1820]],[[46251,79416],[-653,-42],[-363,-411],[78,-826],[-1470,-68]],[[43843,78069],[-406,781]],[[43437,78850],[-482,604]],[[44812,81884],[869,-277],[221,-371]],[[82283,79727],[-1493,161]],[[80790,79888],[-522,345],[-1098,-134]],[[79170,80099],[-1468,772]],[[77992,81674],[2251,958],[632,-23]],[[45050,96653],[-1381,-1106]],[[43152,95463],[40,491],[1252,1105]],[[44444,97059],[606,-406]],[[75916,87947],[11,-325]],[[74954,84098],[-612,358]],[[73874,87493],[1277,469]],[[59690,80634],[-326,607]],[[59364,81241],[685,1146]],[[60049,82387],[2252,-10],[904,703],[929,321]],[[64134,83401],[697,-570],[-531,-637],[112,-1724],[384,-375]],[[52608,95781],[143,-1005]],[[52751,94776],[-1297,-351]],[[51454,94425],[-427,708],[477,499],[1104,149]],[[87746,82576],[1338,-1000],[844,-1202],[-921,-1200],[-352,-78]],[[54937,90013],[972,-613]],[[55005,87606],[-1516,942],[-658,77]],[[52831,88625],[-16,495]],[[52815,89120],[935,1215]],[[32917,93021],[-740,-587],[-118,-519]],[[32059,91915],[-1064,-15],[-1802,360],[-817,887],[-274,620],[852,1759],[1991,849],[1240,-2413],[457,-44],[275,-897]],[[53895,69544],[-277,221],[-299,1261]],[[53138,75471],[48,325],[1487,143],[454,385],[-410,504],[697,417],[785,-1],[237,489]],[[56436,77733],[1493,-37],[815,-311]],[[47296,92916],[792,211],[799,-141],[518,-434],[898,-122]],[[50104,91524],[-402,-587]],[[49702,90937],[-1558,308],[-400,-1175]],[[45873,89337],[-429,290],[-589,991]],[[44855,90618],[485,1080],[969,1311],[481,129]],[[46790,93138],[506,-222]],[[44314,88528],[-859,1406]],[[44523,90867],[332,-249]],[[45680,70439],[-394,-762],[-1132,-1474],[-840,298],[-66,-691],[-911,-313],[-742,-584],[-2236,80],[-827,-307],[-566,-584],[-2468,-1522]],[[35498,64580],[-664,392]],[[38140,69824],[1835,375],[757,1227]],[[49903,64783],[178,-693]],[[50081,64090],[-547,-669],[-2004,-396]],[[47530,63025],[-261,781],[-1719,1343],[-1116,209],[-1725,-559],[-575,156]],[[38725,64910],[-1929,-1233]],[[36796,63677],[-1298,903]],[[43324,87193],[-636,-350],[-1041,154]],[[41647,86997],[-1803,228]],[[39844,87225],[173,1596]],[[53176,85514],[8,-428]],[[49770,84078],[795,1049],[166,559],[531,-78],[12,620]],[[51274,86228],[717,-466],[1185,-248]],[[88725,78368],[230,-158]],[[88955,78210],[-475,-2024],[425,-841],[677,-102],[-23,-1453],[-685,-1018],[1602,-393],[10,-499],[1873,-328]],[[92359,71552],[-386,-912]],[[89260,68324],[-850,-537],[-1952,-629]],[[86458,67158],[-1091,483]],[[85367,67641],[-1070,580]],[[84297,68221],[-1429,1013],[-750,740]],[[81954,75670],[-168,1229]],[[81786,76899],[968,378],[485,739]],[[88955,78210],[351,-109],[301,-859],[91,-1958],[1161,143],[-327,-286],[194,-878],[-394,-756],[795,-153],[311,478],[1400,-322],[-479,-1958]],[[85367,67641],[-481,-1401],[-1416,-1922]],[[83470,64318],[-255,-388],[-2116,37],[-1331,260]],[[81014,65248],[693,203],[1985,966],[605,1804]],[[86458,67158],[1039,-790],[361,-1773],[-243,-913]],[[87615,63682],[-1379,-251],[-2766,887]],[[47472,77343],[-553,-1114],[47,-444],[1433,-360],[658,-449]],[[43538,76151],[792,-30],[175,387]],[[44505,76508],[427,882],[-1089,679]],[[46251,79416],[1613,71],[-31,-685],[-643,-172],[-261,-697],[543,-590]],[[79170,80099],[-794,-677],[-583,-1142],[1091,-206],[469,-865]],[[79353,77209],[2433,-310]],[[57176,80036],[-910,-1544],[170,-759]],[[50154,75468],[60,655],[-564,640]],[[49650,76763],[257,749],[2705,882],[172,889]],[[44822,97383],[-378,-324]],[[43213,98316],[464,-426],[1145,-507]],[[55826,62347],[-383,381],[-535,-310],[-1342,421],[-299,-475]],[[53267,62364],[-964,817],[-2222,909]],[[38254,76335],[-4123,294]],[[34131,76629],[-176,1493],[947,-61],[774,240]],[[35676,78301],[286,-275],[1269,115],[525,-1192],[498,-614]],[[53176,85514],[1284,-50]],[[45865,96439],[-137,-137]],[[45728,96302],[-498,-612],[316,-284],[-332,-905],[-1290,-701],[-299,-539]],[[45050,96653],[815,-214]],[[47161,97202],[-1296,-763]],[[44822,97383],[641,847],[1155,534]],[[40657,79782],[357,-1371],[-549,-124],[-606,-1939]],[[38830,76287],[-576,48]],[[35676,78301],[1223,1915],[181,872],[960,-444],[811,-111]],[[71617,90734],[-1001,-1404]],[[70616,89330],[-513,-66],[-916,379],[-521,-572]],[[68666,89071],[-431,301],[269,945]],[[68504,90317],[446,-77],[458,700]],[[69408,90940],[2209,-206]],[[41647,86997],[-170,-2070],[300,-249],[172,-1300],[-219,-94]],[[38190,81695],[-660,2081],[1166,972],[-1127,829],[488,1041],[848,1084]],[[38905,87702],[939,-477]],[[51454,94425],[-89,-486],[-1103,692],[493,421],[-151,606],[405,304],[-1110,461]],[[49899,96423],[2431,2175]],[[52330,98598],[1163,38],[898,-598],[-1783,-2257]],[[49650,76763],[-632,683],[-1546,-103]],[[45902,81236],[-70,529],[680,953],[691,300]],[[44820,82176],[340,219],[305,1386]],[[64093,83741],[41,-340]],[[60049,82387],[-21,1240],[400,933]],[[57910,94078],[-147,-487],[-966,7],[-517,-899],[-746,-416]],[[54258,94161],[1523,295],[1035,-378],[1094,0]],[[47792,95750],[468,-168],[542,-897]],[[48802,94685],[-911,-862],[-595,-907]],[[46790,93138],[-502,1023],[402,1803]],[[46690,95964],[1102,-214]],[[52751,94776],[435,-827]],[[51162,93231],[-728,430],[-798,877],[-834,147]],[[47792,95750],[533,888]],[[48325,96638],[1574,-215]],[[35699,91404],[-1106,-1250]],[[34593,90154],[-371,197],[-2149,461],[-14,1103]],[[32917,93021],[1948,16],[666,-136]],[[34927,74535],[-19,-761],[-352,-793],[464,-579],[-447,-1245],[49,-563]],[[28929,69720],[-531,461],[382,816],[-37,1445]],[[28743,72442],[1039,1091],[748,539],[2325,2127],[1267,71]],[[34122,76270],[-346,-1120],[1151,-615]],[[38905,87702],[-693,1035],[-744,623],[-1794,607],[-1081,187]],[[44505,76508],[-1485,293],[-1309,781],[-33,947],[1759,321]],[[79353,77209],[821,1310],[-137,605],[753,764]],[[68927,81738],[-456,-1119],[-962,-704],[381,-367]],[[49702,90937],[672,101],[1010,-430],[-166,-865],[334,-295]],[[51552,89448],[-1545,-415],[184,-275]],[[52831,88625],[-810,-646],[-1317,-1509]],[[50704,86470],[-652,325]],[[51552,89448],[1263,-328]],[[34927,74535],[1663,-924],[1029,-61],[768,459]],[[68666,89071],[-736,-1110]],[[63919,87760],[703,2144],[525,492]],[[65147,90396],[128,174],[2597,-3],[632,-250]],[[45728,96302],[962,-338]],[[62900,87423],[517,995],[-1077,887],[83,779]],[[62423,90084],[-178,798],[1529,502],[414,-529],[959,-459]],[[48325,96638],[-730,312]],[[49439,99447],[920,552],[127,-1152],[1800,83],[44,-332]],[[70616,89330],[1391,-1165]],[[71617,90734],[991,-157],[-167,-236],[645,-840],[-353,-718],[-236,-1189]],[[51274,86228],[-570,242]],[[77097,84283],[39,-567],[774,-3],[-50,-353],[-855,-786]],[[75572,82509],[-558,466]],[[57910,94078],[1015,42],[4,-907],[597,-413],[-25,-880],[-809,-1580],[-842,-856]],[[58344,88495],[-46,800],[453,534],[209,-361],[1570,1008],[1238,-451],[655,59]],[[34122,76270],[9,359]],[[95071,69274],[409,-468],[1645,-902],[307,-784],[-1293,-1114],[-195,-386],[106,-1517],[-722,-249],[-983,-854],[-1903,-1114],[-952,-186]],[[91490,61700],[-770,54],[-1184,567],[-1921,1361]],[[25557,69412],[-19,608],[475,1426],[836,811],[1894,185]],[[90098,57862],[-176,-540]],[[89922,57322],[-1637,-1076],[-1221,-1229],[1188,-970]],[[88252,54047],[-775,-1021],[-448,-13],[-890,-1710]],[[86139,51303],[-2725,248],[-2956,-309],[-292,270]],[[80166,51512],[326,1018],[2,1088],[-320,1030]],[[80174,54648],[1684,522],[757,696]],[[82615,55866],[1102,599],[1148,172],[890,488],[454,-107],[662,1035],[643,-280],[2584,89]],[[61005,50065],[834,-378]],[[61839,49687],[-278,-1311],[-616,-551]],[[60945,47825],[-749,275],[-2091,-394]],[[58105,47706],[-883,1084],[-1095,426]],[[56127,49216],[193,479],[-419,365],[209,1111],[-388,123],[772,454],[1228,-403],[296,506],[874,-674],[2113,-1112]],[[18091,55042],[1338,-930],[454,-766],[1097,-746]],[[20980,52600],[-512,-852],[-1552,-849],[-493,-1086]],[[16442,50635],[168,1182]],[[16610,51817],[357,1804],[-154,886]],[[16813,54507],[1278,535]],[[60717,42908],[-1384,-1149],[-1640,-612]],[[57693,41147],[-548,212]],[[57145,41359],[500,902],[-572,487],[383,307],[1572,474]],[[59028,43529],[1689,-621]],[[54051,43377],[-357,-469]],[[53694,42908],[-786,207],[-2132,-486],[-2796,1033]],[[47980,43662],[1189,1209]],[[49169,44871],[1377,1261]],[[50546,46132],[2219,-754],[1116,-1028],[170,-973]],[[67175,52983],[72,-1098]],[[67247,51885],[-574,-29],[-909,-674],[-3459,-1515],[-466,20]],[[61005,50065],[-226,607],[278,721],[-562,1005],[309,1291],[674,1484]],[[61478,55173],[2405,342],[706,660]],[[64589,56175],[829,-544],[581,-896],[-253,-1163],[929,-176],[500,-413]],[[43130,53252],[153,-1304],[1180,-1192]],[[44463,50756],[-1564,-756],[-325,-620],[-882,38],[482,-378],[-1187,-295],[-1238,103],[-184,366],[-478,-489]],[[39087,48725],[-114,690],[-1988,678],[-801,-305]],[[36184,49788],[668,993]],[[36852,50781],[2600,133],[336,646],[-586,261],[1130,1189],[313,-483],[674,-181],[483,541],[-780,307],[115,991],[1993,-933]],[[18566,63037],[-1253,103],[-769,303]],[[16544,63443],[323,451],[1925,958]],[[18792,64852],[448,-122],[-15,-894],[-659,-799]],[[78594,43128],[840,-477]],[[79434,42651],[108,-1061],[665,-470],[-922,-1580],[-247,-1028]],[[79038,38512],[-1060,-384]],[[77978,38128],[-1811,-135],[-1157,-762]],[[75010,37231],[-1298,-698],[-3235,-1283]],[[70477,35250],[-2072,1190],[-1156,1078],[-783,1074],[-264,726]],[[66202,39318],[-27,1854]],[[66175,41172],[-224,927],[168,640]],[[66119,42739],[1101,-281],[755,113],[1332,992],[2345,887]],[[71652,44450],[793,-693],[1323,-793],[817,-177],[1170,81],[377,-265],[811,348],[1012,-55],[639,232]],[[30682,62529],[-649,-1341]],[[30033,61188],[-763,-1462]],[[29270,59726],[-222,132],[-1869,-31]],[[27179,59827],[-201,492],[1572,2079],[495,198],[1637,-67]],[[77594,62712],[-1232,-1075]],[[76362,61637],[-387,-341]],[[75975,61296],[-233,439],[-1941,877],[-1570,365]],[[57693,41147],[-728,-595],[468,-942],[1384,-1515],[1344,-1015],[972,-401]],[[61133,36679],[-549,-816],[269,-368],[-54,-922],[-682,-449]],[[60117,34124],[-1613,-683],[-917,-143],[-732,-388]],[[46062,36481],[705,551],[-257,1356],[-1236,260],[-344,695],[-678,187],[6,838],[1765,278],[641,698]],[[46664,41344],[1447,-504],[1178,-229],[2093,-1168],[985,270],[782,1033],[641,1363]],[[53790,42109],[1536,-728],[573,403],[1246,-425]],[[13582,63904],[693,-23],[2269,-438]],[[16544,63443],[-1035,-625],[-740,-1076],[-1264,-783],[-864,-867]],[[12641,60092],[-1713,125],[-880,341],[-253,390],[-931,192]],[[8864,61140],[-145,1113],[-548,1175],[-298,1447],[1756,1222],[96,284]],[[9725,66381],[1472,-1345],[654,-827],[1480,-448],[251,143]],[[9725,66381],[170,257]],[[9895,66638],[1690,74],[1811,-371],[929,-1064],[-743,-1373]],[[73040,58300],[-151,-657],[-645,-809],[1887,-1049],[133,-812]],[[74264,54973],[-843,-100],[-2731,298],[-2594,-441],[-621,-247]],[[67475,54483],[-1377,1440],[-51,233]],[[66047,56156],[784,68],[1055,456],[1313,1346],[23,513]],[[69222,58539],[417,-224],[2186,-269],[1215,254]],[[91469,43571],[-1454,608]],[[90015,44179],[-1246,1204],[365,759],[-801,397],[376,867],[-1010,169],[499,1270],[-2275,2004],[216,454]],[[88252,54047],[1987,-253],[1549,1160]],[[91788,54954],[764,-481],[2173,-499],[724,-527],[-214,-234],[-840,-3198],[-149,-1092],[-873,-1736],[-4,-551],[-921,-2036],[-979,-1029]],[[67247,51885],[1377,-406],[2649,-970],[1960,-111],[825,464]],[[74058,50862],[247,-749]],[[74305,50113],[249,-257],[-220,-917]],[[74334,48939],[-782,-827],[-973,-1350]],[[72579,46762],[-2094,698],[-3279,-383],[-3208,-227],[-1701,-461]],[[62297,46389],[-927,745],[-425,691]],[[12641,60092],[794,-338],[292,-728],[593,-363]],[[14320,58663],[-456,-252],[-1895,-2416]],[[11969,55995],[-1224,-174],[-1031,213],[-1008,626]],[[8706,56660],[-143,982],[-995,822],[1296,2676]],[[22770,48903],[562,1368],[1281,857]],[[24613,51128],[934,-823],[-48,-421],[809,-79],[261,-1138]],[[29270,59726],[188,-156],[-887,-1257],[781,-560],[1855,-721],[371,129]],[[31578,57161],[263,-647],[-332,-253]],[[31509,56261],[-1134,-428],[-1773,254],[-1307,-203],[-1269,349],[-1232,815],[-942,138]],[[23852,57186],[-763,653],[-58,1008]],[[23031,58847],[404,415],[911,28]],[[24346,59290],[145,-90],[2688,627]],[[91469,43571],[75,-1038],[327,-580],[-875,-383],[-124,-455],[725,-668],[345,-1058],[1385,-56],[218,-918],[-500,-927],[-1041,-607],[-1020,0],[-453,350]],[[90531,37231],[-348,79],[-1363,-974],[-1812,-330],[-1259,15],[-396,-619]],[[85353,35402],[-600,436],[-2148,-457]],[[82605,35381],[0,195],[1381,1378],[1782,1510],[230,765],[-365,572],[307,548],[-954,2139],[-340,1065]],[[84646,43553],[2490,157],[490,196],[1400,-53],[989,326]],[[31509,56261],[355,-57],[222,-1306],[941,-761],[-139,-164]],[[32888,53973],[-1196,-1436],[-272,-817],[-471,-393],[29,-778],[-891,-1441]],[[24613,51128],[-678,686]],[[23935,51814],[-1406,700]],[[22529,52514],[537,1155],[409,297],[-994,740],[-22,794]],[[22459,55500],[1393,1686]],[[31584,65111],[375,-652],[-437,-844]],[[31522,63615],[-2951,534],[-417,305],[-1409,385],[-2826,-1562],[-987,-1028],[-778,-545]],[[22154,61704],[-378,-168]],[[21776,61536],[-1688,992],[-1522,509]],[[18792,64852],[776,895]],[[19568,65747],[927,-235],[1748,12],[1107,-300],[326,215],[2986,85],[627,-423],[481,308]],[[19568,65747],[-1290,941]],[[18278,66688],[767,1192],[769,-422],[2261,-152],[2763,744]],[[72579,46762],[-927,-2312]],[[66119,42739],[-653,315]],[[65466,43054],[145,489],[854,479],[1529,550],[126,640],[-935,481],[-1968,627],[-782,-242],[-1995,-43]],[[62440,46035],[-143,354]],[[65466,43054],[-419,507],[-1178,225],[-994,521]],[[62875,44307],[-435,1728]],[[53267,62364],[-743,-735],[-236,-1144],[-442,-272],[156,-719],[-210,-808]],[[51792,58686],[-655,-371],[-699,26],[-1095,-567],[-1535,299]],[[47808,58073],[-827,547],[-1554,-280],[-875,834]],[[44552,59174],[-323,519]],[[44229,59693],[645,620],[767,1515],[257,-177],[712,905],[920,469]],[[84646,43553],[-506,159],[-21,1338],[-1172,888],[-798,1667],[-1840,-611],[-604,-63]],[[79705,46931],[-661,665]],[[79044,47596],[-66,1486],[576,1955]],[[79554,51037],[612,475]],[[60213,61755],[120,-441]],[[60333,61314],[-931,-1674],[157,-291],[-616,-1056],[-748,-273]],[[58195,58020],[-114,396],[-764,254],[4,918],[-284,262],[-489,1890],[-465,375]],[[47808,58073],[-450,-1093],[199,-729],[-396,-1341],[-794,276]],[[46367,55186],[-1912,690]],[[44455,55876],[8,1268],[-931,805],[491,480]],[[44023,58429],[529,745]],[[82605,35381],[-1182,-332],[-345,128]],[[81078,35177],[-684,1003],[-1278,1076],[-78,1256]],[[79434,42651],[3192,338],[1232,489],[788,75]],[[38739,60469],[176,-657],[952,-607],[98,-963],[655,-111],[382,-468],[-382,-484],[952,-270],[42,716],[896,-15],[-268,725],[577,275],[1204,-181]],[[44455,55876],[-172,-729],[-1417,-1066],[639,-306],[-375,-523]],[[36852,50781],[363,1262],[-1738,965],[-1124,35],[-1465,930]],[[31578,57161],[661,662],[538,921]],[[32777,58744],[1937,402],[1341,-15],[668,679],[1355,940]],[[38078,60750],[661,-281]],[[53694,42908],[96,-799]],[[46664,41344],[-874,241],[-2478,252]],[[43312,41837],[1103,480]],[[44415,42317],[1510,340]],[[45925,42657],[898,285],[1157,720]],[[11969,55995],[912,-477]],[[12881,55518],[620,-1308],[-902,-937],[-68,-1136]],[[12531,52137],[-1338,-616],[-1593,-1748]],[[5639,50174],[-577,1352],[222,1493],[2280,2194],[1142,1447]],[[79044,47596],[-770,-202],[-1335,675],[-2605,870]],[[74305,50113],[3582,1442]],[[77887,51555],[1066,-578],[601,60]],[[22459,55500],[-546,174],[-89,512],[-929,313],[-769,647]],[[20126,57146],[-102,859]],[[20024,58005],[759,1127]],[[20783,59132],[2248,-285]],[[20783,59132],[-253,310],[954,1005],[292,1089]],[[22154,61704],[873,-645],[1819,-705],[-695,-714],[195,-350]],[[9895,66638],[-154,554],[1157,-398],[1637,214],[1369,-238],[1254,158],[3120,-240]],[[75975,61296],[-357,-633],[-255,-1468]],[[75363,59195],[-764,-590]],[[74599,58605],[-1559,-305]],[[69222,58539],[-506,379],[263,809],[-688,979],[-32,1671]],[[67475,54483],[-300,-1500]],[[64589,56175],[-363,230],[398,564]],[[64624,56969],[595,217],[658,-322],[170,-708]],[[20126,57146],[-262,-612],[-1072,-701],[-701,-791]],[[16813,54507],[-1107,426],[-1288,6],[-960,634],[-577,-55]],[[14320,58663],[751,106],[1635,-179],[1223,-471],[2095,-114]],[[44229,59693],[-884,194],[-3046,114],[-799,420],[-761,48]],[[38078,60750],[124,471],[-635,370],[50,436],[-774,761],[-47,889]],[[44415,42317],[-253,727],[361,343],[-130,1048]],[[44393,44435],[458,165],[935,-1099],[139,-844]],[[89922,57322],[574,-950],[1292,-1418]],[[23935,51814],[-1590,-719],[-347,-420],[-1541,-1073],[-763,-1207]],[[20980,52600],[1549,-86]],[[76362,61637],[1529,-583],[2140,-1073],[-301,-1293],[-1688,-565],[-1242,210],[-1437,862]],[[91490,61700],[-604,-1541],[-819,-685],[31,-1612]],[[82615,55866],[-1172,1502],[274,511],[-1120,141],[-1113,-730],[-121,-706],[-1655,303],[-1097,-757],[-1433,-1249],[-124,-393]],[[75054,54488],[-340,201]],[[74714,54689],[557,3019],[-672,897]],[[80174,54648],[-1644,465],[-1809,-694]],[[76721,54419],[-444,-287],[-1223,356]],[[58195,58020],[-108,-587]],[[58087,57433],[-1732,-206],[-1114,-399],[-1263,457],[-844,-242],[-1435,605],[295,556],[-202,482]],[[78594,43128],[1277,2993],[-166,810]],[[74264,54973],[450,-284]],[[75054,54488],[-448,-361],[-417,-1351],[-131,-1914]],[[54051,43377],[595,312],[662,1626],[862,501]],[[56170,45816],[370,-907],[717,-748],[1771,-632]],[[90531,37231],[-410,-665],[226,-1243],[-245,-952],[206,-330],[-318,-879]],[[89990,33162],[-2011,-567],[-183,-462],[-624,-176],[-436,476],[-1618,267],[-228,908],[463,1794]],[[42196,41429],[249,343],[867,65]],[[12531,52137],[3216,-134],[863,-186]],[[77887,51555],[-1166,2864]],[[62875,44307],[-1428,-1045],[-730,-354]],[[56170,45816],[-4,963]],[[56166,46779],[556,366]],[[56722,47145],[1383,561]],[[58087,57433],[413,-144],[898,-1005],[2080,-1111]],[[56127,49216],[-852,327],[-2858,1568],[-1232,1552],[-867,-458],[62,717],[-359,69],[-1812,-515],[-1209,-168],[-633,2878]],[[56722,47145],[-819,43],[29,589],[-606,599],[-1306,668],[-1066,842],[-309,494],[-1182,98],[-650,673],[13,986],[-492,-253],[-22,-1400]],[[50312,50484],[-1765,-96],[883,-364],[-155,-1004],[-1041,-1079]],[[48234,47941],[-183,302],[-1174,404],[-267,688]],[[46610,49335],[-2147,1421]],[[39087,48725],[-195,-436],[-1791,-1366]],[[35180,47532],[-87,429],[1091,1827]],[[44393,44435],[-515,1079],[971,438],[809,-410],[309,-676],[2013,-1204]],[[48234,47941],[1584,-774],[728,-1035]],[[49169,44871],[-2286,535],[260,624],[-1126,218],[95,2159],[-471,454],[195,387],[774,87]],[[30033,61188],[817,-265],[560,240],[1186,-587],[-937,-862],[1290,-699],[-172,-271]],[[56166,46779],[-2258,-171],[-419,1083],[-1224,328],[-653,-56],[-601,593],[-168,1209],[-531,719]],[[64624,56969],[-1975,2110],[-362,678],[136,1507]],[[62423,61264],[1205,-265],[150,625],[653,347]],[[66202,39318],[-1294,-212],[-1224,-406]],[[63684,38700],[-431,306],[-1072,1411]],[[62181,40417],[458,446],[2387,120],[1149,189]],[[63684,38700],[-1825,-1607],[-726,-414]],[[57693,41147],[1076,-328],[2358,-1153],[1054,751]],[[31522,63615],[-840,-1086]],[[60333,61314],[2090,-50]],[[78341,25464],[-1253,-981],[-1483,-958],[-682,-887]],[[74923,22638],[-651,260],[-3103,179],[-1875,-615],[-263,-255],[39,-1297]],[[69070,20910],[-808,325]],[[68262,21235],[-77,1169],[-1755,774]],[[66430,23178],[-1354,537],[-2310,348]],[[62766,24063],[1184,1580]],[[63950,25643],[384,301]],[[64334,25944],[526,-725],[2346,-1069],[1663,-498],[1581,879],[1986,-192],[1274,471],[1030,150],[563,358],[968,1275],[1325,654]],[[77596,27247],[745,-1783]],[[63388,19320],[-1128,-1156]],[[62260,18164],[-2056,218],[-1377,477],[-338,1370]],[[58489,20229],[1493,669]],[[59982,20898],[2429,-1026],[977,-552]],[[82478,24092],[697,-216]],[[83175,23876],[809,-724],[201,-1755]],[[84185,21397],[-653,-1163],[-716,-203]],[[82816,20031],[-636,630],[-3161,1698],[-276,726],[-402,2379]],[[78341,25464],[1178,-535],[1002,-1011],[1957,174]],[[81078,35177],[1172,-1315],[65,-982],[545,-204],[-585,-893],[-1927,-519],[-298,-1013],[-654,-1131]],[[79396,29120],[-717,496],[-798,139],[-1214,-947]],[[76667,28808],[-1738,650],[-1246,-114],[-367,-640],[-1510,-50],[-859,816],[81,1058],[-226,684],[-1705,1259]],[[69097,32471],[1406,1600],[-26,1179]],[[75010,37231],[-301,-741],[683,-1766],[2304,-80],[784,498],[232,782],[506,498],[-1421,839],[181,867]],[[87526,12324],[-1727,-2018],[-1282,-1010],[-415,-585],[-2592,1016],[-1923,305]],[[79587,10032],[98,1337]],[[79685,11369],[1815,175],[1675,506],[1910,1204]],[[85085,13254],[1323,-140],[556,-739],[562,-51]],[[95700,17818],[1145,-968]],[[96845,16850],[-1166,-607],[-1692,-146],[-1054,-1409],[-1041,-446],[-1192,-181],[-28,-366],[-1472,-775]],[[89200,12920],[-1101,242],[-558,-167],[-15,-671]],[[85085,13254],[-273,814],[877,1321],[18,471],[1108,-68],[303,620],[-888,322],[344,950],[486,-108],[64,544]],[[87124,18120],[2086,1424]],[[89210,19544],[1854,-1011],[716,-138],[-718,-1267],[1087,-633],[1444,161],[914,736],[1193,426]],[[79396,29120],[-603,-648],[1114,-721],[2,-743],[527,-340],[-1438,-701],[-657,-503]],[[77596,27247],[83,436],[-1012,1125]],[[64945,30825],[-427,-378]],[[64518,30447],[-3038,810],[-317,-321],[-1114,739],[-2871,940],[-323,295]],[[60117,34124],[1819,-1390],[790,-315],[1464,-1170],[755,-424]],[[69952,8028],[-52,-1413]],[[69900,6615],[-2958,-534],[-1163,-442],[-1157,568],[-94,1042],[961,2089]],[[65489,9338],[108,182]],[[65597,9520],[968,-191],[736,-699],[1371,-480],[1280,-122]],[[81238,18526],[-116,-1177],[-2445,-4087],[-1110,-960]],[[77567,12302],[-1466,1058],[-1796,409],[-1010,48],[54,289]],[[73349,14106],[838,1469],[655,418],[-81,1429]],[[74761,17422],[724,1167],[1730,683],[1277,-134],[987,548]],[[79479,19686],[1015,-175],[744,-985]],[[62260,18164],[49,-502],[-1819,196]],[[60490,17858],[-1511,64],[-1295,-165],[-1744,162]],[[55940,17919],[2549,2310]],[[69900,6615],[353,-970]],[[70253,5645],[-1519,-102],[-466,-601],[-948,257],[-562,-335],[-1361,-351],[-599,-595],[-720,313],[-450,-542],[-1580,-189],[-745,277],[-1393,1197],[-1213,-501]],[[58697,4473],[493,939],[-676,334],[133,2186]],[[58647,7932],[1354,366],[977,721],[452,-113],[265,506]],[[61695,9412],[1405,188],[730,-359],[346,251],[1313,-154]],[[69390,12294],[170,-672],[1752,-1240]],[[71312,10382],[-1360,-2354]],[[65597,9520],[373,1383],[997,1283],[455,285],[1968,-177]],[[64518,30447],[-496,-1234],[-58,-2255],[598,-623],[-228,-391]],[[63950,25643],[-712,-59],[-406,408],[-2043,230],[-1862,-36],[-2219,688],[-1987,-155],[-98,150]],[[89200,12920],[1329,-267],[-651,-441],[-23,-555],[479,95],[1274,-946],[510,377],[272,-582],[873,346],[1543,-804],[1750,-388],[-47,-608],[-874,-7],[548,-388],[241,292],[1628,-744]],[[98052,8300],[-1720,-1318],[-1053,-234],[-985,63],[-1197,-594],[-1634,-381],[-189,-522],[-1149,-224],[-153,365],[-1525,-795],[-819,332],[-1674,45],[-404,-343],[-1979,1031],[-867,2227],[-1441,633],[-1839,-425]],[[79424,8160],[163,1872]],[[68801,13259],[589,-965]],[[61695,9412],[77,249],[-1155,1267],[180,679],[-678,121],[-31,1020],[-601,196],[1138,422],[618,-78],[102,499],[-1099,941]],[[60246,14728],[2947,-549],[898,136],[699,-557],[581,43],[1202,-652],[1514,-146],[714,256]],[[66430,23178],[-531,-1262],[181,-1576],[-179,-622]],[[65901,19718],[-630,-660],[-1290,-320],[-593,582]],[[59982,20898],[-190,251],[1682,1518],[1292,1396]],[[58697,4473],[12,-767],[-848,-274],[-417,451],[-908,348],[-494,-539],[-1294,90],[-848,308],[-85,1476],[489,2052],[-54,382]],[[54250,8000],[1390,-261],[1669,430],[284,-267],[1054,30]],[[91289,23220],[394,-440]],[[91683,22780],[-1218,-870],[-1074,-1852]],[[89391,20058],[-160,156],[-2370,552],[-757,295],[-1919,336]],[[83175,23876],[745,1015],[1962,-529],[995,23],[3086,-579],[1326,-586]],[[89391,20058],[-181,-514]],[[87124,18120],[-483,199],[-2526,-325],[-780,444],[-1319,332]],[[82016,18770],[-42,492],[842,769]],[[89990,33162],[1477,-1245],[581,-1031],[690,-594],[-172,-1026],[-1340,-1338]],[[91226,27928],[-493,207],[-834,-165],[-626,-493],[-722,614],[-152,633],[-864,166],[-1861,-453],[-464,-910],[-616,48],[-515,-451],[-1292,481],[48,-760],[-477,-2178],[120,-575]],[[96845,16850],[1130,-678],[-753,-1378],[-17,-864],[289,-527],[-488,-55],[994,-834],[-81,-520],[1412,-335],[668,-536],[-17,-792],[-1103,-826],[-827,-1205]],[[55940,17919],[-665,28]],[[55275,17947],[-675,32]],[[77567,12302],[-290,-184]],[[77277,12118],[-1419,-1159],[-1186,-141],[-1311,-943],[-1070,-33],[-979,540]],[[68801,13259],[690,676],[372,874]],[[69863,14809],[1169,-30],[2317,-673]],[[91226,27928],[-858,-1011],[730,-703],[-98,-453],[1106,-346],[-817,-2195]],[[82016,18770],[-778,-244]],[[79479,19686],[-1032,102],[-1014,689],[-1544,372],[-796,494],[-170,1295]],[[69863,14809],[-226,169],[512,938],[-56,554],[-573,524],[643,-65],[444,365],[-664,487],[50,684]],[[69993,18465],[2333,-375],[1158,-464],[1277,-204]],[[60490,17858],[-28,-421],[935,-433],[560,-842],[-1782,-1018]],[[60175,15144],[-361,635],[-1764,597],[-1067,630],[-1001,155],[-707,786]],[[69070,20910],[635,-1355],[288,-1090]],[[60246,14728],[-71,416]],[[65901,19718],[1162,-381],[1199,1898]],[[91683,22780],[2107,345],[80,197],[1743,-484],[-162,-524],[995,-373],[245,-958],[-156,-1083],[-835,-2082]],[[64945,30825],[345,-107],[1636,516],[2171,1237]],[[54250,8000],[-535,2591],[-222,441],[-1271,1215],[-1216,3009],[-433,231]],[[79424,8160],[-247,-1172],[-537,-280],[-884,101],[-554,-840],[-1649,-1066],[206,-715],[-1205,-459],[-427,233],[-535,-381],[-1973,1171],[-697,258],[-669,635]],[[77277,12118],[2408,-749]],[[39876,96459],[-1608,660],[-124,867],[2012,-257]],[[69408,90940],[251,655],[-1091,711],[2145,63],[66,-588],[579,-553],[1995,902],[991,-789],[830,-280],[334,-958]]],"transform":{"scale":[5.178251782517828e-06,6.03156031560315e-06],"translate":[74.90179,30.48636]},"objects":{"villages":{"type":"GeometryCollection","geometries":[{"arcs":[[0,1,2,3,4,5,6,7,8]],"type":"Polygon","properties":{"n":"Bagha Purana (M Cl)","c":800201,"d":"Moga","s":"PUNJAB"}},{"arcs":[[9,10,11,12,13,14,15]],"type":"Polygon","properties":{"n":"Bambia Bhai (122)","c":33960,"d":"Moga","s":"PUNJAB"}},{"arcs":[[16,17,18,19,20,21,22,23,24]],"type":"Polygon","properties":{"n":"Bara Ghar (75)","c":33977,"d":"Moga","s":"PUNJAB"}},{"arcs":[[25,26,27,28,29,30,31]],"type":"Polygon","properties":{"n":"Bhaloor (115)","c":33972,"d":"Moga","s":"PUNJAB"}},{"arcs":[[32,33,34,35,-19,36]],"type":"Polygon","properties":{"n":"Bhaikha (76)","c":33983,"d":"Moga","s":"PUNJAB"}},{"arcs":[[37,38,39,-4,40]],"type":"Polygon","properties":{"n":"Budh Singhwala (109)","c":33940,"d":"Moga","s":"PUNJAB"}},{"arcs":[[41,42,43,44,45,46]],"type":"Polygon","properties":{"n":"Chand Purana (83)","c":33989,"d":"Moga","s":"PUNJAB"}},{"arcs":[[47,48,49,50]],"type":"Polygon","properties":{"n":"Demru Kalan (112)","c":33970,"d":"Moga","s":"PUNJAB"}},{"arcs":[[51,-48,52]],"type":"Polygon","properties":{"n":"Demru Khurd (113)","c":33971,"d":"Moga","s":"PUNJAB"}},{"arcs":[[53,54]],"type":"Polygon","properties":{"n":" ","c":0,"d":"Moga","s":"PUNJAB"}},{"arcs":[[55,56,-46,57,58,59,60,61]],"type":"Polygon","properties":{"n":"Chand Nawan (82)","c":33986,"d":"Moga","s":"PUNJAB"}},{"arcs":[[62,63,64,65,66,67,-39,68]],"type":"Polygon","properties":{"n":"Chanuwala (141)","c":33943,"d":"Moga","s":"PUNJAB"}},{"arcs":[[69,70,71,-11,72,73]],"type":"Polygon","properties":{"n":"Chida (125)","c":33958,"d":"Moga","s":"PUNJAB"}},{"arcs":[[-45,74,75,-58]],"type":"Polygon","properties":{"n":"Chotia Thoba (84)","c":33987,"d":"Moga","s":"PUNJAB"}},{"arcs":[[76,77,78,79,-29,80,-49,-52,81]],"type":"Polygon","properties":{"n":"Demru Kalan (112)","c":33970,"d":"Moga","s":"PUNJAB"}},{"arcs":[[-50,-81,-28,82,83]],"type":"Polygon","properties":{"n":"Demru Khurd (113)","c":33971,"d":"Moga","s":"PUNJAB"}},{"arcs":[[84,85]],"type":"Polygon","properties":{"n":"Dhilwan (135)","c":33954,"d":"Moga","s":"PUNJAB"}},{"arcs":[[86,-70,87,88,89,90]],"type":"Polygon","properties":{"n":"Dalluwala (134)","c":33956,"d":"Moga","s":"PUNJAB"}},{"arcs":[[-60,91,-34,92,93]],"type":"Polygon","properties":{"n":"Gajanwala (80)","c":33984,"d":"Moga","s":"PUNJAB"}},{"arcs":[[94,95,96,97,-41,-3,98,99]],"type":"Polygon","properties":{"n":"Gholia Kalan (89)","c":33937,"d":"Moga","s":"PUNJAB"}},{"arcs":[[100,-9,101,-43]],"type":"Polygon","properties":{"n":"Gill (86)","c":33990,"d":"Moga","s":"PUNJAB"}},{"arcs":[[102,103,104,105]],"type":"Polygon","properties":{"n":"Gulabe Singhwala (137)","c":33952,"d":"Moga","s":"PUNJAB"}},{"arcs":[[106,-26,107,108,-22,109]],"type":"Polygon","properties":{"n":"Hariewala (72)","c":33974,"d":"Moga","s":"PUNJAB"}},{"arcs":[[-59,-76,110,111,112,-35,-92]],"type":"Polygon","properties":{"n":"Jaimalwala (79)","c":33982,"d":"Moga","s":"PUNJAB"}},{"arcs":[[-102,-8,113,-111,-75,-44]],"type":"Polygon","properties":{"n":"Jai Singhwala (85)","c":33988,"d":"Moga","s":"PUNJAB"}},{"arcs":[[114,115,116,-90,117]],"type":"Polygon","properties":{"n":"Jita Singhwala (139)","c":33950,"d":"Moga","s":"PUNJAB"}},{"arcs":[[-99,-2,118,119]],"type":"Polygon","properties":{"n":"Kaleke (88)","c":33938,"d":"Moga","s":"PUNJAB"}},{"arcs":[[-67,120,121,122]],"type":"Polygon","properties":{"n":"Kotla Mehar Singhwala (130)","c":33944,"d":"Moga","s":"PUNJAB"}},{"arcs":[[123,-105,124,-116,125]],"type":"Polygon","properties":{"n":"Kotla Raika (138)","c":33951,"d":"Moga","s":"PUNJAB"}},{"arcs":[[-66,126,127,128,-121]],"type":"Polygon","properties":{"n":"Ladhaike (131)","c":33948,"d":"Moga","s":"PUNJAB"}},{"arcs":[[[129,130,-30,-80]],[[131,132]]],"type":"MultiPolygon","properties":{"n":"Landa (116)","c":33969,"d":"Moga","s":"PUNJAB"}},{"arcs":[[-114,-7,133,-78,134,-112]],"type":"Polygon","properties":{"n":"Langiana Nawan (77)","c":33981,"d":"Moga","s":"PUNJAB"}},{"arcs":[[-113,-135,-77,135,-20,-36]],"type":"Polygon","properties":{"n":"Langiana Purana (78)","c":33980,"d":"Moga","s":"PUNJAB"}},{"arcs":[[136,-108,-32,137,138]],"type":"Polygon","properties":{"n":"Mahla Kalan (70)","c":33975,"d":"Moga","s":"PUNJAB"}},{"arcs":[[-23,-109,-137,139,140]],"type":"Polygon","properties":{"n":"Mahla Khurd (71)","c":33976,"d":"Moga","s":"PUNJAB"}},{"arcs":[[141,-118,-89,142,143,144,145,-128]],"type":"Polygon","properties":{"n":"Mari Mustafa (132)","c":33947,"d":"Moga","s":"PUNJAB"}},{"arcs":[[146,147,148,149,150,151]],"type":"Polygon","properties":{"n":"Sibbian (120)","c":35590,"d":"Moga","s":"PUNJAB"}},{"arcs":[[-88,-74,152,-143]],"type":"Polygon","properties":{"n":"Maur Nauabad (133)","c":33957,"d":"Moga","s":"PUNJAB"}},{"arcs":[[153,-83,-27,-107]],"type":"Polygon","properties":{"n":"Nathewala (114)","c":33973,"d":"Moga","s":"PUNJAB"}},{"arcs":[[154,-38,-98]],"type":"Polygon","properties":{"n":"Nathuke (108)","c":33941,"d":"Moga","s":"PUNJAB"}},{"arcs":[[-136,-82,-53,-51,-84,-154,-110,-21]],"type":"Polygon","properties":{"n":"Nathuwala Garbi (73)","c":33979,"d":"Moga","s":"PUNJAB"}},{"arcs":[[-150,155,156]],"type":"Polygon","properties":{"n":"Panjgarain Khurd (118)","c":33966,"d":"Moga","s":"PUNJAB"}},{"arcs":[[-61,-94,157,158]],"type":"Polygon","properties":{"n":"Pathangarh (81)","c":33985,"d":"Moga","s":"PUNJAB"}},{"arcs":[[159,160,-63,161,-97]],"type":"Polygon","properties":{"n":"Phulewala (106)","c":33936,"d":"Moga","s":"PUNJAB"}},{"arcs":[[-40,-68,-123,162,163,164,-5]],"type":"Polygon","properties":{"n":"Rajiana (110)","c":33945,"d":"Moga","s":"PUNJAB"}},{"arcs":[[-6,-165,165,-55,166,-132,167,-79,-134]],"type":"Polygon","properties":{"n":"Rode (111)","c":33968,"d":"Moga","s":"PUNJAB"}},{"arcs":[[168,-14,169,-148]],"type":"Polygon","properties":{"n":"Sahuke (121)","c":33964,"d":"Moga","s":"PUNJAB"}},{"arcs":[[170,171,172,-106,-124,173,-64,-161]],"type":"Polygon","properties":{"n":"Samadhbhai (142)","c":33935,"d":"Moga","s":"PUNJAB"}},{"arcs":[[-133,-167,-54,-166,-164,174,175,-151,-157,176,-130,-168]],"type":"Polygon","properties":{"n":"Smalsar (117)","c":33967,"d":"Moga","s":"PUNJAB"}},{"arcs":[[-174,-126,-115,-142,-127,-65]],"type":"Polygon","properties":{"n":"Sangatpura (140)","c":33949,"d":"Moga","s":"PUNJAB"}},{"arcs":[[177,-16,178,-152,-176,179,-145]],"type":"Polygon","properties":{"n":"Sekha Kalan (128)","c":33962,"d":"Moga","s":"PUNJAB"}},{"arcs":[[-15,-169,-147,-179]],"type":"Polygon","properties":{"n":"Sekha Khurd (127)","c":33963,"d":"Moga","s":"PUNJAB"}},{"arcs":[[180,181,182,-71,-87]],"type":"Polygon","properties":{"n":"Sukha Nand (124)","c":33955,"d":"Moga","s":"PUNJAB"}},{"arcs":[[-144,-153,-73,-10,-178]],"type":"Polygon","properties":{"n":"Thathi Bhai (126)","c":33961,"d":"Moga","s":"PUNJAB"}},{"arcs":[[-104,183,-86,184,-181,-91,-117,-125]],"type":"Polygon","properties":{"n":"Tharaj (136)","c":33953,"d":"Moga","s":"PUNJAB"}},{"arcs":[[-162,-69,-155]],"type":"Polygon","properties":{"n":"Ugoke (107)","c":33942,"d":"Moga","s":"PUNJAB"}},{"arcs":[[-72,-183,185,-12]],"type":"Polygon","properties":{"n":"Wander (123)","c":33959,"d":"Moga","s":"PUNJAB"}},{"arcs":[[-122,-129,-146,-180,-175,-163]],"type":"Polygon","properties":{"n":"Veroke (129)","c":33946,"d":"Moga","s":"PUNJAB"}},{"arcs":[[186,187,188]],"type":"Polygon","properties":{"n":"Akushahwala (268)","c":34132,"d":"Moga","s":"PUNJAB"}},{"arcs":[[189,190,191,192,193,194,195]],"type":"Polygon","properties":{"n":"Aminwala (255)","c":34147,"d":"Moga","s":"PUNJAB"}},{"arcs":[[196,197,198,199,200]],"type":"Polygon","properties":{"n":"Atari (317)","c":34082,"d":"Moga","s":"PUNJAB"}},{"arcs":[[201,-194,202,203,204,205,206,207,208]],"type":"Polygon","properties":{"n":"Baqarwala (228)","c":34149,"d":"Moga","s":"PUNJAB"}},{"arcs":[[209,210,211]],"type":"Polygon","properties":{"n":"Bassian (258)","c":34140,"d":"Moga","s":"PUNJAB"}},{"arcs":[[212,213,214,215,216,217,218]],"type":"Polygon","properties":{"n":"Badoowal (289)","c":34104,"d":"Moga","s":"PUNJAB"}},{"arcs":[[219,220,221,222,223]],"type":"Polygon","properties":{"n":"Bagge (236)","c":34189,"d":"Moga","s":"PUNJAB"}},{"arcs":[[224,225,226,227,228]],"type":"Polygon","properties":{"n":"Barahamke (241)","c":34158,"d":"Moga","s":"PUNJAB"}},{"arcs":[[229,-201,230,231,232]],"type":"Polygon","properties":{"n":"Bankhandi (316)","c":34083,"d":"Moga","s":"PUNJAB"}},{"arcs":[[233,234,235,236,237,238,239],[240]],"type":"Polygon","properties":{"n":"Varah (296)","c":34099,"d":"Moga","s":"PUNJAB"}},{"arcs":[[241,242,243,-206]],"type":"Polygon","properties":{"n":"Basti Chirag Shahwala (229)","c":34172,"d":"Moga","s":"PUNJAB"}},{"arcs":[[244,245,246,247,248]],"type":"Polygon","properties":{"n":"Bajeke (244)","c":34169,"d":"Moga","s":"PUNJAB"}},{"arcs":[[-195,-202,249,250]],"type":"Polygon","properties":{"n":"Bhoepur (227)","c":34148,"d":"Moga","s":"PUNJAB"}},{"arcs":[[251,252,253,254,255,256]],"type":"Polygon","properties":{"n":"Bhagpur Alias Gagrah (307)","c":34094,"d":"Moga","s":"PUNJAB"}},{"arcs":[[257,258,259,260,261,262,263]],"type":"Polygon","properties":{"n":"Bhaini (211)","c":34194,"d":"Moga","s":"PUNJAB"}},{"arcs":[[264,265,266,267,268,269,270,271,272]],"type":"Polygon","properties":{"n":"Bhinder Kalan (292)","c":34035,"d":"Moga","s":"PUNJAB"}},{"arcs":[[273,274,-266,275]],"type":"Polygon","properties":{"n":"Bhinder Khurd (285)","c":34106,"d":"Moga","s":"PUNJAB"}},{"arcs":[[276,277,278,-189,279,280,281]],"type":"Polygon","properties":{"n":"Bhodiwala (261)","c":34138,"d":"Moga","s":"PUNJAB"}},{"arcs":[[282,283,284,285]],"type":"Polygon","properties":{"n":"Bhoghewala (201)","c":34204,"d":"Moga","s":"PUNJAB"}},{"arcs":[[286,287,288]],"type":"Polygon","properties":{"n":"Kanian Khurd (277)","c":34120,"d":"Moga","s":"PUNJAB"}},{"arcs":[[289,290,291,292,293,-190,294,295]],"type":"Polygon","properties":{"n":"Bijapur (256)","c":34146,"d":"Moga","s":"PUNJAB"}},{"arcs":[[296,-286,297,298]],"type":"Polygon","properties":{"n":"Bundala (204)","c":34203,"d":"Moga","s":"PUNJAB"}},{"arcs":[[-231,-200,299,300,301,302,303]],"type":"Polygon","properties":{"n":"Chuhar Chak (318)","c":34079,"d":"Moga","s":"PUNJAB"}},{"arcs":[[304,305,-252,306]],"type":"Polygon","properties":{"n":"Chuhar Singhwala (300)","c":34042,"d":"Moga","s":"PUNJAB"}},{"arcs":[[307,308,-307,-257,309,310]],"type":"Polygon","properties":{"n":"Chima (308)","c":34095,"d":"Moga","s":"PUNJAB"}},{"arcs":[[311,-227,312,313,314,315]],"type":"Polygon","properties":{"n":"Chirag Shahwala (188)","c":34165,"d":"Moga","s":"PUNJAB"}},{"arcs":[[316,-277,317,318]],"type":"Polygon","properties":{"n":"Chamb (262)","c":34130,"d":"Moga","s":"PUNJAB"}},{"arcs":[[319,320,321]],"type":"Polygon","properties":{"n":"Chak Bhaura (280)","c":34129,"d":"Moga","s":"PUNJAB"}},{"arcs":[[322,323,324]],"type":"Polygon","properties":{"n":"Chak Fatehpur (301)","c":34122,"d":"Moga","s":"PUNJAB"}},{"arcs":[[325,-324,326,327]],"type":"Polygon","properties":{"n":"Chak Jindra (239)","c":34123,"d":"Moga","s":"PUNJAB"}},{"arcs":[[328,-203,-193]],"type":"Polygon","properties":{"n":"Kasana (250)","c":34150,"d":"Moga","s":"PUNJAB"}},{"arcs":[[-321,329,330,-278,-317,331]],"type":"Polygon","properties":{"n":"Chak Singhpura (289)","c":34139,"d":"Moga","s":"PUNJAB"}},{"arcs":[[-320,332,333,334,-328,335,336,-330]],"type":"Polygon","properties":{"n":"Chak Tarewala (298)","c":34128,"d":"Moga","s":"PUNJAB"}},{"arcs":[[337,338]],"type":"Polygon","properties":{"n":"Chotian (102)","c":34217,"d":"Moga","s":"PUNJAB"}},{"arcs":[[339,340,-234,341,342,343]],"type":"Polygon","properties":{"n":"Chugha Kalan (295)","c":34098,"d":"Moga","s":"PUNJAB"}},{"arcs":[[[-343,345,346]],[[347]]],"type":"MultiPolygon","properties":{"n":"Chugha Khurd (298)","c":34097,"d":"Moga","s":"PUNJAB"}},{"arcs":[[348,349,350,351,352]],"type":"Polygon","properties":{"n":"Danewala (107)","c":34216,"d":"Moga","s":"PUNJAB"}},{"arcs":[[353,354,355,356,357,-271]],"type":"Polygon","properties":{"n":"Datta (293)","c":34036,"d":"Moga","s":"PUNJAB"}},{"arcs":[[358,359,360,361,362,363]],"type":"Polygon","properties":{"n":"Datewal (313)","c":34092,"d":"Moga","s":"PUNJAB"}},{"arcs":[[364,365,366,367,368,369,370]],"type":"Polygon","properties":{"n":"Daulewala (180)","c":34162,"d":"Moga","s":"PUNJAB"}},{"arcs":[[371,372,373]],"type":"Polygon","properties":{"n":"Daya Kalan (280)","c":34111,"d":"Moga","s":"PUNJAB"}},{"arcs":[[374,375,376,-316,377,378,379,380,381]],"type":"Polygon","properties":{"n":"Dharam Singhwala (189)","c":34180,"d":"Moga","s":"PUNJAB"}},{"arcs":[[382,383,-216,384,385,-344,-347,386,387,388]],"type":"Polygon","properties":{"n":" ","c":0,"d":"Moga","s":"PUNJAB"}},{"arcs":[[389,-243,390,391,-249,392,393,394,-222]],"type":"Polygon","properties":{"n":"Dholewala (237)","c":34177,"d":"Moga","s":"PUNJAB"}},{"arcs":[[395,396,397,-258,398]],"type":"Polygon","properties":{"n":"Daulewala Khurd (234)","c":34186,"d":"Moga","s":"PUNJAB"}},{"arcs":[[399,400,-219,401,402,403,404]],"type":"Polygon","properties":{"n":"Doburji (278)","c":34134,"d":"Moga","s":"PUNJAB"}},{"arcs":[[-357,405,406,407,408,409,-235,-341,410]],"type":"Polygon","properties":{"n":"Fatehgarh Korotana (294)","c":34101,"d":"Moga","s":"PUNJAB"}},{"arcs":[[411,412,413,414,415,416,-353,417,-338,418,419]],"type":"Polygon","properties":{"n":"Fatehgarh Panjtur (103)","c":34211,"d":"Moga","s":"PUNJAB"}},{"arcs":[[420,421,422,423,-323]],"type":"Polygon","properties":{"n":"Fatehpur Kanian (275)","c":34118,"d":"Moga","s":"PUNJAB"}},{"arcs":[[-315,424,425,-378]],"type":"Polygon","properties":{"n":"Fatehpur Jhugian (187)","c":34164,"d":"Moga","s":"PUNJAB"}},{"arcs":[[426,427,428,-349,-417,429]],"type":"Polygon","properties":{"n":"Fateh Ullah Shahwala (99/105)","c":34212,"d":"Moga","s":"PUNJAB"}},{"arcs":[[-218,430,431,-191,-294,432]],"type":"Polygon","properties":{"n":"Ferozewala Bada (253)","c":34151,"d":"Moga","s":"PUNJAB"}},{"arcs":[[433,-402,-433,-293]],"type":"Polygon","properties":{"n":"Ferozewal Mangal Singh (254)","c":34136,"d":"Moga","s":"PUNJAB"}},{"arcs":[[-254,434,435,436,-360,437,438]],"type":"Polygon","properties":{"n":"Ghaloti (306)","c":34093,"d":"Moga","s":"PUNJAB"}},{"arcs":[[439,-334,440]],"type":"Polygon","properties":{"n":"Gatti Jattan (299)","c":34127,"d":"Moga","s":"PUNJAB"}},{"arcs":[[441,-412,442,443]],"type":"Polygon","properties":{"n":"Goluwala (199)","c":34205,"d":"Moga","s":"PUNJAB"}},{"arcs":[[444,-276,-265,445,-214,446]],"type":"Polygon","properties":{"n":"Indergarh (287/288)","c":34105,"d":"Moga","s":"PUNJAB"}},{"arcs":[[447,448,-225,449]],"type":"Polygon","properties":{"n":"Jaffarwala (243)","c":34157,"d":"Moga","s":"PUNJAB"}},{"arcs":[[450,-272,-358,-411,-340,-386]],"type":"Polygon","properties":{"n":"Jalalabad (291)","c":34102,"d":"Moga","s":"PUNJAB"}},{"arcs":[[451,452]],"type":"Polygon","properties":{"n":"Jalal Singhwala (304)","c":34045,"d":"Moga","s":"PUNJAB"}},{"arcs":[[453,454,455,-435,-253,-306]],"type":"Polygon","properties":{"n":"Janer (301)","c":34043,"d":"Moga","s":"PUNJAB"}},{"arcs":[[456,457,458,459,-367,460]],"type":"Polygon","properties":{"n":"Jaspur Alias Gehliwala (181)","c":34161,"d":"Moga","s":"PUNJAB"}},{"arcs":[[-336,-327,-424,461,462,463,-400,464]],"type":"Polygon","properties":{"n":"Jindra (270)","c":34125,"d":"Moga","s":"PUNJAB"}},{"arcs":[[465,-414,466,467]],"type":"Polygon","properties":{"n":"Kahnewala (198)","c":34207,"d":"Moga","s":"PUNJAB"}},{"arcs":[[468,-318,-282,469,-291,470,-211]],"type":"Polygon","properties":{"n":"Kanwan (263)","c":34131,"d":"Moga","s":"PUNJAB"}},{"arcs":[[-389,471,472,473,474]],"type":"Polygon","properties":{"n":"Kaila (247)","c":34154,"d":"Moga","s":"PUNJAB"}},{"arcs":[[475,476,477]],"type":"Polygon","properties":{"n":"Kambo Khurd (210)","c":34193,"d":"Moga","s":"PUNJAB"}},{"arcs":[[478,-289,-421,-325,-326,-335,-440]],"type":"Polygon","properties":{"n":"Kanian Kalan (276)","c":34119,"d":"Moga","s":"PUNJAB"}},{"arcs":[[479,-223,-395,480,481,482,-397]],"type":"Polygon","properties":{"n":"Kanian Khas (235)","c":34188,"d":"Moga","s":"PUNJAB"}},{"arcs":[[483,484]],"type":"Polygon","properties":{"n":"Karahewala (106)","c":34219,"d":"Moga","s":"PUNJAB"}},{"arcs":[[-387,-346,-342,-240,-345,-238,485,-308,486,487],[-348]],"type":"Polygon","properties":{"n":"Karyal (299)","c":34096,"d":"Moga","s":"PUNJAB"}},{"arcs":[[488,-260,489,490,-382,491,492,493]],"type":"Polygon","properties":{"n":"Khamba (193)","c":34183,"d":"Moga","s":"PUNJAB"}},{"arcs":[[-492,-381,494,-427,495]],"type":"Polygon","properties":{"n":"Khera Daroli (174)","c":34182,"d":"Moga","s":"PUNJAB"}},{"arcs":[[496,497,-197,-230,498,-361,-437]],"type":"Polygon","properties":{"n":"Khosa Kotla (305)","c":34084,"d":"Moga","s":"PUNJAB"}},{"arcs":[[-456,499,500,501,-453,502,503,-497,-436]],"type":"Polygon","properties":{"n":"Khosa Randhir (303)","c":34044,"d":"Moga","s":"PUNJAB"}},{"arcs":[[-380,504,505,506,-428,-495]],"type":"Polygon","properties":{"n":"Killi Gandran (186)","c":34213,"d":"Moga","s":"PUNJAB"}},{"arcs":[[507,-228,508,509]],"type":"Polygon","properties":{"n":"Kishanpura (240)","c":34167,"d":"Moga","s":"PUNJAB"}},{"arcs":[[510,511,512,-374,513,514,515,516,-274,-445,517,518,-422,-288]],"type":"Polygon","properties":{"n":"Kishanpur Kalan (279)","c":34113,"d":"Moga","s":"PUNJAB"}},{"arcs":[[-512,519]],"type":"Polygon","properties":{"n":" ","c":0,"d":"Moga","s":"PUNJAB"}},{"arcs":[[520,521,-268,522,-516]],"type":"Polygon","properties":{"n":"Kokri Behniwal (283)","c":34108,"d":"Moga","s":"PUNJAB"}},{"arcs":[[523,524,-521,-515]],"type":"Polygon","properties":{"n":"Kokri Buttran (282)","c":34109,"d":"Moga","s":"PUNJAB"}},{"arcs":[[525,-255,-439,526,527,-458,528]],"type":"Polygon","properties":{"n":"Kot Ise Khan (CT)","c":34220,"d":"Moga","s":"PUNJAB"}},{"arcs":[[529,530,-518,-447,-213,-401,-464]],"type":"Polygon","properties":{"n":"Kot Mohamad Khan (272)","c":34114,"d":"Moga","s":"PUNJAB"}},{"arcs":[[531,-487,-311,532,533,-448,-247]],"type":"Polygon","properties":{"n":"Kot Sardar Khan (245)","c":34156,"d":"Moga","s":"PUNJAB"}},{"arcs":[[534,-467,-413,-442,535]],"type":"Polygon","properties":{"n":"Lalhandi (200)","c":34208,"d":"Moga","s":"PUNJAB"}},{"arcs":[[-446,-273,-451,-385,-215]],"type":"Polygon","properties":{"n":"Lohgarh (288)","c":34103,"d":"Moga","s":"PUNJAB"}},{"arcs":[[-410,536,537,-500,-455,-236]],"type":"Polygon","properties":{"n":"Lohara (302)","c":34040,"d":"Moga","s":"PUNJAB"}},{"arcs":[[538,539,540]],"type":"Polygon","properties":{"n":"Longiwind (177)","c":34087,"d":"Moga","s":"PUNJAB"}},{"arcs":[[541,-393,-248,-450,-229,-508]],"type":"Polygon","properties":{"n":"Musewala (242)","c":34168,"d":"Moga","s":"PUNJAB"}},{"arcs":[[542,543,-415,-466,544]],"type":"Polygon","properties":{"n":"Mahiwala (197)","c":34209,"d":"Moga","s":"PUNJAB"}},{"arcs":[[-285,545,-545,-468,-535,546,-298]],"type":"Polygon","properties":{"n":"Madarpur (203)","c":34202,"d":"Moga","s":"PUNJAB"}},{"arcs":[[-369,547,-364,548,-541,549]],"type":"Polygon","properties":{"n":"Mehal (178)","c":34088,"d":"Moga","s":"PUNJAB"}},{"arcs":[[550,551,552,553,554]],"type":"Polygon","properties":{"n":"Manjhli (223-A)","c":34144,"d":"Moga","s":"PUNJAB"}},{"arcs":[[-506,555,-371,556,557]],"type":"Polygon","properties":{"n":"Mandar (185)","c":34214,"d":"Moga","s":"PUNJAB"}},{"arcs":[[-478,558,559,560]],"type":"Polygon","properties":{"n":"Mandar Kalan (207)","c":34197,"d":"Moga","s":"PUNJAB"}},{"arcs":[[-226,-449,-534,561,-529,-457,562,-313]],"type":"Polygon","properties":{"n":"Masitan (182)","c":34159,"d":"Moga","s":"PUNJAB"}},{"arcs":[[-314,-563,-461,-366,563,-425]],"type":"Polygon","properties":{"n":"Mastewala (183)","c":34163,"d":"Moga","s":"PUNJAB"}},{"arcs":[[-205,564,-474,565,-391,-242]],"type":"Polygon","properties":{"n":"Maujgarh (249)","c":34171,"d":"Moga","s":"PUNJAB"}},{"arcs":[[566,-399,-264,567]],"type":"Polygon","properties":{"n":"Mehruwala (217)","c":34192,"d":"Moga","s":"PUNJAB"}},{"arcs":[[568,569,-494,570,571]],"type":"Polygon","properties":{"n":"Melak Akalian (195)","c":34199,"d":"Moga","s":"PUNJAB"}},{"arcs":[[-559,-477,572,-262,573,-569,574,575]],"type":"Polygon","properties":{"n":"Melak Kangan (208)","c":34198,"d":"Moga","s":"PUNJAB"}},{"arcs":[[-351,576,577,-484,578]],"type":"Polygon","properties":{"n":"Maujewala (167)","c":34218,"d":"Moga","s":"PUNJAB"}},{"arcs":[[579,-232,-304,580,581,582]],"type":"Polygon","properties":{"n":"Manawan (322)","c":34081,"d":"Moga","s":"PUNJAB"}},{"arcs":[[[-237,-454,-305,-309,-486]],[[-241]]],"type":"MultiPolygon","properties":{"n":"Mubarakpur (297)","c":34041,"d":"Moga","s":"PUNJAB"}},{"arcs":[[-429,-507,-558,583,-577,-350]],"type":"Polygon","properties":{"n":"Mundi Jamal (106)","c":34215,"d":"Moga","s":"PUNJAB"}},{"arcs":[[-472,-388,-488,-532,-246]],"type":"Polygon","properties":{"n":"Nurpur Haqiman (246)","c":34155,"d":"Moga","s":"PUNJAB"}},{"arcs":[[-533,-310,-256,-526,-562]],"type":"Polygon","properties":{"n":"Nasirpur Janian (309)","c":34160,"d":"Moga","s":"PUNJAB"}},{"arcs":[[-459,-528,584]],"type":"Polygon","properties":{"n":"Nihalgarh (311)","c":34090,"d":"Moga","s":"PUNJAB"}},{"arcs":[[-423,-519,-531,585,-462]],"type":"Polygon","properties":{"n":"Nasirewala (274)","c":34117,"d":"Moga","s":"PUNJAB"}},{"arcs":[[-329,-192,-432,586,-383,-475,-565,-204]],"type":"Polygon","properties":{"n":"Pandori Araian (251)","c":34153,"d":"Moga","s":"PUNJAB"}},{"arcs":[[-426,-564,-365,-556,-505,-379]],"type":"Polygon","properties":{"n":"Qadarwala (184)","c":34181,"d":"Moga","s":"PUNJAB"}},{"arcs":[[587,588,-375,-491]],"type":"Polygon","properties":{"n":"Rajanwala (191)","c":34184,"d":"Moga","s":"PUNJAB"}},{"arcs":[[-482,589,590,-376,-589,591]],"type":"Polygon","properties":{"n":"Ramgarh (199)","c":34179,"d":"Moga","s":"PUNJAB"}},{"arcs":[[-362,-499,-233,-580,592]],"type":"Polygon","properties":{"n":"Raniala (315)","c":34085,"d":"Moga","s":"PUNJAB"}},{"arcs":[[-261,-489,-570,-574]],"type":"Polygon","properties":{"n":"Raowal (194)","c":34195,"d":"Moga","s":"PUNJAB"}},{"arcs":[[-566,-473,-245,-392]],"type":"Polygon","properties":{"n":"Rasulpur (248)","c":34170,"d":"Moga","s":"PUNJAB"}},{"arcs":[[-553,593,-250,-209,594,595]],"type":"Polygon","properties":{"n":"Rehrwan (225)","c":34173,"d":"Moga","s":"PUNJAB"}},{"arcs":[[-586,-530,-463]],"type":"Polygon","properties":{"n":"Roshanwala (283)","c":34116,"d":"Moga","s":"PUNJAB"}},{"arcs":[[-571,-493,-496,-430,-416,-544,596]],"type":"Polygon","properties":{"n":"Saide Shahwala (196)","c":34206,"d":"Moga","s":"PUNJAB"}},{"arcs":[[-595,-208,597,598]],"type":"Polygon","properties":{"n":"Said Jalalpur (224)","c":34174,"d":"Moga","s":"PUNJAB"}},{"arcs":[[-560,-576,599,-283,-297,600]],"type":"Polygon","properties":{"n":"Sanghera (205)","c":34200,"d":"Moga","s":"PUNJAB"}},{"arcs":[[601,-295,-196,-251,-594,-552]],"type":"Polygon","properties":{"n":"Sangla (226)","c":34145,"d":"Moga","s":"PUNJAB"}},{"arcs":[[-296,-602,-551,602]],"type":"Polygon","properties":{"n":"Sirsari (257)","c":34142,"d":"Moga","s":"PUNJAB"}},{"arcs":[[-481,-394,-542,-510,603,-590]],"type":"Polygon","properties":{"n":"Said Mohamad (238)","c":34178,"d":"Moga","s":"PUNJAB"}},{"arcs":[[-604,-509,-312,-377,-591]],"type":"Polygon","properties":{"n":"Shadiwala (239)","c":34166,"d":"Moga","s":"PUNJAB"}},{"arcs":[[604,-404,605,-280,-188]],"type":"Polygon","properties":{"n":"Said Mohamad Shahwala (267)","c":34133,"d":"Moga","s":"PUNJAB"}},{"arcs":[[-224,-480,-396,-567,606]],"type":"Polygon","properties":{"n":"Sherewala (232)","c":34191,"d":"Moga","s":"PUNJAB"}},{"arcs":[[-598,-207,-244,-390,-221,607]],"type":"Polygon","properties":{"n":"Sherpur Taiban (230)","c":34176,"d":"Moga","s":"PUNJAB"}},{"arcs":[[-549,-363,-593,-583,608,-539]],"type":"Polygon","properties":{"n":"Singhpur Urf Munan (314)","c":34086,"d":"Moga","s":"PUNJAB"}},{"arcs":[[-331,-337,-465,-405,-605,-187,-279]],"type":"Polygon","properties":{"n":"Thuthgarh (264/265)","c":34126,"d":"Moga","s":"PUNJAB"}},{"arcs":[[-600,-575,-572,-597,-543,-546,-284]],"type":"Polygon","properties":{"n":"Takhtuwala (202)","c":34201,"d":"Moga","s":"PUNJAB"}},{"arcs":[[609,610,-524,-514,-373]],"type":"Polygon","properties":{"n":"Talwandi Malian (281)","c":34110,"d":"Moga","s":"PUNJAB"}},{"arcs":[[-460,-585,-527,-438,-359,-548,-368]],"type":"Polygon","properties":{"n":"Talwandi Naubahar (312)","c":34091,"d":"Moga","s":"PUNJAB"}},{"arcs":[[-398,-483,-592,-588,-490,-259]],"type":"Polygon","properties":{"n":"Tota Singhwala (192)","c":34185,"d":"Moga","s":"PUNJAB"}},{"arcs":[[-523,-267,-275,-517]],"type":"Polygon","properties":{"n":"Umarpura (284)","c":34107,"d":"Moga","s":"PUNJAB"}},{"arcs":[[-303,611,-581]],"type":"Polygon","properties":{"n":"Umariana (321)","c":34080,"d":"Moga","s":"PUNJAB"}},{"arcs":[[612,613,614,615,616,617,618]],"type":"Polygon","properties":{"n":"Ajitwal (39)","c":34024,"d":"Moga","s":"PUNJAB"}},{"arcs":[[619,620,621,622,623]],"type":"Polygon","properties":{"n":"Bahona (52)","c":34013,"d":"Moga","s":"PUNJAB"}},{"arcs":[[624,625,-25,626,627,628]],"type":"Polygon","properties":{"n":"Baghelewala (66)","c":34063,"d":"Moga","s":"PUNJAB"}},{"arcs":[[629,630,631,632]],"type":"Polygon","properties":{"n":"Bishanpura (6)","c":34008,"d":"Moga","s":"PUNJAB"}},{"arcs":[[633,634,635,636,637]],"type":"Polygon","properties":{"n":"Budh Singhwala (3)","c":34006,"d":"Moga","s":"PUNJAB"}},{"arcs":[[638,639,-620,640,641,642]],"type":"Polygon","properties":{"n":"Bughipura (24)","c":34014,"d":"Moga","s":"PUNJAB"}},{"arcs":[[643,644,645,646,647]],"type":"Polygon","properties":{"n":"Bukanwala (58)","c":34049,"d":"Moga","s":"PUNJAB"}},{"arcs":[[648,649,650]],"type":"Polygon","properties":{"n":"Burj Sahiba (8)","c":34077,"d":"Moga","s":"PUNJAB"}},{"arcs":[[651,652,653,654,655,656,657,658,659,660]],"type":"Polygon","properties":{"n":"Buttar (96)","c":33994,"d":"Moga","s":"PUNJAB"}},{"arcs":[[661,662,663,664]],"type":"Polygon","properties":{"n":"Chuhar Singhwala (13)","c":34055,"d":"Moga","s":"PUNJAB"}},{"arcs":[[665,666,667,-354,-270]],"type":"Polygon","properties":{"n":"Chak Bijsar (35)","c":34034,"d":"Moga","s":"PUNJAB"}},{"arcs":[[-631,668,669,670,-100,-120,671,672,673]],"type":"Polygon","properties":{"n":"Chirak (7)","c":33997,"d":"Moga","s":"PUNJAB"}},{"arcs":[[674,675,676,677,678]],"type":"Polygon","properties":{"n":"Chotian Kalan (2)","c":34074,"d":"Moga","s":"PUNJAB"}},{"arcs":[[-679,679,680]],"type":"Polygon","properties":{"n":"Chotian Khurd (1)","c":34075,"d":"Moga","s":"PUNJAB"}},{"arcs":[[681,682,683,684,685]],"type":"Polygon","properties":{"n":"Chogawan (31)","c":34032,"d":"Moga","s":"PUNJAB"}},{"arcs":[[686,687,-615,688,689]],"type":"Polygon","properties":{"n":"Chuharchak (38)","c":34022,"d":"Moga","s":"PUNJAB"}},{"arcs":[[690,691,692,693,694,695,-621,-640]],"type":"Polygon","properties":{"n":"Dala (47)","c":34017,"d":"Moga","s":"PUNJAB"}},{"arcs":[[696,697,698,699,-677]],"type":"Polygon","properties":{"n":"Darapur (3)","c":34067,"d":"Moga","s":"PUNJAB"}},{"arcs":[[-93,-33,700,701]],"type":"Polygon","properties":{"n":"Dadahur (62)","c":34059,"d":"Moga","s":"PUNJAB"}},{"arcs":[[702,703,704,705,706,707,-664]],"type":"Polygon","properties":{"n":"Dagru (14)","c":34057,"d":"Moga","s":"PUNJAB"}},{"arcs":[[708,709,710,711,712,-687]],"type":"Polygon","properties":{"n":"Daudhar Sharki (97)","c":33992,"d":"Moga","s":"PUNJAB"}},{"arcs":[[713,714,-158,-702,715,716,717,718,-705]],"type":"Polygon","properties":{"n":"Daroli Bhai (61)","c":34058,"d":"Moga","s":"PUNJAB"}},{"arcs":[[-300,-199,719,720,721,722,-651,723,724]],"type":"Polygon","properties":{"n":"Daulatpur Niwan (11)","c":34072,"d":"Moga","s":"PUNJAB"}},{"arcs":[[-301,-725,725,726]],"type":"Polygon","properties":{"n":"Daulatpur Ucha (10)","c":34078,"d":"Moga","s":"PUNJAB"}},{"arcs":[[727,-660,728,729,730,-695]],"type":"Polygon","properties":{"n":"Dhurkot Kalan (49)","c":34011,"d":"Moga","s":"PUNJAB"}},{"arcs":[[731,732,-730]],"type":"Polygon","properties":{"n":"Dhurkot Tahli (50)","c":34010,"d":"Moga","s":"PUNJAB"}},{"arcs":[[733,734,735,736,737,-501,-538]],"type":"Polygon","properties":{"n":"Dhalleke (21)","c":34047,"d":"Moga","s":"PUNJAB"}},{"arcs":[[-688,-713,738,739,740,741,-616]],"type":"Polygon","properties":{"n":"Dhudike (40)","c":34021,"d":"Moga","s":"PUNJAB"}},{"arcs":[[742,743,744,-408]],"type":"Polygon","properties":{"n":"Dosanjh (26)","c":34039,"d":"Moga","s":"PUNJAB"}},{"arcs":[[745,746,747,748,-736]],"type":"Polygon","properties":{"n":"Duneke (Firozpur Road) (OG)","c":34222,"d":"Moga","s":"PUNJAB"}},{"arcs":[[-712,749,750,-653,751]],"type":"Polygon","properties":{"n":"Daudhar Garbi (97/1)","c":33993,"d":"Moga","s":"PUNJAB"}},{"arcs":[[752,-748,753,-648,754,-714,-704,755,756,757]],"type":"Polygon","properties":{"n":"Ghal Kalan (19)","c":34052,"d":"Moga","s":"PUNJAB"}},{"arcs":[[758,-673,759,760,761,762,-635]],"type":"Polygon","properties":{"n":"Jhandewala (2)","c":33999,"d":"Moga","s":"PUNJAB"}},{"arcs":[[763,764,765,-140,-139,766,-699]],"type":"Polygon","properties":{"n":"Jhandiana Garbi (69)","c":34066,"d":"Moga","s":"PUNJAB"}},{"arcs":[[-741,767,-693,768,769]],"type":"Polygon","properties":{"n":"Jhandiana Sharki (43)","c":34026,"d":"Moga","s":"PUNJAB"}},{"arcs":[[-706,-719,770,771,772,773]],"type":"Polygon","properties":{"n":"Jogewala (5)","c":34069,"d":"Moga","s":"PUNJAB"}},{"arcs":[[-707,-774,774,-722,775]],"type":"Polygon","properties":{"n":"Kahan Singhwala (6)","c":34070,"d":"Moga","s":"PUNJAB"}},{"arcs":[[-726,-724,-650,-675,-681,776]],"type":"Polygon","properties":{"n":"Kaliawala (9)","c":34076,"d":"Moga","s":"PUNJAB"}},{"arcs":[[-668,777,778,779,-686,780,-355]],"type":"Polygon","properties":{"n":"Kapura (34)","c":34033,"d":"Moga","s":"PUNJAB"}},{"arcs":[[-684,781,-643,782,783]],"type":"Polygon","properties":{"n":"Khera Swad (29)","c":34015,"d":"Moga","s":"PUNJAB"}},{"arcs":[[-772,784,-629,785,-764,-698,786]],"type":"Polygon","properties":{"n":"Khukhrana (4)","c":34068,"d":"Moga","s":"PUNJAB"}},{"arcs":[[-738,787,-758,788,-503,-452,-502]],"type":"Polygon","properties":{"n":"Khosa Pando (17)","c":34046,"d":"Moga","s":"PUNJAB"}},{"arcs":[[-762,789,790]],"type":"Polygon","properties":{"n":"Khote (55)","c":34000,"d":"Moga","s":"PUNJAB"}},{"arcs":[[-689,-614,791]],"type":"Polygon","properties":{"n":"Killi Chahlan (37)","c":34023,"d":"Moga","s":"PUNJAB"}},{"arcs":[[-717,792,-17,-626,793]],"type":"Polygon","properties":{"n":"Korewala Kalan (64)","c":34061,"d":"Moga","s":"PUNJAB"}},{"arcs":[[-701,-37,-18,-793,-716]],"type":"Polygon","properties":{"n":"Korewala Khurd (63)","c":34060,"d":"Moga","s":"PUNJAB"}},{"arcs":[[-778,-667,794]],"type":"Polygon","properties":{"n":"Kokhri Heran (33)","c":34030,"d":"Moga","s":"PUNJAB"}},{"arcs":[[-525,-611,795,-619,796,797,798,-779,-795,-666,-269,-522]],"type":"Polygon","properties":{"n":"Kokri Kalan (36)","c":34029,"d":"Moga","s":"PUNJAB"}},{"arcs":[[-618,799,800,-797]],"type":"Polygon","properties":{"n":"Kokri Phulasingh (45)","c":34028,"d":"Moga","s":"PUNJAB"}},{"arcs":[[-409,-745,801,802,-734,-537]],"type":"Polygon","properties":{"n":"Landeke (Amritsar Road) (OG)","c":34221,"d":"Moga","s":"PUNJAB"}},{"arcs":[[-752,-652,803,-739]],"type":"Polygon","properties":{"n":"Madoke (41)","c":34020,"d":"Moga","s":"PUNJAB"}},{"arcs":[[-723,-775,-773,-787,-697,-676,-649]],"type":"Polygon","properties":{"n":"Maheshari (7)","c":34073,"d":"Moga","s":"PUNJAB"}},{"arcs":[[804,-798,805,-691,-639,-782,-683]],"type":"Polygon","properties":{"n":"Mehna (30)","c":34016,"d":"Moga","s":"PUNJAB"}},{"arcs":[[-632,-674,-759,-634,806,807]],"type":"Polygon","properties":{"n":"Malianwala (4)","c":34007,"d":"Moga","s":"PUNJAB"}},{"arcs":[[808,809,-710]],"type":"Polygon","properties":{"n":"Maliana (98)","c":33991,"d":"Moga","s":"PUNJAB"}},{"arcs":[[-672,-119,-1,-101,-42,810,-760]],"type":"Polygon","properties":{"n":"Mandiranwala (1)","c":33998,"d":"Moga","s":"PUNJAB"}},{"arcs":[[811,-627,-24,-141,-766]],"type":"Polygon","properties":{"n":"Mangewala (68)","c":34065,"d":"Moga","s":"PUNJAB"}},{"arcs":[[-617,-742,-770,812,-800]],"type":"Polygon","properties":{"n":"Matwani (44)","c":34025,"d":"Moga","s":"PUNJAB"}},{"arcs":[[-696,-731,-733,813,-633,-808,814,815,816,-622]],"type":"Polygon","properties":{"n":"Mehron (51)","c":34012,"d":"Moga","s":"PUNJAB"}},{"arcs":[[817,-641,-624,818,-746,-735,-803]],"type":"Polygon","properties":{"n":"Moga (M Cl)","c":800202,"d":"Moga","s":"PUNJAB"}},{"arcs":[[-819,-623,-817,819,820,821,822,-644,-754,-747]],"type":"Polygon","properties":{"n":"Moga Jitsingh (53)","c":34048,"d":"Moga","s":"PUNJAB"}},{"arcs":[[823,-56,824,-646]],"type":"Polygon","properties":{"n":"Mothanwali (59)","c":34050,"d":"Moga","s":"PUNJAB"}},{"arcs":[[-763,-791,825]],"type":"Polygon","properties":{"n":"Nahal (56)","c":34001,"d":"Moga","s":"PUNJAB"}},{"arcs":[[-813,-769,-692,-806,-801]],"type":"Polygon","properties":{"n":"Nathuwala Jadid (46)","c":34027,"d":"Moga","s":"PUNJAB"}},{"arcs":[[826,-637,827,-822]],"type":"Polygon","properties":{"n":"Nawan Moga Urf Tarewala (54)","c":34003,"d":"Moga","s":"PUNJAB"}},{"arcs":[[-756,-703,-663,828]],"type":"Polygon","properties":{"n":"Nidhanwala (15)","c":34056,"d":"Moga","s":"PUNJAB"}},{"arcs":[[-805,-682,-780,-799]],"type":"Polygon","properties":{"n":"Puranewala (32)","c":34031,"d":"Moga","s":"PUNJAB"}},{"arcs":[[-816,829,-820]],"type":"Polygon","properties":{"n":" ","c":0,"d":"Moga","s":"PUNJAB"}},{"arcs":[[-356,-781,-685,-784,830,831,-406]],"type":"Polygon","properties":{"n":"Rauli (28)","c":34037,"d":"Moga","s":"PUNJAB"}},{"arcs":[[832,833,834,-658]],"type":"Polygon","properties":{"n":"Ramuwala Harchoke (95)","c":33995,"d":"Moga","s":"PUNJAB"}},{"arcs":[[-834,835,-669,836]],"type":"Polygon","properties":{"n":"Ramuwala Kalan (93)","c":33996,"d":"Moga","s":"PUNJAB"}},{"arcs":[[-729,-659,-835,-837,-630,-814,-732]],"type":"Polygon","properties":{"n":"Ramuwala Nawan (94)","c":34009,"d":"Moga","s":"PUNJAB"}},{"arcs":[[-737,-749,-753,-788]],"type":"Polygon","properties":{"n":"Rattian (18)","c":34053,"d":"Moga","s":"PUNJAB"}},{"arcs":[[-755,-647,-825,-62,-159,-715]],"type":"Polygon","properties":{"n":"Saffuwala (60)","c":34051,"d":"Moga","s":"PUNJAB"}},{"arcs":[[837,-665,-708,-776,-721]],"type":"Polygon","properties":{"n":"Sada Singhwala (12)","c":34071,"d":"Moga","s":"PUNJAB"}},{"arcs":[[-498,-504,-789,-757,-829,-662,-838,-720,-198]],"type":"Polygon","properties":{"n":"Saliana (16)","c":34054,"d":"Moga","s":"PUNJAB"}},{"arcs":[[-830,-815,-807,-638,-827,-821]],"type":"Polygon","properties":{"n":"Sandhwan Wala Urf Churkit (4)","c":34005,"d":"Moga","s":"PUNJAB"}},{"arcs":[[-828,-636,-826,-790,-761,-811,-47,-57,-824,-645,-823]],"type":"Polygon","properties":{"n":"Singhanwala (57)","c":34002,"d":"Moga","s":"PUNJAB"}},{"arcs":[[-718,-794,-625,-785,-771]],"type":"Polygon","properties":{"n":"Sosan (65)","c":34062,"d":"Moga","s":"PUNJAB"}},{"arcs":[[-831,-783,-642,-818,-802,-744,838]],"type":"Polygon","properties":{"n":"Talwandi Bhangerian (25)","c":34038,"d":"Moga","s":"PUNJAB"}},{"arcs":[[-832,-839,-743,-407]],"type":"Polygon","properties":{"n":"Tatariawala (27)","c":34100,"d":"Moga","s":"PUNJAB"}},{"arcs":[[-628,-812,-765,-786]],"type":"Polygon","properties":{"n":"Thamanwala (67)","c":34064,"d":"Moga","s":"PUNJAB"}},{"arcs":[[-740,-804,-661,-728,-694,-768]],"type":"Polygon","properties":{"n":"Takhanwad (42)","c":34019,"d":"Moga","s":"PUNJAB"}},{"arcs":[[839,840,841,842,843,844,845,846,847]],"type":"Polygon","properties":{"n":"Bir Raoke (104)","c":33908,"d":"Moga","s":"PUNJAB"}},{"arcs":[[848,849,850,851]],"type":"Polygon","properties":{"n":"Barewala (151)","c":33928,"d":"Moga","s":"PUNJAB"}},{"arcs":[[852,853,854,855,856]],"type":"Polygon","properties":{"n":"Bode (165)","c":33907,"d":"Moga","s":"PUNJAB"}},{"arcs":[[857,858,859,860,-656,861,-654,-751]],"type":"Polygon","properties":{"n":"Badhni Kalan (NP)","c":800200,"d":"Moga","s":"PUNJAB"}},{"arcs":[[-655,-862]],"type":"Polygon","properties":{"n":"Badhni Khurd (100)","c":33920,"d":"Moga","s":"PUNJAB"}},{"arcs":[[862,863,864,865]],"type":"Polygon","properties":{"n":"Bhagike (161)","c":33903,"d":"Moga","s":"PUNJAB"}},{"arcs":[[866,867,868,-866,869,870,871]],"type":"Polygon","properties":{"n":"Bilaspur (170)","c":33904,"d":"Moga","s":"PUNJAB"}},{"arcs":[[872,-848,873,-859]],"type":"Polygon","properties":{"n":"Bir Badhni (102)","c":33896,"d":"Moga","s":"PUNJAB"}},{"arcs":[[874,875,-671,876]],"type":"Polygon","properties":{"n":"Burj Duna (91)","c":33923,"d":"Moga","s":"PUNJAB"}},{"arcs":[[877,878,879,880]],"type":"Polygon","properties":{"n":"Burj Hamira (146)","c":33915,"d":"Moga","s":"PUNJAB"}},{"arcs":[[881,882,883,884,885]],"type":"Polygon","properties":{"n":"Dhulkot Ransin (163)","c":33911,"d":"Moga","s":"PUNJAB"}},{"arcs":[[886,887,888,-850]],"type":"Polygon","properties":{"n":"Didarewala (150)","c":33929,"d":"Moga","s":"PUNJAB"}},{"arcs":[[-879,889,890,891,892,893]],"type":"Polygon","properties":{"n":"Dina (145)","c":33932,"d":"Moga","s":"PUNJAB"}},{"arcs":[[894,895,-881,896]],"type":"Polygon","properties":{"n":"Gajiana (147)","c":33916,"d":"Moga","s":"PUNJAB"}},{"arcs":[[897,-846,898,-95,-876]],"type":"Polygon","properties":{"n":"Gholia Khurd (90)","c":33924,"d":"Moga","s":"PUNJAB"}},{"arcs":[[899,900,901,-863,-869]],"type":"Polygon","properties":{"n":"Himatpura (160)","c":33902,"d":"Moga","s":"PUNJAB"}},{"arcs":[[902,-897,-880,-894,903,904]],"type":"Polygon","properties":{"n":"Khai (148)","c":33931,"d":"Moga","s":"PUNJAB"}},{"arcs":[[905,906,-852,907,-844]],"type":"Polygon","properties":{"n":"Khota (152)","c":33926,"d":"Moga","s":"PUNJAB"}},{"arcs":[[-892,908,909]],"type":"Polygon","properties":{"n":"Kishangarh (144)","c":33933,"d":"Moga","s":"PUNJAB"}},{"arcs":[[910,911,912,-854,913]],"type":"Polygon","properties":{"n":"Kussa (167)","c":33898,"d":"Moga","s":"PUNJAB"}},{"arcs":[[914,-871,915,916,-855,-913]],"type":"Polygon","properties":{"n":"Lohara (169)","c":33906,"d":"Moga","s":"PUNJAB"}},{"arcs":[[-810,917,918,-857,-873,-858,-750,-711]],"type":"Polygon","properties":{"n":"Lopon (99)","c":33895,"d":"Moga","s":"PUNJAB"}},{"arcs":[[-900,-868,919]],"type":"Polygon","properties":{"n":"Machhike (171)","c":33900,"d":"Moga","s":"PUNJAB"}},{"arcs":[[-899,-845,-908,-851,-889,920,921,-171,-160,-96]],"type":"Polygon","properties":{"n":"Manuke (105)","c":33925,"d":"Moga","s":"PUNJAB"}},{"arcs":[[-883,922,923,-895,-903,924,925]],"type":"Polygon","properties":{"n":"Mahdeoke (158)","c":33913,"d":"Moga","s":"PUNJAB"}},{"arcs":[[926,-914,-853,-919]],"type":"Polygon","properties":{"n":"Minian (166)","c":33897,"d":"Moga","s":"PUNJAB"}},{"arcs":[[-917,927,-886,928,-840,-856]],"type":"Polygon","properties":{"n":"Nangal (164)","c":33909,"d":"Moga","s":"PUNJAB"}},{"arcs":[[-884,-926,929,930]],"type":"Polygon","properties":{"n":"Nihal Singhwala (157)","c":33912,"d":"Moga","s":"PUNJAB"}},{"arcs":[[931,932,-921,-888]],"type":"Polygon","properties":{"n":"Patto Didarsingh (149)","c":33930,"d":"Moga","s":"PUNJAB"}},{"arcs":[[933,-930,-925,-905,934,-932,-887,-849,-907,935,-842]],"type":"Polygon","properties":{"n":"Patto Hirasingh (154)","c":33917,"d":"Moga","s":"PUNJAB"}},{"arcs":[[-936,-906,-843]],"type":"Polygon","properties":{"n":"Patto Jawaharsingh (153)","c":33927,"d":"Moga","s":"PUNJAB"}},{"arcs":[[-872,-915,-912,936]],"type":"Polygon","properties":{"n":"Raman (168)","c":33899,"d":"Moga","s":"PUNJAB"}},{"arcs":[[-874,-847,-898,-875,937,-860]],"type":"Polygon","properties":{"n":"Raoke Kalan (103)","c":33919,"d":"Moga","s":"PUNJAB"}},{"arcs":[[-861,-938,-877,-670,-836,-833,-657]],"type":"Polygon","properties":{"n":"Raina (92)","c":33922,"d":"Moga","s":"PUNJAB"}},{"arcs":[[-929,-885,-931,-934,-841]],"type":"Polygon","properties":{"n":"Ransin Khurd (155)","c":33918,"d":"Moga","s":"PUNJAB"}},{"arcs":[[-933,-935,-904,-893,-910,938,-172,-922]],"type":"Polygon","properties":{"n":"Raunta (143)","c":33934,"d":"Moga","s":"PUNJAB"}},{"arcs":[[-864,-902,939,-890,-878,-896,-924,940]],"type":"Polygon","properties":{"n":"Saidoke (159)","c":33914,"d":"Moga","s":"PUNJAB"}},{"arcs":[[-870,-865,-941,-923,-882,-928,-916]],"type":"Polygon","properties":{"n":"Takhtupura (162)","c":33905,"d":"Moga","s":"PUNJAB"}},{"arcs":[[-217,-384,-587,-431]],"type":"Polygon","properties":{"n":"Bahadurwala (252)","c":34152,"d":"Moga","s":"PUNJAB"}},{"arcs":[[-443,-420,941]],"type":"Polygon","properties":{"n":"Bahadarwala (101)","c":34210,"d":"Moga","s":"PUNJAB"}},{"arcs":[[-434,-292,-470,-281,-606,-403]],"type":"Polygon","properties":{"n":"Kamalke (259/260)","c":34137,"d":"Moga","s":"PUNJAB"}},{"arcs":[[-212,-471,-290,-603,-555,942]],"type":"Polygon","properties":{"n":"Kamalke (259/260)","c":34137,"d":"Moga","s":"PUNJAB"}}]}}}