{"type":"Topology","arcs":[[[76333,4489],[-3919,-1488],[-5356,1362],[-5678,869],[-1346,2572],[-6251,-977],[-3186,-1496]],[[50597,5331],[3035,5161]],[[53632,10492],[5397,2508]],[[59029,13000],[2170,-1899],[5638,-2186],[4381,-851],[5115,-3575]],[[50597,5331],[-7758,1908]],[[42839,7239],[11,2885]],[[42850,10124],[2210,-806],[875,2348],[2934,1899],[2030,-3109],[2733,36]],[[38317,12759],[1397,-368],[181,-4757]],[[39895,7634],[-4844,-1425]],[[35051,6209],[674,1729],[-965,2796],[432,4049]],[[35192,14783],[1588,-3440],[1537,1416]],[[41794,15957],[1056,-5833]],[[42839,7239],[-2944,395]],[[38317,12759],[292,1415],[2170,161],[1015,1622]],[[35051,6209],[-3567,-27],[-5577,-4820],[-1930,-878]],[[23977,484],[0,7374],[-1306,1738],[583,2634],[1829,1335]],[[25083,13565],[3316,806],[1306,-1738],[3176,-197],[50,4650]],[[32931,17086],[2261,-2303]],[[40106,19156],[1688,-3199]],[[32931,17086],[-774,851]],[[32157,17937],[1015,1900],[2452,654],[4482,-1335]],[[32157,17937],[-3467,645],[674,1864]],[[29364,20446],[2120,1012],[3175,-967],[1638,2589]],[[36297,23080],[3809,-3924]],[[23977,484],[-2321,-484],[-10612,3745],[-7255,1756],[-3789,-260],[633,3396],[4432,5636],[2311,3942],[1889,5170]],[[9265,23385],[14371,-6863],[1447,-2957]],[[9265,23385],[382,3512]],[[9647,26897],[13657,-4964],[4331,-475],[1729,-1012]],[[31454,28268],[4843,-5188]],[[9647,26897],[382,2903]],[[10029,29800],[13777,-4901],[6673,403],[472,4937],[503,-1971]],[[72896,28743],[1458,-2912],[4522,-547]],[[78876,25284],[522,-3064],[3497,-2724],[-201,-2446],[2955,-1908],[6381,-2661],[-724,-1989],[-3999,-2222],[-824,-2688],[-7738,-305],[-2412,-788]],[[59029,13000],[-483,2151],[1256,6872],[-1638,4094]],[[58164,26117],[4673,3764],[2261,1012]],[[65098,30893],[2362,-2840],[4090,-645],[1346,1335]],[[39192,39709],[8521,-2060]],[[47713,37649],[3849,-2751],[1397,-2876],[5205,-5905]],[[31454,28268],[-71,4399],[4814,7481],[2995,-439]],[[65098,30893],[-3567,4086],[432,4569],[3959,2939]],[[65922,42487],[4522,1406]],[[70444,43893],[-190,-3207],[-1397,-2150],[2793,-4606],[1246,-5187]],[[47713,37649],[2352,5581],[2914,3746]],[[52979,46976],[3115,-1291],[4492,-89],[3538,-816],[1798,-2293]],[[38749,44243],[443,-4534]],[[10029,29800],[2050,6263],[402,9515]],[[12481,45578],[20440,116],[6843,2635]],[[39764,48329],[-1015,-4086]],[[70444,43893],[292,1022],[5225,421],[1267,2106],[7768,-296],[4029,2410],[4723,-1003],[3487,-4068],[2764,-1102],[-2362,-4292],[1458,-98],[-634,-3710],[-2190,-484],[-1377,-1809],[-3155,-1864],[-1056,376],[-3316,-2240],[-3869,851],[-2633,-1926],[-2331,-27],[342,-2876]],[[39764,48329],[51,1854]],[[39815,50183],[6210,1470],[915,-4695],[-4482,-1945],[-3709,-770]],[[38900,49905],[-2271,-725],[3377,9873],[522,565]],[[40528,59618],[-40,-3109],[4241,-610],[-5829,-5994]],[[42699,61974],[-2171,-2356]],[[38900,49905],[915,278]],[[12481,45578],[1538,1442],[462,2581],[1879,1424],[-754,9444],[1136,2742]],[[16742,63211],[10210,-1649],[2693,-125],[573,3162],[2030,-851],[6311,-161],[2311,1783],[2844,-2222],[-1015,-1174]],[[65108,64662],[-1406,-4283],[-2945,-4238],[-3497,-1075],[-4201,-6200],[-80,-1890]],[[42699,61974],[3949,36],[3809,1335],[623,1989]],[[51080,65334],[5929,564],[2934,1739]],[[59943,67637],[2221,-529],[2944,-2446]],[[43905,72475],[1587,-547],[4764,-3566],[824,-3028]],[[16742,63211],[4401,8449],[2402,3117],[4894,4570]],[[28439,79347],[3507,-5080],[11959,-1792]],[[70696,70907],[2160,735],[1015,4739],[2261,4086],[-1497,3234],[251,1703]],[[74886,85404],[7457,528],[1457,-1451],[-874,-5188],[1587,-4901],[6643,-4605],[-3899,-3055],[-1287,-2016],[-3185,-314],[-8130,3011],[-2522,2983],[-1437,511]],[[70696,70907],[-5588,-6245]],[[59943,67637],[-241,2392],[-2703,5008],[-1970,45],[-482,3190],[-1779,1263],[965,1093],[-392,3799],[2693,3432]],[[56034,87859],[6261,-977],[3889,90],[8702,-1568]],[[28439,79347],[4231,6209],[4944,3118]],[[37614,88674],[6763,-4005],[925,-6030],[-1397,-6164]],[[37614,88674],[2171,1290],[2281,4086],[-201,5949],[2130,-9],[1347,-2688],[6592,-4023],[1839,-4381],[2261,-1039]]],"transform":{"scale":[9.95109951099604e-07,1.1161111611116e-06],"translate":[72.80461,20.36642]},"objects":{"villages":{"type":"GeometryCollection","geometries":[{"arcs":[[0,1,2,3]],"type":"Polygon","properties":{"n":"Zari","c":524925,"d":"Daman","s":"DADRA,NAGAR HAVELI,DAMAN & DIU"}},{"arcs":[[-2,4,5,6]],"type":"Polygon","properties":{"n":"Thana Pardi","c":524924,"d":"Daman","s":"DADRA,NAGAR HAVELI,DAMAN & DIU"}},{"arcs":[[7,8,9,10]],"type":"Polygon","properties":{"n":"Deva Pardi","c":524922,"d":"Daman","s":"DADRA,NAGAR HAVELI,DAMAN & DIU"}},{"arcs":[[11,-6,12,-8,13]],"type":"Polygon","properties":{"n":"Naila Pardi","c":524923,"d":"Daman","s":"DADRA,NAGAR HAVELI,DAMAN & DIU"}},{"arcs":[[-10,14,15,16,17]],"type":"Polygon","properties":{"n":"Pariari","c":524921,"d":"Daman","s":"DADRA,NAGAR HAVELI,DAMAN & DIU"}},{"arcs":[[18,-14,-11,-18,19,20]],"type":"Polygon","properties":{"n":"Bhamati","c":524918,"d":"Daman","s":"DADRA,NAGAR HAVELI,DAMAN & DIU"}},{"arcs":[[-21,21,22,23]],"type":"Polygon","properties":{"n":"Palhit","c":524917,"d":"Daman","s":"DADRA,NAGAR HAVELI,DAMAN & DIU"}},{"arcs":[[-16,24,25]],"type":"Polygon","properties":{"n":"Jampore","c":524920,"d":"Daman","s":"DADRA,NAGAR HAVELI,DAMAN & DIU"}},{"arcs":[[-22,-20,-17,-26,26,27]],"type":"Polygon","properties":{"n":"Dholar","c":524919,"d":"Daman","s":"DADRA,NAGAR HAVELI,DAMAN & DIU"}},{"arcs":[[28,-23,-28,29,30]],"type":"Polygon","properties":{"n":"Damanwada (Dama O-De-Cima)","c":524916,"d":"Daman","s":"DADRA,NAGAR HAVELI,DAMAN & DIU"}},{"arcs":[[31,32,-4,33,34,35]],"type":"Polygon","properties":{"n":"Kachigam (CT)","c":524931,"d":"Daman","s":"DADRA,NAGAR HAVELI,DAMAN & DIU"}},{"arcs":[[36,37,-34,-3,-7,-12,-19,-24,-29,38]],"type":"Polygon","properties":{"n":"Magarwada","c":524915,"d":"Daman","s":"DADRA,NAGAR HAVELI,DAMAN & DIU"}},{"arcs":[[-36,39,40,41]],"type":"Polygon","properties":{"n":"Ringanwada","c":524914,"d":"Daman","s":"DADRA,NAGAR HAVELI,DAMAN & DIU"}},{"arcs":[[-40,-35,-38,42,43]],"type":"Polygon","properties":{"n":"Varkund","c":524913,"d":"Daman","s":"DADRA,NAGAR HAVELI,DAMAN & DIU"}},{"arcs":[[44,-39,-31,45,46,47]],"type":"Polygon","properties":{"n":"Daman (M CI)","c":802638,"d":"Daman","s":"DADRA,NAGAR HAVELI,DAMAN & DIU"}},{"arcs":[[-32,-42,48]],"type":"Polygon","properties":{"n":"Dadhel (CT)","c":524930,"d":"Daman","s":"DADRA,NAGAR HAVELI,DAMAN & DIU"}},{"arcs":[[-48,49,50]],"type":"Polygon","properties":{"n":" ","c":0,"d":"Daman","s":"DADRA,NAGAR HAVELI,DAMAN & DIU"}},{"arcs":[[51,52]],"type":"Polygon","properties":{"n":" ","c":0,"d":"Daman","s":"DADRA,NAGAR HAVELI,DAMAN & DIU"}},{"arcs":[[53,-52,54,-50,-47,55,56]],"type":"Polygon","properties":{"n":" ","c":0,"d":"Daman","s":"DADRA,NAGAR HAVELI,DAMAN & DIU"}},{"arcs":[[57,-43,-37,-45,-51,-55,-53,-54,58,59,60]],"type":"Polygon","properties":{"n":"Dunetha (CT)","c":524929,"d":"Daman","s":"DADRA,NAGAR HAVELI,DAMAN & DIU"}},{"arcs":[[61,-59,-57,62,63]],"type":"Polygon","properties":{"n":"Marwad (CT)","c":524926,"d":"Daman","s":"DADRA,NAGAR HAVELI,DAMAN & DIU"}},{"arcs":[[64,65]],"type":"Polygon","properties":{"n":"Janivankad","c":524912,"d":"Daman","s":"DADRA,NAGAR HAVELI,DAMAN & DIU"}},{"arcs":[[-65,66,-61,67,68]],"type":"Polygon","properties":{"n":"Bhimpore (CT)","c":524928,"d":"Daman","s":"DADRA,NAGAR HAVELI,DAMAN & DIU"}},{"arcs":[[-64,69,70]],"type":"Polygon","properties":{"n":"Devka","c":524911,"d":"Daman","s":"DADRA,NAGAR HAVELI,DAMAN & DIU"}},{"arcs":[[-68,-60,-62,-71,71]],"type":"Polygon","properties":{"n":"Kadaiya (CT)","c":524927,"d":"Daman","s":"DADRA,NAGAR HAVELI,DAMAN & DIU"}}]}}}