{"type":"Topology","arcs":[[[4247,13866],[-1714,432],[-1189,-1226],[-158,-3466],[-1158,1684],[-28,3676],[450,11262],[1270,6697],[81,3605],[739,3884],[848,2172],[1552,2158],[1351,487]],[[6291,45231],[1154,-11555],[-1073,-5192],[-637,-4901],[-1355,-5666],[-133,-4051]],[[32341,9091],[-292,2868],[1048,6362],[-1748,9467],[302,16232],[-1449,-1308],[-1833,-56],[-2966,-3007],[-2639,6362],[-1552,70],[-770,4566],[-3290,585],[169,9397]],[[17321,60629],[1481,-3342],[553,-4399],[1811,-682],[2639,-6376],[2970,3021],[2529,445],[2016,2590],[1207,-4469],[370,-5513],[2406,-1225],[1281,-1671],[2012,-6696],[447,1142],[637,10441],[700,2645],[1084,668],[454,2339],[1326,1615],[648,3592],[1228,2854],[73,1656],[1007,-250],[1836,-6098],[-2596,-3230],[0,-1754],[-855,-1824],[-1355,-6473],[-348,-4706],[1020,-7253],[743,-1476],[151,-3842],[-1320,-5986],[-1203,-877],[-594,-1796],[-683,1350],[-2604,-6014],[-1111,-4413],[-373,2408],[-954,808],[-626,-1100],[-260,3717],[-567,1392],[-2160,-2756]],[[32341,9091],[-1158,1406],[-2167,-4330],[-718,836],[-848,3174],[-264,-1587],[-1333,278],[-2153,2882],[77,2589],[-1826,2618],[-1829,807],[-2910,-2436],[-1260,-3773],[-401,-3494],[690,-4497],[-1298,-3564],[-687,682],[-295,3146],[-377,-2046],[-992,125],[-1748,-1559],[-1411,432],[422,3536],[-852,4650],[-1157,2352],[-1903,2283],[-1696,265]],[[6291,45231],[1808,543],[2847,3425],[1192,2381],[2136,1113],[693,3871],[869,2631],[1485,1434]],[[98838,89655],[281,-2770],[880,-1058],[-151,-2283],[-1664,-126],[654,6237]],[[98099,99804],[-295,-7016],[313,-5931],[-553,-5026],[-732,961],[247,12237],[-134,4970],[1154,-195]]],"transform":{"scale":[2.8422284222841288e-06,7.183071830718158e-07],"translate":[70.87085,20.69951]},"objects":{"villages":{"type":"GeometryCollection","geometries":[{"arcs":[[0,1]],"type":"Polygon","properties":{"n":"Vanakbara","c":524907,"d":"Diu","s":"DADRA,NAGAR HAVELI,DAMAN & DIU"}},{"arcs":[[2,3]],"type":"Polygon","properties":{"n":"Diu (M CI)","c":802637,"d":"Diu","s":"DADRA,NAGAR HAVELI,DAMAN & DIU"}},{"arcs":[[-3,4,-2,5]],"type":"Polygon","properties":{"n":"Zolawadi","c":524908,"d":"Diu","s":"DADRA,NAGAR HAVELI,DAMAN & DIU"}},{"arcs":[[6]],"type":"Polygon","properties":{"n":" ","c":0,"d":"Diu","s":"DADRA,NAGAR HAVELI,DAMAN & DIU"}},{"arcs":[[7]],"type":"Polygon","properties":{"n":" ","c":0,"d":"Diu","s":"DADRA,NAGAR HAVELI,DAMAN & DIU"}}]}}}