{"type":"Topology","arcs":[[[21035,43495],[322,-503],[648,-246],[213,-705],[1279,-1275],[-24,-777]],[[23473,39989],[-912,-308],[-2082,-255],[-82,-416],[827,-389],[-440,-170]],[[20784,38451],[-2694,-193],[-2711,-361]],[[15379,37897],[-1737,3024],[-972,1802]],[[12670,42723],[1981,-198],[880,390],[1543,301],[1894,74],[844,206],[1223,-1]],[[20361,45312],[116,-270]],[[20477,45042],[-97,-728],[655,-819]],[[12670,42723],[-1163,2470]],[[11507,45193],[1700,256],[1819,115]],[[15026,45564],[1047,-43],[2126,94],[2162,-303]],[[27838,56225],[-568,-116],[-6670,-617],[-1937,-101],[-496,-936],[701,-1023],[-1937,-380],[-1903,-101],[-1149,135],[-1707,-107]],[[12172,52979],[-145,1025],[336,1959]],[[12363,55963],[-273,3733]],[[12090,59696],[1492,17],[890,-228],[892,-760],[1853,68],[1405,152],[87,-464],[1132,127],[2041,0],[856,-186],[1545,228],[1833,33],[2039,-82]],[[28155,58601],[-317,-2376]],[[12365,62640],[-275,-2944]],[[12363,55963],[-709,-75],[-740,449],[-1896,18],[-324,429],[-1891,-70]],[[6803,56714],[-1328,4684],[-111,729]],[[5364,62127],[2726,92],[24,122],[2614,-151],[-244,417],[409,303],[1472,-270]],[[12172,52979],[-58,5]],[[12114,52984],[-1594,160],[-2401,-126]],[[8119,53018],[-736,1829],[-580,1867]],[[12114,52984],[619,-688],[203,-1531],[-450,-886],[44,-620]],[[12530,49259],[-2890,-103]],[[9640,49156],[-905,2024],[-616,1838]],[[27838,56225],[-26,-198]],[[27812,56027],[-2803,-1354],[-3567,-1823],[-2349,-997],[-309,-227],[-987,-1652],[-2849,-93],[3,-540]],[[14951,49341],[-5,-17]],[[14946,49324],[-2416,-65]],[[17495,62048],[687,-302],[1855,-22],[449,-227],[8085,-171]],[[28571,61326],[-416,-2725]],[[12365,62640],[2898,-199],[2232,-393]],[[20784,38451],[1315,-1713],[-931,-193],[286,-641],[1185,-802],[17,-494]],[[22656,34608],[-1154,-32],[-3219,-561]],[[18283,34015],[-1289,1547],[-1615,2335]],[[23473,39989],[1125,-933],[82,-456],[1064,-951],[648,-839],[767,-311],[1949,-265],[1649,317]],[[30757,36551],[-38,-1257],[324,-158],[-20,-1203],[-628,77],[-90,-890],[-1083,93],[-29,-418],[-757,-42],[-334,-872],[-1301,-103]],[[26801,31778],[-868,1201],[341,174],[-254,447],[-982,93],[-1427,-250],[-48,488],[-907,677]],[[26801,31778],[203,-397],[2264,-415],[-133,-383],[839,262],[2360,-119],[336,-885]],[[32670,29841],[-2573,-611],[53,-1049],[-435,-1250],[-2,-467]],[[29713,26464],[-856,-1055],[-999,-561],[169,380],[-687,201],[-800,-60],[-590,-371]],[[25950,24998],[-1451,1870],[-1737,1976],[-975,1268],[-3504,3903]],[[21188,48563],[-257,-461]],[[20931,48102],[-166,-613],[249,-1017],[-733,-770],[80,-390]],[[15026,45564],[-383,957],[-101,1236],[404,1567]],[[14951,49341],[2428,-191],[3809,-587]],[[11507,45193],[-1867,3963]],[[27812,56027],[-2218,-2773],[94,-776],[-2549,-1022],[-684,-428],[-213,-678],[-699,-242],[-348,-954],[-7,-591]],[[79667,19427],[-890,-352],[-254,-482],[1299,-957],[-1615,-410],[-682,-532]],[[77525,16694],[-387,113],[12,550],[-1062,-84],[-769,697],[-2602,1118]],[[72717,19088],[-232,379],[63,711],[-266,146]],[[72282,20324],[-586,892],[525,474],[738,1305],[-656,236],[216,678],[1301,113],[1685,-611],[690,-29]],[[76195,23382],[1354,-485],[-94,-434],[984,-517],[704,330],[-104,-905],[254,-77],[-225,-1399],[599,-468]],[[73609,26024],[-1052,-133],[-573,124],[-634,-376],[-123,-651],[-428,-513],[382,-110],[73,-695],[-506,-1276],[-1279,227],[85,-513],[660,-290],[51,-332],[-593,-490],[145,-758]],[[69817,20238],[-965,536],[-776,-267],[-798,159],[-786,-229],[-102,-494],[-725,-712],[-610,-14]],[[65055,19217],[-239,846]],[[64816,20063],[160,608],[790,797],[-89,858]],[[65677,22326],[604,654],[-125,1195],[-228,435],[189,970],[457,43],[-215,1966]],[[66359,27589],[128,231]],[[66487,27820],[634,-297],[63,-514],[440,337],[820,28],[640,-448],[784,242],[752,-451],[752,77],[102,-368],[696,-138],[617,168],[822,-432]],[[65677,22326],[-1386,-549],[-1303,276],[566,789],[-1157,42],[170,451],[-554,16],[218,511],[-532,61],[-138,361]],[[61561,24284],[99,704]],[[61660,24988],[496,185],[26,632],[-261,1020],[189,582]],[[62110,27407],[665,-246],[1424,139],[851,293],[1309,-4]],[[82325,29613],[-682,-440],[-1386,-506],[-1540,-314]],[[78717,28353],[-1499,134],[-383,-150],[-1151,453],[-1789,227],[-774,-189],[-2320,282],[-1305,-61],[-42,880],[-631,-234],[-476,194]],[[68347,29889],[-2003,490],[-445,319],[678,335],[711,-255],[969,75],[890,405],[498,-121],[404,374],[1393,-43],[368,-237],[1318,-44],[-94,-337],[573,-458],[208,260],[803,-45],[343,357],[602,-97],[842,193],[718,-51],[491,-756],[731,113],[486,-385],[1008,53],[578,-324],[914,128],[994,-225]],[[78717,28353],[-336,-132],[-421,-1452]],[[77960,26769],[-1661,-434],[-1824,-315],[-866,4]],[[66487,27820],[346,527],[-107,474],[789,482],[-34,229],[866,357]],[[86930,27728],[126,-422],[-820,-394],[-387,-760],[-825,-369],[501,-716],[-890,-903]],[[84635,24164],[-738,-301],[-1313,235],[-503,513]],[[82081,24611],[155,415],[-1089,247],[-101,247],[-972,93],[-278,520],[-114,898],[-682,56],[-184,-466],[-856,148]],[[82325,29613],[600,-232],[1993,-251],[-51,606],[1826,1],[1395,-140],[-244,-557],[397,-449],[-564,-443],[-856,-223],[109,-197]],[[82081,24611],[-1103,-52],[-1531,467],[-648,-52],[-989,469],[-888,-208],[184,-673],[-1006,-785],[95,-395]],[[72282,20324],[-1021,-494],[-912,124],[-532,284]],[[91339,19270],[766,-333],[-123,-908],[259,-60],[-172,-785],[-989,-471],[-39,-380],[-1032,-168],[-491,198],[-864,-340],[-1093,-118]],[[87561,15905],[-779,285],[-701,894],[-372,54],[-141,-472],[-1265,-459],[450,-96],[-164,-717],[-897,-38],[-477,-383],[-1194,99]],[[82021,15072],[-545,729],[-1277,283],[-287,480],[-1606,-211],[-781,341]],[[79667,19427],[1792,274],[245,610],[1076,579],[365,532],[1219,472]],[[84364,21894],[996,221],[-75,-304],[496,-370],[128,-473],[622,-364],[-457,-242],[256,-386],[-725,-752],[1146,-1014],[1330,-476],[1260,103],[426,849],[989,229],[583,355]],[[84635,24164],[22,-709],[333,-207],[56,-835],[-682,-519]],[[86930,27728],[738,-129],[619,-594],[-44,-532],[513,-180],[353,-728],[1439,-137],[-244,-581],[234,-435],[-31,-1388],[1064,14],[1598,-305],[441,182],[2773,59],[-159,-485],[614,-3],[-145,-297],[-1175,-413],[-373,-344],[-1098,-444],[1255,109],[-757,-310],[-84,-290],[-1415,-100],[585,-407],[-1801,-224],[-491,-496]],[[61660,24988],[-1884,128],[-109,-284],[-858,108],[-1459,-25],[-1811,215],[-1870,-26],[-846,453]],[[52823,25557],[-1025,784],[464,273],[680,-49],[-462,938]],[[52480,27503],[870,-169],[1449,101],[3485,394],[2128,-174],[1342,454],[356,-702]],[[11608,98471],[-795,-375],[-85,-1274],[254,-376],[-145,-720],[169,-534],[-350,-755],[26,-821],[298,-88]],[[10980,93528],[-489,-252],[-943,207],[-1231,-76],[-198,-448],[-980,-345],[-488,462],[-690,1031],[-295,26],[70,606],[-810,411]],[[4926,95150],[-541,784],[60,572],[-423,1144],[9,738],[-316,605],[26,904],[960,102],[1546,-155],[1831,-826],[2807,-327],[723,-220]],[[14341,98175],[731,-1055],[2004,-2127],[-41,-1458],[143,-501],[2518,-1145],[824,-191]],[[20520,91698],[-488,-705],[-714,79],[-2614,1286],[-987,955],[-382,844],[-26,769],[-721,111],[-902,-348],[-353,222],[-987,-177],[776,-600],[-254,-835],[324,-126],[-655,-1403]],[[12537,91770],[-979,-103],[-182,690],[237,691],[-633,480]],[[11608,98471],[1086,-250],[1647,-46]],[[20520,91698],[566,558],[1413,-96],[362,147],[167,745]],[[23028,93052],[1275,-647],[950,-1549],[-563,-774],[-665,-280],[-2233,-1498],[-316,-345]],[[21476,87959],[-2738,3],[-1971,-426],[-602,756],[-706,1335],[-2663,-359]],[[12796,89268],[551,769],[70,699],[-769,542],[-111,492]],[[12796,89268],[-426,-89],[-1078,206],[-574,637],[-1301,-264],[-67,169],[-1161,-59],[-1161,896],[-1483,-198],[-377,-346],[-979,-161],[-97,265],[-883,14],[-462,-229]],[[2747,90109],[-399,591],[-791,-189],[-1006,1229],[39,552],[1062,691],[520,1665],[2297,192],[457,310]],[[12796,89268],[-70,-675],[420,-403],[-101,-511]],[[13045,87679],[-2179,-212]],[[10866,87467],[-1978,-236],[-46,-904],[-646,196],[56,830],[-264,455],[-2082,-134],[70,-647],[-2215,-196],[-3676,-155]],[[85,86676],[-85,233],[1632,260],[-348,1778],[2034,213],[-571,949]],[[14883,84094],[-56,-572],[223,-1181]],[[15050,82341],[-465,-259],[-241,-1332],[-402,-140],[-476,412],[-912,271],[-979,71]],[[11575,81364],[-1437,416],[-97,-318],[-781,0],[-762,534],[-1540,-9],[-2530,-142],[-684,-253],[-646,500],[-1744,-39]],[[1354,82053],[51,336],[-837,2720]],[[568,85109],[1161,139],[2109,-106],[1490,-269],[977,0],[558,-968],[1877,196],[360,247],[2240,0],[-421,1148],[80,423],[-372,790],[239,758]],[[13045,87679],[1545,-916],[39,-431],[-460,-1228],[714,-1010]],[[568,85109],[-483,1567]],[[22740,85086],[129,-570],[1172,-1046],[990,-1376],[-112,-3022],[-665,-1961],[-433,-1933]],[[23821,75178],[-3144,682],[-171,387],[-1055,398]],[[19451,76645],[-764,481],[-880,233],[-283,-181],[907,-329],[-518,-298],[-435,390],[-455,-109]],[[17023,76832],[-63,1789],[-897,810],[203,1412],[90,1532],[-1306,-34]],[[14883,84094],[401,19],[844,-610],[753,-180],[1482,46],[435,783],[820,57],[0,837],[731,110],[698,-185],[1693,115]],[[21476,87959],[-240,-637],[351,-739],[658,-573],[495,-924]],[[11575,81364],[-296,-1518],[-781,-524],[-188,-1592],[-266,-693],[96,-428]],[[10140,76609],[-1676,29],[0,309],[-856,-281],[-703,262],[-992,-28],[-343,861],[-1788,-141],[-1596,4]],[[2186,77624],[-162,1314],[-670,3115]],[[19451,76645],[-396,-962],[-83,-917],[-389,-831],[-643,-624],[-174,-795],[924,-244],[-344,-1146]],[[18346,71126],[-1828,62],[-980,192],[-420,-163]],[[15118,71217],[316,1225],[-2360,110],[-167,-787],[-4457,-9],[-1395,-257],[-1708,64],[-1910,-197]],[[3437,71366],[-399,1925]],[[3038,73291],[3581,161],[532,281],[1011,122],[208,308],[1340,189],[-34,958],[319,133]],[[9995,75443],[3002,124],[587,-356],[1959,-54],[-126,1522],[1060,-39],[546,192]],[[10140,76609],[-210,-158],[65,-1008]],[[3038,73291],[-852,4333]],[[12365,62640],[177,803],[1444,4253]],[[13986,67696],[670,1983]],[[14656,69679],[2399,24],[718,93],[-718,-1828],[1032,101],[786,-147]],[[18873,67922],[-104,-333],[-776,-131],[-15,-328],[569,-38],[-397,-322],[-222,-1197],[169,-433],[-938,-174],[425,-249],[286,-598],[-116,-813],[72,-1010],[-331,-248]],[[5364,62127],[-426,2356],[-701,2849]],[[4237,67332],[1911,163],[483,247],[1950,183],[3809,17],[1596,-246]],[[15118,71217],[-129,24],[-333,-1562]],[[4237,67332],[-800,4034]],[[29468,66897],[-3777,621],[-1461,156],[-975,332],[-1347,267],[-1069,-516],[-730,202],[-1236,-37]],[[18346,71126],[2542,-145],[418,390],[53,574],[1546,71],[525,-221],[1390,526],[-452,262],[1521,417],[1432,1346]],[[27321,74346],[3016,-635],[-305,-1046],[-602,-778],[-583,-2430],[766,-1645],[-145,-915]],[[29468,66897],[-897,-5571]],[[23821,75178],[3500,-832]],[[14341,98175],[3379,606],[699,270],[914,-472],[1146,-1211],[883,-358],[1545,-1598],[-503,-376],[41,-690],[583,-1294]],[[61200,10201],[-420,-472],[-641,-2064],[-303,-421]],[[59836,7244],[-1279,-93],[-515,267],[-1296,74],[278,-400],[-1367,-388],[-227,-225],[-1132,-14],[-188,370],[757,252],[-549,414],[-728,12],[-692,586]],[[52898,8099],[984,278],[653,834],[772,650],[897,1033]],[[56204,10894],[1850,-237],[1553,-29],[752,-357],[841,-70]],[[64497,5198],[-344,-430],[228,-286]],[[64381,4482],[-552,-929],[116,-319]],[[63945,3234],[-3151,-25],[-580,141],[-2707,195],[-1538,-101]],[[55969,3444],[-938,1566],[1833,39],[-77,-356],[1603,-594],[97,432],[-607,532],[2,684],[885,277],[922,835],[147,385]],[[61200,10201],[1676,-230],[-1141,-1621],[338,-149],[-430,-620],[-356,-1223],[844,-473],[1045,-89],[-19,-418],[1340,-180]],[[55969,3444],[-1344,-224],[827,-1197],[-3057,-25],[-2121,93],[-1499,250],[-1355,-106],[-12,344],[-950,167]],[[46458,2746],[1052,2007]],[[47510,4753],[1475,-153],[-401,2286],[309,641]],[[48893,7527],[2189,75],[950,359]],[[52032,7961],[866,138]],[[32670,29841],[431,-309],[1669,-11],[2094,789]],[[36864,30310],[1516,-2876],[-150,-617],[235,-265]],[[38465,26552],[-844,-84],[-646,-549],[-953,-154],[-607,-634],[-609,-90],[-2440,-39],[585,-925],[-1016,0],[-288,-219],[-865,-36]],[[30782,23822],[-191,1044],[-627,614],[-251,984]],[[44201,30821],[361,-245],[55,-739],[349,-270]],[[44966,29567],[-271,-327],[125,-804],[329,-246],[-2425,-64],[-685,-814],[557,-321],[-276,-382],[331,-490],[-10,-2004]],[[42641,24115],[-539,-137],[-288,598],[-1018,-222],[-307,-290],[-1548,-138]],[[38941,23926],[-317,483],[327,763],[-486,1380]],[[36864,30310],[329,531],[774,239],[2109,-88],[747,-358],[532,-10],[996,616],[1183,-377],[667,-42]],[[48654,29581],[-51,-246],[-1125,-787],[228,-614],[3192,73],[1376,-281],[206,-223]],[[52823,25557],[-1388,-949]],[[51435,24608],[-1686,80],[-217,324]],[[49532,25012],[464,368],[53,494],[-2075,-10],[-242,500],[-861,199],[-747,-2705],[-2658,-24],[-825,281]],[[44966,29567],[1581,-83],[1260,218],[847,-121]],[[49532,25012],[-1098,-9],[-549,-265],[-5,-1213],[-419,-318],[201,-504],[-382,-846],[-2162,-99],[-302,502],[-893,-150],[46,-344]],[[43969,21766],[-549,175],[-1100,8],[-922,-552],[-619,-586]],[[40779,20811],[-493,1419],[-493,726],[-678,501],[-174,469]],[[40779,20811],[-776,-825],[-2839,103],[-685,-81],[-1264,553],[-770,119],[-464,373]],[[33981,21053],[-902,644],[-2297,2125]],[[38789,17697],[1340,783],[51,699],[2798,178],[-332,377],[951,595],[747,177]],[[44344,20506],[213,-745],[455,-679]],[[45012,19082],[1366,-1702],[-1224,-239],[-75,-320]],[[45079,16821],[-2411,-392],[-1782,-92],[-1052,-201]],[[39834,16136],[-73,792],[-972,769]],[[38789,17697],[-900,-120],[-483,284],[-886,33],[-490,219],[-857,-448]],[[35173,17665],[-304,680],[-999,65],[505,349],[-1115,250],[-118,322],[1011,175],[406,801],[-578,746]],[[43969,21766],[375,-1260]],[[45012,19082],[2749,-25],[172,-230],[1468,-448],[878,966],[895,-144],[273,-389],[2070,-141],[1200,133]],[[54717,18804],[72,-756],[-677,-1854],[-805,-1181]],[[53307,15013],[-2228,293],[-1373,87],[-1935,-244]],[[47771,15149],[-1616,-144]],[[46155,15005],[-394,107],[-650,1019],[-32,690]],[[51435,24608],[-191,-322],[604,-942],[1164,332],[1214,-358],[-114,-559],[-576,-394],[293,-1111],[-87,-1034],[776,-523],[523,146]],[[55041,19843],[-17,-607],[-307,-432]],[[41292,11094],[4551,472],[1447,271]],[[47290,11837],[686,-1095],[-224,-980],[203,-840],[938,-1395]],[[47510,4753],[-615,521],[-99,514],[-778,1184],[-736,625],[-679,-106],[-769,596],[-1234,2010],[-904,293],[-404,704]],[[41292,11094],[-319,252],[-527,1715],[-465,312],[573,102],[-31,665],[-639,406],[482,155],[-17,714],[-515,721]],[[46155,15005],[237,-879],[428,-105],[1217,-1667],[-747,-517]],[[47771,15149],[319,-332],[1299,-2149],[825,-1130],[534,-1345],[1021,-995],[263,-1237]],[[53307,15013],[-547,-696],[-31,-398],[1405,-333],[827,122],[155,-207],[2031,91],[530,-226]],[[57677,13366],[58,-380],[-1043,-1659],[-488,-433]],[[46458,2746],[-714,-101],[-1076,1314],[-244,-72],[-3074,3483],[-2566,2830],[-1238,1575],[-4003,4611]],[[33543,16386],[223,25],[1407,1254]],[[33543,16386],[-2038,2288],[-2293,2830],[-3262,3494]],[[56407,34870],[-184,-835],[1144,-363],[-7,-417],[2254,-241],[-5,-254],[-1420,62],[-1042,-499],[-22,-983],[-1093,32],[-1105,-485],[-837,-74],[-1480,-393],[-1441,5],[-1504,-234]],[[49665,30191],[280,932],[-984,271],[346,295],[1402,-27],[182,167],[-644,445],[213,404],[-832,535],[530,1013],[-2165,232],[332,702],[-66,616],[934,393]],[[49193,36169],[1105,-144],[1729,32],[948,-325],[3432,-862]],[[45739,38351],[-118,-335],[943,-267],[-135,-575],[479,-62],[2285,-943]],[[49665,30191],[-716,-663],[-295,53]],[[44201,30821],[-553,858],[-738,371],[392,292],[-1906,155],[-2160,524],[44,1024],[-264,280],[856,109]],[[39872,34434],[136,174],[-689,909],[561,1073],[677,403],[60,1198],[-452,84],[189,926]],[[40354,39201],[1049,-79],[1258,-283],[215,225],[2005,-348],[728,289],[-377,-504],[507,-150]],[[54700,45367],[-624,-800],[-818,-670],[114,-503],[-697,-586],[702,-526],[1139,-14],[48,-209],[1357,-13],[726,-220],[-1674,-877],[527,-449],[-290,-330],[1018,-676],[-331,-24],[-465,-568]],[[55432,38902],[-807,116],[-871,-307],[-481,151]],[[53273,38862],[-399,407],[-1831,688],[-832,-51],[-1018,521],[-2273,778],[-859,149],[-2176,859],[-1357,665]],[[42528,42878],[-747,398],[-697,101]],[[41084,43377],[87,143]],[[41171,43520],[1030,-209],[682,747],[1824,-191],[1192,56],[740,238],[-384,368]],[[46255,44529],[3668,346],[716,119]],[[50639,44994],[2295,336],[1766,37]],[[20477,45042],[595,18],[604,336],[803,-1503],[2053,133],[83,-937],[1753,-124],[663,-503],[2752,-233]],[[29783,42229],[708,-635],[375,-799],[90,-848],[1102,-668],[513,-649],[-94,-509],[375,-476],[1199,-340],[-575,-824]],[[33476,36481],[-1125,344],[-1456,-61],[-138,-213]],[[20931,48102],[2545,138],[-107,1208],[617,307],[895,-207],[75,-268],[1228,-11],[-36,-956],[479,-541],[2171,-146],[281,525],[2356,-269]],[[31435,47882],[-300,-1428],[147,-849],[905,-689],[-581,-416],[228,-621]],[[31834,43879],[-704,-218],[-223,-1018],[-1124,-414]],[[31435,47882],[399,820],[699,491],[-915,251],[334,448],[-353,618],[-399,1429],[19,1299],[6890,37]],[[38109,53275],[230,-2179]],[[38339,51096],[123,-590],[1147,-1469],[500,-294],[825,-70],[-619,-190],[-764,499],[-4194,580],[-22,-282],[678,-1921],[3492,-637],[-644,-632],[1423,-416],[952,-110],[-140,-630],[-551,-1197],[626,-217]],[[41084,43377],[-1216,55],[-617,-266],[-394,-1057],[-547,-577],[-1891,507],[-1052,-35],[-1432,158],[-665,317],[-387,672],[-1049,728]],[[38293,56575],[-184,-3300]],[[27812,56027],[3011,792],[-51,713],[2339,496],[280,-633],[1804,-325],[912,-796],[2186,301]],[[51309,50973],[-392,-1107],[104,-3000],[-268,-559],[-114,-1313]],[[46255,44529],[-668,440],[-515,1080],[-1381,255],[-213,469],[793,1390],[566,549],[586,151],[-2136,520],[-791,-196],[-909,737],[-1132,1282],[-2116,-110]],[[38293,56575],[728,285],[2421,422],[4244,534],[-152,-2498],[3357,-583],[232,-3869],[338,170],[1848,-63]],[[53273,38862],[-822,-668],[-1023,145],[-179,-320],[-1214,32],[-1693,1046],[46,158],[-1396,364],[-551,-381],[411,-191],[-1113,-696]],[[40354,39201],[-702,168],[78,647],[408,-26],[927,1071],[-167,769],[1630,1048]],[[39872,34434],[-1156,1154],[-1763,627],[-803,169],[-928,-217],[-460,-295],[-1286,609]],[[51309,50973],[1458,-134],[663,-438],[1166,-39],[1262,112],[629,-560],[-433,-151],[-128,-1134],[-363,-7],[19,-534],[491,-975],[-730,-185],[99,-730],[-742,-831]],[[55432,38902],[206,-754],[-174,-514],[1632,-412],[-522,-1125],[694,-86],[-481,-642],[94,-482],[-474,-17]],[[72717,19088],[-435,-169],[-15,-546],[721,-552],[1192,-515],[-380,-211],[-1468,354],[-268,-280],[19,-631],[-389,-592],[-1611,-315]],[[70083,15631],[-1163,134],[-421,282],[-1265,320],[-454,403]],[[66780,16770],[237,772],[-428,414],[-1147,303],[-602,672],[215,286]],[[66780,16770],[-46,-154],[-1577,-481],[-489,184],[-2,-520],[-892,-887],[-1072,219],[-58,-556],[-556,388],[-755,-130]],[[61333,14833],[-72,-16]],[[61261,14817],[-622,240],[283,240],[73,891],[-305,637],[-1098,1383],[460,322],[-29,411]],[[60023,18941],[580,416],[844,-17],[1809,-601],[455,522],[1105,802]],[[70083,15631],[535,-617],[-477,-488],[1369,21],[2058,-175]],[[73568,14372],[312,-335],[1023,-444],[-617,-445],[-379,-721],[9,-596],[-660,-516],[-1168,-417],[-1045,-74]],[[71043,10824],[-1202,-211],[-457,163],[240,648],[-644,587],[-611,17],[-477,-582],[264,-583]],[[68156,10863],[-1613,220],[-881,-85],[-657,209],[-939,-187],[-1615,633],[-573,0]],[[61878,11653],[41,1226],[-440,348],[244,487],[-407,236],[518,316],[-501,567]],[[64497,5198],[1035,945],[51,303],[848,1314],[733,632],[119,568],[512,906],[-210,706],[571,291]],[[71043,10824],[179,-192],[-273,-759],[1050,-547],[1320,-31],[660,-205],[745,-1325],[-128,-479]],[[74596,7286],[-1836,-53],[-1971,-156],[-553,-181],[-482,-535],[-1240,-386],[558,-1405]],[[69072,4570],[-50,-231],[-1079,245],[-1727,-30],[-370,-236],[-474,191],[-991,-27]],[[61200,10201],[678,1452]],[[87561,15905],[593,-760],[807,-555],[276,-860],[-184,-264],[617,-1046]],[[89670,12420],[-85,-513],[806,-951],[-1372,-559],[-379,36],[-1137,-370],[-701,196],[-830,-543],[593,-518],[-92,-361],[-856,-739]],[[85617,8098],[-455,163],[-3212,163],[-2125,-122]],[[79825,8302],[769,1326],[67,834],[617,921],[474,23],[85,699],[-619,1035]],[[81218,13140],[135,316],[1100,394],[-432,1222]],[[79825,8302],[-1360,-220],[-3223,-899],[-646,103]],[[73568,14372],[2627,-336],[490,-350],[-181,-555],[1473,115],[339,-106],[1571,123],[1331,-123]],[[85617,8098],[1035,-233],[-407,-646],[-1100,-260],[-380,-392],[864,-523],[-644,-302],[221,-364],[1987,-590]],[[87193,4788],[-251,-599],[-946,-563],[-1547,-119],[-433,205],[-1091,-332],[-1333,-666],[-3078,-77],[-1536,257]],[[76978,2894],[140,379],[-440,556],[203,447],[1074,606],[-128,772],[290,463],[-967,200],[-288,509],[-1378,-302],[-2716,-434],[-1277,-682],[-1207,-449],[-757,-96],[-455,-293]],[[89670,12420],[912,-352],[1296,89],[890,-449],[1794,-153],[753,-612],[1385,-180],[-362,-599],[280,-816],[1023,-71],[1071,-396],[1287,-288],[-689,-1015],[-2218,444],[-941,-315],[-781,-739],[651,-1257],[-837,-240],[-2377,-395],[-2939,20],[-667,-375],[-2008,67]],[[61561,24284],[-581,-307],[-336,-873],[433,-378],[138,-791],[825,-669],[-300,-451],[-1011,-813],[-648,106],[-1214,-97]],[[58867,20011],[-603,253],[-979,-307],[-895,70],[-1349,-184]],[[60023,18941],[-965,675],[-191,395]],[[61261,14817],[-203,-94],[-3103,362],[-278,-1719]],[[76978,2894],[-1025,-102],[-924,-341],[326,-136],[-87,-603],[-1129,-348],[249,-484],[-1059,18],[-602,-180],[-395,268],[-919,-136],[-950,-594],[-2583,-256],[-1608,118],[-363,369],[-822,1601],[-615,-59],[-573,352],[46,853]]],"transform":{"scale":[4.134941349413595e-06,7.815878158781587e-06],"translate":[76.2772,9.1098]},"objects":{"villages":{"type":"GeometryCollection","geometries":[{"arcs":[[0,1,2,3,4]],"type":"Polygon","properties":{"n":"Punnapra (OG)","c":628235,"d":"Alappuzha","s":"KERALA"}},{"arcs":[[5,6,-5,7,8,9]],"type":"Polygon","properties":{"n":"Kalarkode (OG) (Part)","c":645603,"d":"Alappuzha","s":"KERALA"}},{"arcs":[[10,11,12,13,14]],"type":"Polygon","properties":{"n":"Komalapuram (CT)","c":628234,"d":"Alappuzha","s":"KERALA"}},{"arcs":[[15,-13,16,17,18]],"type":"Polygon","properties":{"n":"Kalavoor","c":628226,"d":"Alappuzha","s":"KERALA"}},{"arcs":[[-12,19,20,21,-17]],"type":"Polygon","properties":{"n":"Pathirappally (CT)","c":628233,"d":"Alappuzha","s":"KERALA"}},{"arcs":[[22,23,24,-21]],"type":"Polygon","properties":{"n":"Alappuzha (M)","c":803299,"d":"Alappuzha","s":"KERALA"}},{"arcs":[[-20,-11,25,26,27,28,-23]],"type":"Polygon","properties":{"n":"Aryad South  (Part)","c":628227,"d":"Alappuzha","s":"KERALA"}},{"arcs":[[29,30,-14,-16,31]],"type":"Polygon","properties":{"n":"Mannanchery (CT)","c":628232,"d":"Alappuzha","s":"KERALA"}},{"arcs":[[32,33,34,-3]],"type":"Polygon","properties":{"n":"Ambalappuzha","c":628229,"d":"Alappuzha","s":"KERALA"}},{"arcs":[[-2,35,36,37,-33]],"type":"Polygon","properties":{"n":"Karumady","c":628230,"d":"Alappuzha","s":"KERALA"}},{"arcs":[[-38,38,39,40,41,-34]],"type":"Polygon","properties":{"n":"Purakkad","c":628231,"d":"Alappuzha","s":"KERALA"}},{"arcs":[[42,43,-10,44,-28,45]],"type":"Polygon","properties":{"n":"Alappuzha (M)","c":803299,"d":"Alappuzha","s":"KERALA"}},{"arcs":[[-9,46,-24,-29,-45]],"type":"Polygon","properties":{"n":"Alappuzha (M)","c":803299,"d":"Alappuzha","s":"KERALA"}},{"arcs":[[-46,-27,47]],"type":"Polygon","properties":{"n":"Mullakkal (Part)","c":628228,"d":"Alappuzha","s":"KERALA"}},{"arcs":[[48,49,50,51,52]],"type":"Polygon","properties":{"n":"Cheriyanad","c":628274,"d":"Alappuzha","s":"KERALA"}},{"arcs":[[53,54,55,56,57,58,59]],"type":"Polygon","properties":{"n":"Ennakkad","c":628267,"d":"Alappuzha","s":"KERALA"}},{"arcs":[[-58,60,61,62,63]],"type":"Polygon","properties":{"n":"Mannar (CT)","c":628276,"d":"Alappuzha","s":"KERALA"}},{"arcs":[[64,65,66]],"type":"Polygon","properties":{"n":"Thiruvanvandoor","c":628269,"d":"Alappuzha","s":"KERALA"}},{"arcs":[[67,68,-60,69,-66]],"type":"Polygon","properties":{"n":"Pandanad (Part)","c":628268,"d":"Alappuzha","s":"KERALA"}},{"arcs":[[70,71,72,-68,-65,73]],"type":"Polygon","properties":{"n":"Chengannur (M)","c":803301,"d":"Alappuzha","s":"KERALA"}},{"arcs":[[74,-52,75,-54,-69,-73]],"type":"Polygon","properties":{"n":"Puliyoor(Part)","c":628273,"d":"Alappuzha","s":"KERALA"}},{"arcs":[[76,77,78,-49,79,80]],"type":"Polygon","properties":{"n":"Venmony","c":628275,"d":"Alappuzha","s":"KERALA"}},{"arcs":[[-53,-75,-72,81,-80]],"type":"Polygon","properties":{"n":"Ala (Part)","c":628272,"d":"Alappuzha","s":"KERALA"}},{"arcs":[[-81,-82,-71,82]],"type":"Polygon","properties":{"n":"Mulakuzha (Part)","c":628271,"d":"Alappuzha","s":"KERALA"}},{"arcs":[[-63,83,84,85]],"type":"Polygon","properties":{"n":"Kurattissery (CT)","c":628277,"d":"Alappuzha","s":"KERALA"}},{"arcs":[[86,87,88]],"type":"Polygon","properties":{"n":"Aroor (CT)","c":628215,"d":"Alappuzha","s":"KERALA"}},{"arcs":[[89,90,91,-87,92]],"type":"Polygon","properties":{"n":"Arookutty (CT)","c":628214,"d":"Alappuzha","s":"KERALA"}},{"arcs":[[93,94,95,96,-91]],"type":"Polygon","properties":{"n":"Panavally","c":628207,"d":"Alappuzha","s":"KERALA"}},{"arcs":[[-92,-97,97,98,-88]],"type":"Polygon","properties":{"n":"Ezhupunna (CT)","c":628216,"d":"Alappuzha","s":"KERALA"}},{"arcs":[[99,100,101,102,-98]],"type":"Polygon","properties":{"n":"Kodamthuruth (CT)","c":628217,"d":"Alappuzha","s":"KERALA"}},{"arcs":[[103,104,105,106,107,-101,108]],"type":"Polygon","properties":{"n":"Thuravoor Thekku","c":628208,"d":"Alappuzha","s":"KERALA"}},{"arcs":[[-108,109,-102]],"type":"Polygon","properties":{"n":"Kuthiathode (CT)","c":628219,"d":"Alappuzha","s":"KERALA"}},{"arcs":[[110,111,112,113,-104,114]],"type":"Polygon","properties":{"n":"Pallippuram (CT)","c":628221,"d":"Alappuzha","s":"KERALA"}},{"arcs":[[115,-115,-109,-100,-96]],"type":"Polygon","properties":{"n":"Thaikattussery (CT)","c":628218,"d":"Alappuzha","s":"KERALA"}},{"arcs":[[116,117,118,-106]],"type":"Polygon","properties":{"n":"Pattanakkad","c":628209,"d":"Alappuzha","s":"KERALA"}},{"arcs":[[119,120,121,122,123,124,-113]],"type":"Polygon","properties":{"n":"Cherthala (M)","c":803298,"d":"Alappuzha","s":"KERALA"}},{"arcs":[[125,-124,126,-118]],"type":"Polygon","properties":{"n":"Kadakkarappally","c":628210,"d":"Alappuzha","s":"KERALA"}},{"arcs":[[127,128,129,130,-32]],"type":"Polygon","properties":{"n":"Kanjikkuzhi (CT)","c":628224,"d":"Alappuzha","s":"KERALA"}},{"arcs":[[-128,-19,131,132]],"type":"Polygon","properties":{"n":"Mararikkulam North","c":628213,"d":"Alappuzha","s":"KERALA"}},{"arcs":[[133,-129,-133,134,-122]],"type":"Polygon","properties":{"n":"Cherthala South (Part)","c":628212,"d":"Alappuzha","s":"KERALA"}},{"arcs":[[135,-130,-134,-121,136,137]],"type":"Polygon","properties":{"n":"Thanneermukkam (CT)","c":628222,"d":"Alappuzha","s":"KERALA"}},{"arcs":[[138,-30,-131,-136]],"type":"Polygon","properties":{"n":"Muhamma (CT)","c":628225,"d":"Alappuzha","s":"KERALA"}},{"arcs":[[-117,-105,-114,-125,-126]],"type":"Polygon","properties":{"n":"Vayalar (CT)","c":628220,"d":"Alappuzha","s":"KERALA"}},{"arcs":[[139,-137,-120,-112]],"type":"Polygon","properties":{"n":"Kokkothamangalam (CT)","c":628223,"d":"Alappuzha","s":"KERALA"}},{"arcs":[[-94,-90,140]],"type":"Polygon","properties":{"n":"Perumbalam","c":628206,"d":"Alappuzha","s":"KERALA"}},{"arcs":[[141,142,143,144]],"type":"Polygon","properties":{"n":"Kayamkulam (M)","c":803300,"d":"Alappuzha","s":"KERALA"}},{"arcs":[[145,146,147,148,-142,149]],"type":"Polygon","properties":{"n":"Krishnapuram (CT)","c":628266,"d":"Alappuzha","s":"KERALA"}},{"arcs":[[-149,150,151,152,153,154,-143]],"type":"Polygon","properties":{"n":"Puthuppally (CT)","c":628265,"d":"Alappuzha","s":"KERALA"}},{"arcs":[[155,156,157,158,-40]],"type":"Polygon","properties":{"n":"Karuvatta","c":628250,"d":"Alappuzha","s":"KERALA"}},{"arcs":[[159,160,161,162,-157,163]],"type":"Polygon","properties":{"n":"Cheruthana","c":628251,"d":"Alappuzha","s":"KERALA"}},{"arcs":[[164,-85,165,166,167,-161,168]],"type":"Polygon","properties":{"n":"Veeyapuram","c":628252,"d":"Alappuzha","s":"KERALA"}},{"arcs":[[169,170,171,-162,-168]],"type":"Polygon","properties":{"n":"Haripad (CT)","c":628256,"d":"Alappuzha","s":"KERALA"}},{"arcs":[[172,173,-158,-163,-172]],"type":"Polygon","properties":{"n":"Kumarapuram (CT)","c":628257,"d":"Alappuzha","s":"KERALA"}},{"arcs":[[174,175,176,177,178]],"type":"Polygon","properties":{"n":"Chingoli (CT)","c":628259,"d":"Alappuzha","s":"KERALA"}},{"arcs":[[179,180,-173,-171,181,-175]],"type":"Polygon","properties":{"n":"Karthikappally (CT)","c":628258,"d":"Alappuzha","s":"KERALA"}},{"arcs":[[182,183,184,185,186,-177]],"type":"Polygon","properties":{"n":"Cheppad (CT)","c":628260,"d":"Alappuzha","s":"KERALA"}},{"arcs":[[-176,-182,-170,-167,187,188,-183]],"type":"Polygon","properties":{"n":"Pallippad","c":628253,"d":"Alappuzha","s":"KERALA"}},{"arcs":[[189,190,-153,191]],"type":"Polygon","properties":{"n":"Kandalloor (CT)","c":628264,"d":"Alappuzha","s":"KERALA"}},{"arcs":[[192,-178,-187,193,-190]],"type":"Polygon","properties":{"n":"Muthukulam (CT)","c":628263,"d":"Alappuzha","s":"KERALA"}},{"arcs":[[-186,194,-154,-191,-194]],"type":"Polygon","properties":{"n":"Keerikkad (CT)","c":628262,"d":"Alappuzha","s":"KERALA"}},{"arcs":[[195,196,-144,-155,-195,-185]],"type":"Polygon","properties":{"n":"Pathiyoor (CT)","c":628261,"d":"Alappuzha","s":"KERALA"}},{"arcs":[[-179,-193,-192,-152,197,198,-180]],"type":"Polygon","properties":{"n":"Arattupuzha","c":628255,"d":"Alappuzha","s":"KERALA"}},{"arcs":[[-174,-181,-199,199,-41,-159]],"type":"Polygon","properties":{"n":"Thrikkunnapuzha","c":628254,"d":"Alappuzha","s":"KERALA"}},{"arcs":[[200,201,202]],"type":"Polygon","properties":{"n":"Thalavady","c":628249,"d":"Alappuzha","s":"KERALA"}},{"arcs":[[203,-202,204,-169,-160,205,206,207]],"type":"Polygon","properties":{"n":"Edathua","c":628247,"d":"Alappuzha","s":"KERALA"}},{"arcs":[[208,209,210,211,212,213,214,215]],"type":"Polygon","properties":{"n":"Veliyanad","c":628242,"d":"Alappuzha","s":"KERALA"}},{"arcs":[[216,217,218,-36,-1,-7]],"type":"Polygon","properties":{"n":"Nedumudi","c":628245,"d":"Alappuzha","s":"KERALA"}},{"arcs":[[219,220,221,-217,-6,-44]],"type":"Polygon","properties":{"n":"Kainakary South","c":628237,"d":"Alappuzha","s":"KERALA"}},{"arcs":[[222,223,224,-213,225,-221]],"type":"Polygon","properties":{"n":"Pulinkunnu","c":628238,"d":"Alappuzha","s":"KERALA"}},{"arcs":[[226,-223,-220,-43,-48,227]],"type":"Polygon","properties":{"n":"Kainakary North","c":628236,"d":"Alappuzha","s":"KERALA"}},{"arcs":[[228,-215,229,-224,-227,230]],"type":"Polygon","properties":{"n":"Kavalam","c":628240,"d":"Alappuzha","s":"KERALA"}},{"arcs":[[-214,-225,-230]],"type":"Polygon","properties":{"n":"Kunnumma","c":628239,"d":"Alappuzha","s":"KERALA"}},{"arcs":[[231,-208,232,-211]],"type":"Polygon","properties":{"n":"Ramankary","c":628243,"d":"Alappuzha","s":"KERALA"}},{"arcs":[[-207,233,-218,-222,-226,-212,-233]],"type":"Polygon","properties":{"n":"Champakkulam","c":628244,"d":"Alappuzha","s":"KERALA"}},{"arcs":[[-216,-229,234]],"type":"Polygon","properties":{"n":"Neelamperoor","c":628241,"d":"Alappuzha","s":"KERALA"}},{"arcs":[[-156,-39,-37,-219,-234,-206,-164]],"type":"Polygon","properties":{"n":"Thakazhy","c":628246,"d":"Alappuzha","s":"KERALA"}},{"arcs":[[-210,235,-203,-204,-232]],"type":"Polygon","properties":{"n":"Muttar","c":628248,"d":"Alappuzha","s":"KERALA"}},{"arcs":[[-76,-51,236,237,238,-55]],"type":"Polygon","properties":{"n":"Thazhakara (CT)","c":628289,"d":"Alappuzha","s":"KERALA"}},{"arcs":[[239,240,241,242,-56,-239]],"type":"Polygon","properties":{"n":"Mavelikkara (M)","c":803302,"d":"Alappuzha","s":"KERALA"}},{"arcs":[[-238,243,244,245,246,247,-240]],"type":"Polygon","properties":{"n":"Thekkekara (Part)","c":628280,"d":"Alappuzha","s":"KERALA"}},{"arcs":[[248,-246,249,250,251,-146]],"type":"Polygon","properties":{"n":"Kattanam (CT)","c":628291,"d":"Alappuzha","s":"KERALA"}},{"arcs":[[-247,-249,-150,252]],"type":"Polygon","properties":{"n":"Bharanikkavu (CT)","c":628290,"d":"Alappuzha","s":"KERALA"}},{"arcs":[[253,254,255,256,257,-78]],"type":"Polygon","properties":{"n":"Noornad","c":628283,"d":"Alappuzha","s":"KERALA"}},{"arcs":[[258,-250,-245,259,-257]],"type":"Polygon","properties":{"n":"Chunakkara","c":628282,"d":"Alappuzha","s":"KERALA"}},{"arcs":[[260,261,262,-251,-259,-256]],"type":"Polygon","properties":{"n":"Thamarakkulam","c":628285,"d":"Alappuzha","s":"KERALA"}},{"arcs":[[-261,-255,263]],"type":"Polygon","properties":{"n":"Palamel","c":628284,"d":"Alappuzha","s":"KERALA"}},{"arcs":[[-166,-84,-62,264,265,-188]],"type":"Polygon","properties":{"n":"Thriperumthura","c":628278,"d":"Alappuzha","s":"KERALA"}},{"arcs":[[-61,-57,-243,266,-265]],"type":"Polygon","properties":{"n":"Chennithala (CT)","c":628288,"d":"Alappuzha","s":"KERALA"}},{"arcs":[[-267,-242,267,-196,-184,-189,-266]],"type":"Polygon","properties":{"n":"Kannamangalam (CT)","c":628287,"d":"Alappuzha","s":"KERALA"}},{"arcs":[[-241,-248,-253,-145,-197,-268]],"type":"Polygon","properties":{"n":"Perungala","c":628281,"d":"Alappuzha","s":"KERALA"}},{"arcs":[[268,-147,-252,-263]],"type":"Polygon","properties":{"n":"Vallikunnam","c":628286,"d":"Alappuzha","s":"KERALA"}},{"arcs":[[-258,-260,-244,-237,-50,-79]],"type":"Polygon","properties":{"n":"Vettiyar","c":628279,"d":"Alappuzha","s":"KERALA"}}]}}}