{"type":"Topology","arcs":[[[72849,61094],[-2667,-2095],[-4490,-3665],[-268,325],[-1771,664]],[[63653,56323],[31,855],[-354,377],[-244,912],[149,449],[-646,1241],[830,534],[157,564],[-307,688],[-670,436],[-368,788],[-2427,-313],[-512,-428],[153,-494],[-2305,364],[-139,-313],[-979,546],[-723,-314],[1198,-802],[155,-661],[-568,-81],[-613,585],[-1245,796],[-1102,382],[-107,-204],[576,-1150],[-513,-149],[-547,517],[-429,1368],[-830,-315],[-379,611],[-495,-420],[-468,428],[-418,-840],[-394,348],[-1753,4]],[[47367,62632],[-556,1272]],[[46811,63904],[-115,891],[-301,-8],[-230,1191],[100,941],[-205,1235],[215,1034],[-307,-51],[-800,655]],[[45168,69792],[1583,1091],[-33,342],[1105,146],[2001,1374],[1199,-177],[371,-453],[559,204],[823,-158],[1148,-688],[1189,108],[399,286],[1225,189],[341,290],[1258,269],[992,509]],[[59328,73124],[568,-564],[59,-509],[628,-504],[581,-1664],[859,-52],[541,-675],[1258,-278],[461,-503],[1374,55],[468,-970],[1158,-500],[636,147],[1169,-1022],[55,-2094],[1018,-459],[907,-957],[1781,-1481]],[[42486,73208],[74,-1049]],[[42560,72159],[1660,-2219],[126,-2226],[-740,364],[-1559,13],[-122,420],[-923,156],[-815,-165]],[[40187,68502],[-1548,0],[-860,454],[-835,-225],[-96,589],[-438,72]],[[36410,69392],[-248,1209],[763,325],[-227,549],[414,601],[-48,691],[645,482],[761,138],[65,618],[-485,801],[1509,-25]],[[39559,74781],[461,-310],[480,-871],[600,-338],[1386,-54]],[[42560,72159],[955,-589],[959,-1213],[694,-565]],[[46811,63904],[-1177,-564],[-1622,-90],[-1116,128]],[[42896,63378],[-484,651],[-834,-457],[-189,1160]],[[41389,64732],[271,886],[-1017,990],[44,935],[-500,959]],[[41389,64732],[-758,171],[-720,-357],[-403,373],[-1296,135],[-449,386]],[[37763,65440],[-677,157],[-260,478],[250,589],[-820,530],[-199,483]],[[36057,67677],[-389,376],[556,620],[186,719]],[[34130,68968],[454,-802],[-575,-191],[-122,-543],[711,-37],[816,460],[643,-178]],[[37763,65440],[-705,-191],[-801,-1242],[-570,-1274]],[[35687,62733],[-627,153],[-289,555],[-1253,0],[-92,-402],[-1800,-44]],[[31626,62995],[59,551],[-761,806],[508,505],[-843,-6],[1734,1122],[-138,780],[-733,-423],[-174,545],[-513,-112],[-73,1275],[-351,281],[-473,-316],[-571,944],[311,473],[-580,438]],[[29028,69858],[976,111],[1699,-625],[1104,-265],[682,-390],[641,279]],[[34793,74281],[928,1262],[-148,565],[584,1124]],[[36157,77232],[596,-107],[728,-689],[1354,-730],[732,-125],[-8,-800]],[[34130,68968],[-556,1492],[312,731],[-120,1081],[1082,959],[-55,1050]],[[35326,43493],[-2188,619],[-1097,851],[-588,1386]],[[31453,46349],[361,933]],[[31814,47282],[837,1416],[810,1014]],[[33461,49712],[390,-136],[369,699],[-210,395],[1050,395],[1192,767],[1606,-696],[635,-910],[795,11],[879,446]],[[40167,50683],[894,-809]],[[41061,49874],[-439,-16],[-917,-1141],[1615,-603],[440,-539],[-268,-1054],[-848,-350],[-774,507],[-900,-321]],[[38970,46357],[-1312,-109],[512,-757],[-794,-635],[-104,-592],[957,-651],[-258,-944],[-472,-589],[-372,60],[-1801,1353]],[[46670,56389],[317,-300],[-104,-1200],[419,-709],[1856,-291],[1662,-1408],[55,-685]],[[50875,51796],[-54,-245]],[[50821,51551],[-451,128],[-1323,-192],[-999,-331],[-2682,156],[-1641,-1234]],[[43725,50078],[-1713,-728],[-853,158],[-98,366]],[[40167,50683],[548,1241],[-438,1047]],[[40277,52971],[1032,-724],[641,38],[441,-559],[682,275],[758,-475],[317,276],[180,1093],[-230,561],[-1289,210],[-287,513],[607,615],[1188,245],[726,1033],[-92,564]],[[44951,56636],[442,135],[1277,-382]],[[43725,50078],[119,-349],[1347,-406],[569,-677],[1524,132],[385,-493],[497,122],[918,-348],[-213,-893]],[[48871,47166],[-603,-978],[-1178,-262],[-782,-2040],[-1435,338],[-179,-802],[-810,72],[-217,-1338],[-699,1202],[-1028,-371],[-390,281],[-627,-272],[-42,702],[-920,221]],[[39961,43919],[24,321],[920,398],[-354,642],[-976,112],[-605,965]],[[39979,39022],[357,-855],[-1405,-935],[-916,-30],[-567,294],[-459,-341],[-97,-1120],[-671,-573],[-994,435],[-605,-151]],[[34622,35746],[-736,796],[375,1000],[-154,1114],[287,1448],[753,1526],[-676,974]],[[34471,42604],[855,889]],[[39961,43919],[605,-855],[370,-927],[-672,-241],[31,-1198],[-513,-1268],[197,-408]],[[58507,55511],[1015,-1058],[502,12],[818,-1212],[-272,-824]],[[60570,52429],[-85,423],[-2387,203],[-785,648],[-286,-1131],[-744,114],[103,-1073],[-1020,-266],[-1822,1241],[-560,-919],[-229,865],[-673,60],[550,-655],[-856,-353],[-901,210]],[[46670,56389],[677,420],[288,584],[1458,1065],[1149,-37],[883,-343],[893,1350]],[[52018,59428],[1290,-1371],[1177,-379],[1529,-1147],[1012,34],[800,-796],[681,-258]],[[16965,60235],[738,-800],[777,-171]],[[18480,59264],[201,-691],[-248,-1296]],[[18433,57277],[-607,758],[-310,-305],[-992,-156],[-709,195],[-1497,-853],[-103,-709],[-894,-251],[-758,-538]],[[12563,55418],[-863,1702],[-693,1776]],[[11007,58896],[2242,515],[1400,39],[-28,845],[384,257]],[[15005,60552],[1960,-317]],[[9452,65433],[902,-269],[444,-402],[1280,-319],[803,424]],[[12881,64867],[735,-224],[518,-1128],[-452,-325],[-14,-705],[1337,-1933]],[[11007,58896],[-1498,3887],[-656,1319]],[[8853,64102],[551,184],[-411,1001],[459,146]],[[31626,62995],[-571,260],[-695,-617]],[[30360,62638],[-2170,184],[-1091,443],[-894,-335],[-894,77],[-707,-288],[-265,-770]],[[24339,61949],[-1407,-294]],[[22932,61655],[411,1312],[-872,922]],[[22471,63889],[861,1237],[1381,479],[967,1392],[12,574],[718,1237]],[[26410,68808],[297,94],[1042,1233],[1279,-277]],[[30360,62638],[-123,-706],[352,-1250],[632,-1256],[1131,147]],[[32352,59573],[-134,-1152],[-566,-728],[-326,602],[-665,-169],[-408,297],[-905,-204]],[[29348,58219],[-465,217],[-337,671],[-645,168],[-189,511],[-677,438],[256,630],[-1114,380],[-554,-162],[-1284,877]],[[29348,58219],[477,-1196],[800,-744],[-1563,-840],[-682,-879],[-582,97],[-932,-317]],[[26866,54340],[-685,615],[766,1153],[-709,322],[-462,536],[-333,-197],[-768,903]],[[24675,57672],[1407,1073],[-1328,248],[165,404],[-638,-127],[-1295,472],[-141,248],[685,1538],[436,-202],[373,623]],[[24675,57672],[-2267,-718],[-726,-665]],[[21682,56289],[-769,245],[-525,-148]],[[20388,56386],[-387,595],[-719,-172],[-70,383],[-779,85]],[[18480,59264],[773,-146],[804,411],[936,94],[1647,1582],[292,450]],[[26866,54340],[76,-668],[1141,-683],[387,-1082],[791,-31],[42,-1080],[-328,-427],[-946,-179],[-538,-434]],[[27491,49756],[-876,711]],[[26615,50467],[-85,889],[-676,160],[-380,827],[-1603,959]],[[23871,53302],[-779,831],[-859,620],[-551,1536]],[[23871,53302],[-815,-451],[33,-1263],[-1112,-398],[-115,-1483],[-441,-576]],[[21421,49131],[-515,385],[-584,-55],[-1315,699],[-1130,247],[-182,-286],[-1104,-265],[-525,-502],[-267,692],[-1010,1084],[-866,-40],[-712,523],[400,655]],[[13611,52268],[1406,-62],[734,141],[-303,344],[218,583],[1066,250],[381,612],[1415,-212],[177,-481],[1950,210],[-370,386],[508,402],[-469,638],[233,390],[-169,917]],[[26615,50467],[-1750,-884],[112,-700],[-450,-582],[107,-692],[-425,-354]],[[24209,47255],[-803,639],[-228,-222],[-1757,1459]],[[32352,59573],[919,302],[1236,-979],[-62,-1476],[743,-467],[54,-432]],[[35242,56521],[-797,13],[-1056,-361],[-825,-795],[21,-571],[-526,-336],[441,-660],[59,-904],[-499,-946],[1291,-949],[299,-944],[-189,-356]],[[31814,47282],[-741,377],[-305,558],[-1657,436],[-3,463],[-1617,640]],[[35242,56521],[1110,758],[860,-445],[1094,153],[743,-835],[600,-85]],[[39649,56067],[-359,-787],[490,-386],[13,-736],[645,-605],[-161,-582]],[[35687,62733],[-183,-393],[1770,-435],[1596,5],[369,161],[446,-643],[850,-5],[323,-565]],[[40858,60858],[-92,-987],[1179,-380],[-599,-279],[489,-746],[97,-851]],[[41932,57615],[-471,-302],[-306,312],[-340,-819],[-576,-595],[-590,-144]],[[47367,62632],[561,-1607],[1496,-182],[994,-827],[877,183],[723,-771]],[[44951,56636],[-1018,1586],[-663,-420],[-1338,-187]],[[40858,60858],[521,68],[107,762],[1136,407],[1142,800],[-868,483]],[[34471,42604],[-666,-175],[-121,-384],[-817,-645],[-347,410],[-776,154],[-507,-476],[-1319,275],[-380,-685],[-1222,-376]],[[28316,40702],[-1455,2658]],[[26861,43360],[387,241],[-464,1030],[1648,1539],[2075,201],[946,-22]],[[26861,43360],[-384,685],[-2268,3210]],[[13611,52268],[-287,1154],[-399,740],[-362,1256]],[[34622,35746],[64,-704],[-1012,-1190]],[[33674,33852],[-1023,281],[-392,-862]],[[32259,33271],[-176,630],[-743,1344],[-2130,4197],[-894,1260]],[[79531,57131],[1025,-92],[1361,-697],[353,-870],[941,277],[269,351],[556,-473],[591,55]],[[84627,55682],[-609,-1473],[-664,-2277],[-1419,-1056],[-636,-139],[-997,250],[-599,-200],[-1466,-925]],[[78237,49862],[-1357,344],[-492,-1018],[284,-602],[90,-1282],[843,-316],[435,366],[216,-409],[-672,-496],[-331,-902],[-476,-2024],[-297,-539],[-656,8],[28,-1692],[843,-567],[-492,-279],[-241,-1019],[1328,-767],[-139,-1178],[-571,-401]],[[76580,37089],[-1164,598],[-805,-278]],[[74611,37409],[-1070,993],[222,1396],[1195,756],[-502,874],[1088,1022],[-79,558],[-1304,1107],[-126,627],[830,287],[75,-416],[596,-123],[744,877],[-469,1523]],[[75811,46890],[166,1274],[-373,1695],[-547,373],[736,981]],[[75793,51213],[553,767],[477,120],[405,608],[1240,347],[440,-1027],[1046,1074],[-381,1110],[279,1365],[532,-488],[-13,586],[634,226],[-656,679],[-1491,226],[673,325]],[[42486,73208],[1216,106],[400,264],[280,1345],[720,175],[530,536],[1863,-211],[1212,1216],[1881,1054],[-493,574]],[[50095,78267],[4603,1363],[1742,597],[3489,1053]],[[59929,81280],[-253,-347],[461,-665],[398,-1466],[-428,-662],[113,-791],[-1051,-1304],[464,-850],[-24,-1087],[-281,-984]],[[41440,21263],[635,1188],[236,-66],[379,1034]],[[42690,23419],[1750,-1079],[-46,-705]],[[44394,21635],[100,-1043],[-584,-1388]],[[43910,19204],[-371,-29],[-1059,-1896]],[[42480,17279],[-220,292],[38,1016],[-468,837],[545,1089],[-935,750]],[[48407,25317],[44,-2121]],[[48451,23196],[-808,-1530],[-579,-259],[-563,197],[-2107,31]],[[42690,23419],[23,316],[905,22],[180,630],[-218,856],[669,244],[1148,-78],[-173,466],[521,292]],[[45745,26167],[1648,-26],[1014,-824]],[[48582,18445],[-132,-389]],[[48450,18056],[-469,-423],[-984,-246],[229,-562],[-315,-1489],[-1276,-533],[-1205,659]],[[44430,15462],[-412,636],[-776,-128],[-766,535]],[[42476,16505],[4,774]],[[43910,19204],[346,-606],[2267,694],[925,-752],[1134,-95]],[[52253,19113],[-563,-1022],[-1454,-721],[1454,-1391],[715,-229],[383,214],[782,-1117],[548,22],[165,-492],[1593,-190]],[[55876,14187],[-161,-620],[-730,-1122],[-538,-495],[-1413,-198],[-340,405]],[[52694,12157],[-1492,329],[-522,-210]],[[50680,12276],[-187,403],[863,847],[-113,1144],[-983,-67],[-749,415],[636,770],[66,781],[-881,1263],[-882,224]],[[48582,18445],[132,739],[1515,-131],[-136,-408],[1719,630]],[[51812,19275],[441,-162]],[[84153,25293],[1817,190],[1484,-653]],[[87454,24830],[510,-941],[-751,-433],[-1119,-332],[-546,-1097],[-1003,-473],[-432,-642],[-653,-26],[7,-356],[-1476,472],[-569,-279],[-1439,417],[-1672,-134],[-647,-740],[-91,-473],[-1513,-144],[-743,-686],[-1461,1102],[-797,285],[-669,546]],[[72390,20896],[413,981],[-748,1215],[533,-293],[210,513],[-539,1113]],[[72259,24425],[641,-229],[356,433],[1068,-299]],[[74324,24330],[888,-481],[2690,-517],[607,460],[221,-686],[1089,157],[-91,1645],[-256,388],[-1829,975],[410,614]],[[78053,26885],[1251,-279],[2064,-1267],[2785,-46]],[[43221,38940],[436,-477],[-477,-932],[-558,-587],[384,-338]],[[43006,36606],[-2949,-1420],[-442,-596],[-315,-943]],[[39300,33647],[-356,-526],[-64,-1038],[-566,-633],[-502,562],[-310,-211]],[[37502,31801],[-257,150],[-1563,-398],[-112,-337],[-1214,-229],[-124,1596],[-558,1269]],[[39979,39022],[738,-63],[328,562],[1343,-609],[833,28]],[[43006,36606],[746,115],[811,-432],[1400,811],[341,542],[1647,-1703],[896,281],[137,-341],[774,-200],[10,-643]],[[49768,35036],[-790,-376],[-706,517],[-734,-203],[-568,-655],[269,-630],[1411,27],[715,-1049],[46,-749]],[[49411,31918],[-1088,-712]],[[48323,31206],[-461,-564],[-1861,16],[-961,-721],[-1086,32],[-643,563],[-279,994],[-821,781],[-2096,535],[-815,805]],[[52486,41382],[-551,-725],[425,-382],[-683,-516],[599,-909],[51,-899],[-291,-139],[340,-896],[-353,-235],[-820,-1486]],[[51203,35195],[-1435,-159]],[[43221,38940],[1140,1451],[1289,758],[2436,-187],[1667,-1308],[778,380],[-90,1357],[515,927]],[[50956,42318],[603,-539],[927,-397]],[[48871,47166],[945,-206],[79,-527]],[[49895,46433],[-483,-1150],[-434,-210],[246,-516],[449,77],[1860,-928],[577,-586],[-1197,-538],[43,-264]],[[52694,12157],[-320,-910],[694,-167],[33,-789],[-479,-150],[715,-267],[587,-638],[1148,-26],[666,-382],[-31,-396],[763,44],[113,329],[762,-341],[163,-1758],[-830,219],[-635,-861],[-1189,457],[-26,451],[-989,-216]],[[53839,6756],[-761,812],[-533,159],[-540,699],[-866,86],[-1092,785],[-932,290]],[[49115,9587],[-65,764]],[[49050,10351],[149,679],[722,860],[759,386]],[[53839,6756],[-458,-476],[-342,-1344],[-942,-386]],[[52097,4550],[-1053,346]],[[51044,4896],[186,799],[-1171,1020],[-1754,1031],[-110,396]],[[48195,8142],[978,667],[-58,778]],[[51044,4896],[-1961,318],[-770,-337],[-733,155],[-554,-341],[-1099,546],[-904,-280],[-44,784],[-311,137]],[[44668,5878],[1331,1690],[579,421]],[[46578,7989],[1617,153]],[[52097,4550],[-274,-372],[870,-1054],[-45,-1232],[-951,684],[-873,60],[-2073,-1646],[-490,-875],[-1009,-115],[-1615,3381],[-945,536],[-1099,1232],[363,311]],[[43956,5460],[712,418]],[[42996,12676],[848,-729],[1439,-155],[-191,-585],[533,-1767],[456,-474],[-260,-257],[757,-720]],[[43956,5460],[-620,882],[-1283,3094],[-871,1906],[-270,956]],[[40912,12298],[2084,378]],[[42996,12676],[632,236],[65,677],[1119,178]],[[44812,13767],[100,-223],[1151,534],[428,457],[730,-214],[7,-1197],[-374,-375],[170,-471],[1357,-369],[1036,648],[496,-29],[-962,-946],[-355,-1155],[454,-76]],[[44430,15462],[-38,-397],[689,-934],[-269,-364]],[[40912,12298],[-1074,2731],[198,119]],[[40036,15148],[134,807],[1224,722]],[[41394,16677],[1082,-172]],[[40036,15148],[-126,-14],[-940,2013],[-254,942],[-384,466],[-341,1047]],[[37991,19602],[1617,-128],[515,259],[1271,-3056]],[[41192,21607],[248,-344]],[[37991,19602],[-843,2460]],[[37148,22062],[715,391]],[[37863,22453],[797,-2227],[599,514],[793,190],[1140,677]],[[37863,22453],[-774,1690],[1924,121],[-248,333],[663,251]],[[39428,24848],[454,19],[-25,-730],[1117,144],[353,-1634],[-317,-707],[182,-333]],[[39428,24848],[-76,571],[494,479],[216,1625]],[[40062,27523],[563,7]],[[40625,27530],[407,-204],[1897,20],[558,821],[269,-291],[1010,-160],[759,-693]],[[45525,27023],[540,-480],[-320,-376]],[[40625,27530],[-199,1377],[-995,133],[-594,412],[8,931],[-292,418],[-969,428],[-82,572]],[[48323,31206],[432,-1037],[-38,-1685],[-584,-702],[-753,559],[-605,-39],[-603,-804],[-647,-475]],[[40062,27523],[-1348,-428],[-125,336],[-1067,275],[-801,-698],[-300,401],[-1361,-295]],[[35060,27114],[-827,1749],[-644,-25],[-743,551],[-202,1105],[-472,351],[556,380],[-82,1237],[-387,809]],[[37148,22062],[-845,2238],[-538,987],[-705,1827]],[[76580,37089],[-201,-705],[277,-1022],[-596,-1325],[-433,-227],[561,-545],[-984,-632],[-1243,-1728]],[[73961,30905],[-1456,1326],[-1263,-93],[-1261,962]],[[69981,33100],[426,435],[-748,131],[702,996],[871,63],[646,565],[-521,729]],[[71357,36019],[241,430],[928,141],[846,485],[1239,334]],[[65979,32628],[-7,-459],[958,-122],[979,404],[432,827],[1213,-411]],[[69554,32867],[22,-1082],[-679,-1291],[41,-560],[-794,-518],[137,-378]],[[68281,29038],[-995,439],[-1101,-150],[-1927,-1649],[-1066,104],[-523,-1305],[-694,-193],[-738,538],[-285,633]],[[60952,27455],[712,587],[641,149],[966,818],[18,1410],[331,276]],[[63620,30695],[607,220],[189,991],[541,597],[1022,125]],[[68281,29038],[-1,-1141],[546,-762],[590,103],[529,-667],[-123,-331],[624,-230],[292,-542],[883,-425],[638,-618]],[[72390,20896],[-307,251],[-817,-310]],[[71266,20837],[-1030,937],[-2089,458],[-402,783],[251,356],[-513,224],[-1145,-186],[-1384,263],[-640,-570],[-357,266],[-1137,-87],[-361,-844]],[[62459,22437],[-672,242],[-742,1112],[-880,182]],[[60165,23973],[174,194],[-389,1014],[887,365],[103,746],[-634,310],[-104,593],[750,260]],[[57021,20538],[-235,-513],[345,-601],[-520,-637],[-1171,377],[-979,-518],[-58,-427],[-731,671],[-1419,223]],[[51812,19275],[-167,904],[-304,116],[-684,1099]],[[50657,21394],[664,208],[2183,253],[-136,703],[456,901],[1337,518]],[[55161,23977],[1305,-800],[428,-858],[-128,-827],[255,-954]],[[59924,17308],[-378,-283],[22,-880],[-369,-724],[-1376,-115],[-1808,-890],[-139,-229]],[[57021,20538],[1486,-323],[396,-1106],[753,-744],[268,-1057]],[[48451,23196],[533,-383],[-205,-660],[335,-656],[1543,-103]],[[76060,28467],[1242,-865],[751,-717]],[[74324,24330],[-19,1195],[-1052,987],[160,480],[668,-108],[206,725],[499,229],[79,530],[1195,99]],[[73961,30905],[89,-589],[1115,-699]],[[75165,29617],[300,-273],[773,72],[-178,-949]],[[69554,32867],[427,233]],[[75165,29617],[994,1391],[966,374],[1051,-393],[497,561]],[[78673,31550],[436,-902],[642,587],[100,-456],[1090,246],[1698,-316],[1236,-377],[314,-1215],[-858,-445],[1023,-1536],[-364,-1000],[163,-843]],[[52276,25826],[590,-468],[-118,-865],[1157,-511],[1251,95]],[[55156,24077],[5,-100]],[[48407,25317],[881,373],[938,871],[351,-378],[844,138],[483,-737],[372,242]],[[56361,35931],[1378,-513],[-67,-1497],[735,-214],[803,-965]],[[59210,32742],[-500,-251],[444,-1082]],[[59154,31409],[-1126,-300],[-141,-643],[-1521,-353],[-838,-38],[-136,-639]],[[55392,29436],[-423,423],[-1427,225],[-107,321],[-1194,952],[-185,-202],[-799,378],[-175,-368],[-927,584],[-744,169]],[[51203,35195],[-133,-1115],[273,-684],[692,-536],[553,-9],[1007,880],[93,602],[1000,543],[1486,502],[187,553]],[[55392,29436],[-111,-389],[892,-549],[-548,-12],[-704,-577],[-659,61],[-1289,-948],[-697,-1196]],[[60165,23973],[-2111,-33],[89,1259],[-502,306],[-863,-115],[-41,-609],[-517,79],[-1064,-783]],[[59154,31409],[537,-269],[582,308],[935,94],[1373,-614],[559,143],[480,-376]],[[62459,22437],[-400,-434],[-925,-85],[-443,-421],[509,-1143],[815,-618],[-76,-420],[1250,-951],[-107,-859],[243,-317]],[[63325,17189],[-482,-708],[-1256,-39],[-1663,866]],[[71266,20837],[-1092,-885],[-623,-949],[-1374,-638],[-2108,-135],[-2275,-574],[-469,-467]],[[65912,36584],[-376,-1470],[-958,295],[-487,-471],[267,-961],[1447,37],[-290,-878],[464,-508]],[[59210,32742],[7,379],[700,714],[1001,680],[-471,756],[726,718],[143,846]],[[61316,36835],[597,-101],[1365,230],[579,-299],[559,561],[631,-37],[865,-605]],[[61316,36835],[-61,1090],[535,247],[110,731],[-661,353],[572,370],[-370,706],[551,404],[279,812]],[[62271,41548],[933,457]],[[63204,42005],[-625,-1555],[380,-14],[1316,-950],[835,248],[534,495],[814,-639]],[[66458,39590],[-574,-1075],[321,-856],[-293,-1075]],[[56361,35931],[-169,856],[463,2151],[379,1081],[-827,1379]],[[56207,41398],[379,-210],[494,498],[1186,100],[421,442]],[[58687,42228],[366,535],[989,251],[1730,78]],[[61772,43092],[466,-397],[-291,-957],[324,-190]],[[66458,39590],[223,704],[546,0],[362,-549],[476,-2]],[[68065,39743],[508,-664],[1390,-540],[-716,-103],[391,-778],[705,-106],[691,-1401],[323,-132]],[[90534,53133],[-1053,-1326],[-1479,-2343],[-310,-314],[-1793,-931],[-462,-729],[-3139,-474],[-530,883],[-682,262],[-456,873],[-1066,479],[-957,-133],[-370,482]],[[84627,55682],[657,265],[128,407],[717,58],[1027,1252],[692,249],[521,598],[679,-339],[633,-978],[1061,-276],[-128,-946],[704,-1833],[-897,-467],[113,-539]],[[70532,50762],[-650,-38],[-105,-531],[-938,-1075],[-1907,-752],[-543,-857]],[[66389,47509],[-1776,285],[-776,-358],[-825,-698],[-64,-919],[-302,-640],[1235,-1249],[-677,-1925]],[[61772,43092],[-449,1085],[-624,842],[-454,-24],[61,865],[377,422],[315,1492],[-1229,1113],[325,188],[-533,470],[591,1010],[-22,1309]],[[60130,51864],[440,565]],[[58507,55511],[1564,497],[638,351],[1512,431],[1432,-467]],[[72849,61094],[-1166,-1746],[-3144,-4266],[-959,-1149],[1046,-694],[792,-89],[822,-530],[343,-1324],[-51,-534]],[[60130,51864],[-242,580],[-328,-602],[-789,238],[-797,-119],[-451,-755],[319,-1522],[-1054,197],[-218,-953]],[[56570,48928],[-1040,865],[-1311,-662],[-1039,-27],[-673,-1529]],[[52507,47575],[-2194,501],[80,635],[-674,643],[340,661],[979,-121],[825,243],[203,383],[-756,40],[-489,991]],[[52507,47575],[-456,-816],[-1509,-364],[-647,38]],[[56570,48928],[-163,-1576],[-725,-1417],[-725,256],[-751,-824],[400,-460],[-141,-593],[460,-285],[921,208],[66,-620],[1386,841],[918,-497],[471,-1733]],[[56207,41398],[-676,614],[-647,-293],[-1244,778],[-54,-639],[-1100,-476]],[[95940,41974],[-548,-341],[-799,369],[-1238,-129],[167,-1042],[-1154,-1044],[106,-843],[-424,-1060],[288,-1495],[468,-633],[-1016,-773],[-629,-1552],[397,-784],[698,-726],[928,-435],[1139,-280],[1018,-46],[-395,-1120],[492,-364],[28,-1131],[-737,-717],[-1262,19],[-414,-493],[-1883,23],[-1412,-580],[159,-405],[-1072,-776],[-1391,-786]],[[78673,31550],[743,380],[559,-65],[1125,1043],[-700,1094],[-392,93],[-187,736],[-602,-67],[-202,1152],[-975,1004],[474,1052],[-645,786],[718,581],[1486,431],[704,-738],[895,2603],[1004,1184],[-70,411],[966,1206],[-32,1226],[1050,840],[425,109],[851,-688],[1876,376],[535,-61],[584,-608],[2476,-792],[3048,-2294],[1553,-570]],[[90534,53133],[574,-602],[2306,-30],[961,-929],[607,26],[1242,-366],[183,-785],[1084,-579],[236,-499],[579,-160],[1183,-1236],[-495,-1235],[62,-779],[943,-1178],[-449,-619],[-176,-866],[-589,69],[-1225,994],[-306,-819],[-1104,-835],[-210,-731]],[[71499,44478],[346,262],[405,1154],[-352,329],[620,1366],[800,336],[1558,-480],[935,-555]],[[68065,39743],[438,743],[-367,338],[1044,511],[463,-342],[766,517],[164,725],[695,1124],[231,1119]],[[66389,47509],[-40,-826],[433,-315],[768,-17],[1532,-536],[128,-520],[2289,-817]],[[70532,50762],[388,100],[768,1099],[667,270],[1390,-228],[1723,121],[325,-911]],[[72849,61094],[1584,-619],[1232,-726],[397,-731],[1015,-680],[523,-60],[1931,-1147]],[[50095,78267],[-1194,-246],[-942,-445],[-943,223],[-1133,-386],[279,716],[-217,291],[225,845],[-36,1332],[-691,-17],[-641,733],[-956,-270],[-725,376],[-635,-16],[-1059,-755],[-304,-745],[340,-449],[-527,-258],[-784,270],[-1097,-491],[-321,107]],[[38734,79082],[-887,1562],[329,708],[802,841],[248,1826],[579,774],[5,807],[-2349,632],[-858,595],[-1228,26],[-1109,-178],[-47,347]],[[34219,87022],[88,1151],[510,260]],[[34817,88433],[2424,-854],[604,-328],[1437,-164],[346,401],[1008,-235],[-270,-570],[1172,125],[384,835],[-626,1031],[126,479],[-500,571],[87,438],[747,673]],[[41756,90835],[3163,-81],[1492,-1301],[377,-102],[450,-869],[628,-57],[526,-907],[992,-261],[1357,-715],[39,-1131],[868,-544],[1866,222],[1665,-434],[438,431],[1146,-766],[2931,16],[674,-544],[1816,-741],[-28,-411],[-656,-523],[-637,-128],[-336,-551],[-598,-158]],[[38734,79082],[-245,-834],[-1956,1114],[-978,-287],[269,-708]],[[35824,78367],[-764,300],[-899,-795],[-884,382],[-6,787],[-1289,488]],[[31982,79529],[910,673],[-126,926],[-704,312],[-167,605],[-1211,-304],[-590,311],[1407,1798]],[[31501,83850],[612,-112],[-564,1128],[1294,1301],[1376,855]],[[36157,77232],[489,548],[-822,587]],[[28321,76490],[641,-458],[1424,-241],[864,-317],[20,464],[723,-492],[1973,-642],[827,-523]],[[26410,68808],[131,1250]],[[26541,70058],[458,408],[-645,352],[0,667],[-736,1585],[-51,809],[445,191],[-1089,367],[344,971]],[[25267,75408],[1312,1323],[991,-552],[751,311]],[[28321,76490],[-1032,1268],[812,133],[-295,1009]],[[27806,78900],[731,282],[178,-458],[444,1106],[531,787],[724,-198],[797,-823],[771,-67]],[[25267,75408],[-431,-169],[-819,234],[141,650],[779,313],[109,366],[-850,-118],[-603,-391],[-876,940],[-979,429],[-925,71],[-483,511],[-1328,72],[-415,-1093],[-2201,-79],[-1332,-428]],[[15054,76716],[-1345,819]],[[13709,77535],[732,121],[75,851],[624,-206],[492,269],[-269,758],[-453,199],[-382,1729],[156,677]],[[14684,81933],[251,-250],[2542,36]],[[17477,81719],[-182,-1356],[285,-532],[500,-71],[569,400],[743,-765],[392,81],[-177,-770],[776,-104],[1241,755],[970,-253],[633,481],[462,-372],[1719,859]],[[25408,80072],[1297,-188],[811,-376],[290,-608]],[[26541,70058],[-592,-429],[-1572,351]],[[24377,69980],[-64,1107],[-1317,331],[-832,831],[18,564],[-498,1018],[218,1179],[-259,485],[-1713,-175],[-18,-425],[-767,-377]],[[19145,74518],[-783,526],[-633,-426],[-1177,-78],[-806,-751],[-941,1005],[-321,-40]],[[14484,74754],[-307,619],[886,825],[-9,518]],[[24377,69980],[-402,-467],[-214,396],[-1098,931],[-622,-594],[-1004,-550],[-364,-1780],[130,-332]],[[20803,67584],[-335,22],[-1318,-879]],[[19150,66727],[-830,973],[-241,836],[-445,40],[-221,559],[-766,12],[-625,417],[0,1450],[1927,928],[395,631],[642,33],[159,1912]],[[19150,66727],[-963,-34],[-190,-253],[-1007,583],[620,240],[-279,274],[-1189,91]],[[16142,67628],[-822,272],[-541,-330]],[[14779,67570],[-425,277],[-136,-486],[-627,38],[-456,-427],[-524,222],[-179,906],[687,705],[2,421],[613,435],[54,1845],[-580,63],[-1578,-253]],[[11630,71316],[-104,779],[-400,127]],[[11126,72222],[956,1027],[1316,162],[-107,458]],[[13291,73869],[1045,258],[148,627]],[[14779,67570],[-291,-686],[-560,-444],[96,-525],[-841,-531],[-302,-517]],[[9452,65433],[67,289],[-702,1263],[387,710],[1076,-11],[477,1043],[-164,565],[-721,359],[-373,1327],[69,868],[546,297],[1121,-946],[395,119]],[[8853,64102],[-415,1385],[-818,2114],[-1388,3236]],[[6232,70837],[1803,121],[269,837],[587,943],[1320,285],[507,-787],[408,-14]],[[6232,70837],[-1630,3795]],[[4602,74632],[671,487],[262,-310],[948,589],[1061,179],[1565,705]],[[9109,76282],[313,-354],[1348,788],[529,-265],[-427,-851],[623,-164],[604,-817],[1192,-750]],[[10511,82497],[227,-1170],[944,-34],[-70,-494],[-515,-216],[220,-1783],[744,-822],[1145,-113],[503,-330]],[[9109,76282],[-148,640],[-31,1698],[-198,442],[-1065,-392],[-1431,57],[-271,709],[-1260,-193],[-444,358]],[[4261,79601],[1038,789],[0,713]],[[5299,81103],[238,-312],[1499,694],[1330,1094],[1105,168],[1040,-250]],[[4602,74632],[-602,1437],[-1000,1875]],[[3000,77944],[1000,548],[-206,564],[467,545]],[[3000,77944],[-1286,2635],[-1714,2923],[886,362],[101,893],[325,360],[1468,-170],[600,-736],[1102,-598],[-316,-1590],[1133,-920]],[[18705,85584],[-562,-91],[365,-988],[17,-908],[313,-617],[-851,-1040],[-510,-221]],[[14684,81933],[-1349,555],[-55,453],[-769,321],[372,723],[1228,-57],[497,271],[-1253,561],[-561,-57],[-16,430],[600,895],[594,64],[-1806,1773]],[[12166,87865],[743,164],[1411,999]],[[14320,89028],[198,-791],[884,104],[1237,-232],[-299,-793],[113,-532],[1002,-451],[581,156],[567,-345],[102,-560]],[[31719,96285],[-187,-522],[-1002,-223]],[[30530,95540],[-1402,683],[-243,-426],[-1102,-307],[-233,-874],[281,-1157],[-74,-815],[-486,-178],[-728,-1010],[-1077,-129],[-333,-639],[-146,-1040],[-679,-458],[-1219,-395],[566,-770],[198,-746],[381,-59],[24,-794],[-657,-24],[-233,-476],[-559,-111]],[[22809,85815],[-494,189]],[[22315,86004],[-295,1062],[-1509,192],[-368,1112],[-531,646],[764,664],[978,458],[1315,1501],[994,343],[236,662],[-298,718],[382,116],[1537,1730],[810,298],[485,473],[273,952],[-591,2128]],[[26497,99059],[2519,-493],[561,107],[1056,-651],[620,-734],[466,-1003]],[[30530,95540],[1066,-944],[-98,-372],[1358,-1119]],[[32856,93105],[-458,-1125],[-769,-429]],[[31629,91551],[-139,-280],[-1611,-263],[-146,-358],[751,-1169],[-1225,86],[-272,-1844],[-518,-36],[577,-810],[-1381,-394],[67,-664],[-718,218],[-373,-453],[-788,347],[26,-476],[-1619,-291]],[[24260,85164],[-763,-266],[-39,563],[-649,354]],[[41125,95499],[463,-452],[-279,-1037],[-694,-238],[-95,-407],[1779,-1046],[815,-25],[81,-497],[-448,-528],[-991,-434]],[[34817,88433],[-1130,876],[-239,487],[-1819,1755]],[[32856,93105],[1464,38],[566,730],[961,169],[3402,1488],[1876,-31]],[[22315,86004],[-335,-636],[496,-304],[-1060,-352],[-641,119],[-505,627],[-322,-361],[-715,124],[-92,560],[-436,-197]],[[14320,89028],[-151,310],[1136,814],[968,-347],[961,1134],[354,-119],[827,501],[-23,446],[1596,814],[180,426],[963,3],[313,374],[25,830],[339,580],[2259,611],[449,624],[387,1466],[469,633],[92,941],[1033,-10]],[[10511,82497],[586,555],[-455,852],[-1025,22],[-411,486],[136,1278],[-933,424],[244,287],[1174,67],[540,805],[600,-57],[507,554],[175,-585],[517,680]],[[31719,96285],[1335,150],[-88,757],[1426,-17],[681,-668],[1238,1033],[-693,468],[-35,381],[-1010,448],[467,873],[1222,289],[919,-282],[2251,-286],[515,-413],[2233,-1250],[72,-855],[-345,-920],[-782,-494]],[[16142,67628],[-159,-587],[285,-397],[-21,-869],[493,-1494],[950,-1016],[868,106],[1177,-369],[-528,-988],[-854,-241],[-109,-570],[-867,-465],[-412,-503]],[[20803,67584],[592,-402],[-112,-564],[581,-570],[-61,-492],[517,-599],[151,-1068]],[[31501,83850],[-1756,91],[-471,-204],[-1289,-69],[-9,-817],[-1402,-963],[-293,264]],[[26281,82152],[154,1040],[-1145,-323],[-910,893],[-120,1402]],[[25408,80072],[-203,839],[-1204,840],[818,452],[791,-286],[671,235]]],"transform":{"scale":[6.0972609726096845e-06,6.8089680896808935e-06],"translate":[75.53623,11.12498]},"objects":{"villages":{"type":"GeometryCollection","geometries":[{"arcs":[[0,1,2,3,4,5]],"type":"Polygon","properties":{"n":"Chakkittapara","c":627372,"d":"Kozhikode","s":"KERALA"}},{"arcs":[[6,7,8,9,10]],"type":"Polygon","properties":{"n":"Changaroth","c":627370,"d":"Kozhikode","s":"KERALA"}},{"arcs":[[11,-4,12,13,14,-8]],"type":"Polygon","properties":{"n":"Perambra","c":627373,"d":"Kozhikode","s":"KERALA"}},{"arcs":[[15,16,17,-9,-15]],"type":"Polygon","properties":{"n":"Koothali (CT)","c":627388,"d":"Kozhikode","s":"KERALA"}},{"arcs":[[18,-17,19,20,21,22]],"type":"Polygon","properties":{"n":"Eravattur (CT)","c":627387,"d":"Kozhikode","s":"KERALA"}},{"arcs":[[23,24,-10,-18,-19,25]],"type":"Polygon","properties":{"n":"Palery","c":627369,"d":"Kozhikode","s":"KERALA"}},{"arcs":[[26,27,28,29,30,31,32]],"type":"Polygon","properties":{"n":"Ulliyeri (CT)","c":627398,"d":"Kozhikode","s":"KERALA"}},{"arcs":[[33,34,35,36,-31,37,38,39]],"type":"Polygon","properties":{"n":"Avitanallur","c":627381,"d":"Kozhikode","s":"KERALA"}},{"arcs":[[40,41,42,-32,-37]],"type":"Polygon","properties":{"n":"Balusseri (CT)","c":627397,"d":"Kozhikode","s":"KERALA"}},{"arcs":[[43,44,45,-33,-43,46]],"type":"Polygon","properties":{"n":"Atholi (CT)","c":627400,"d":"Kozhikode","s":"KERALA"}},{"arcs":[[47,48,-34,49,50]],"type":"Polygon","properties":{"n":"Koorachundu","c":627379,"d":"Kozhikode","s":"KERALA"}},{"arcs":[[51,52,53,54,55,56]],"type":"Polygon","properties":{"n":"Payyoli","c":627367,"d":"Kozhikode","s":"KERALA"}},{"arcs":[[57,58,-56,59,60]],"type":"Polygon","properties":{"n":"Iringal (CT)","c":627386,"d":"Kozhikode","s":"KERALA"}},{"arcs":[[-22,61,62,63,64,65,66]],"type":"Polygon","properties":{"n":"Cheruvannur","c":627368,"d":"Kozhikode","s":"KERALA"}},{"arcs":[[67,68,69,-63]],"type":"Polygon","properties":{"n":"Meppayyur (CT)","c":627390,"d":"Kozhikode","s":"KERALA"}},{"arcs":[[70,71,72,-70]],"type":"Polygon","properties":{"n":"Kozhukkallur (CT)","c":627391,"d":"Kozhikode","s":"KERALA"}},{"arcs":[[-73,73,74,75,-53,76,-64]],"type":"Polygon","properties":{"n":"Thurayur (CT)","c":627392,"d":"Kozhikode","s":"KERALA"}},{"arcs":[[-72,77,78,79,80,-74]],"type":"Polygon","properties":{"n":"Keezhariyur (CT)","c":627394,"d":"Kozhikode","s":"KERALA"}},{"arcs":[[-81,81,82,83,-75]],"type":"Polygon","properties":{"n":"Moodadi","c":627375,"d":"Kozhikode","s":"KERALA"}},{"arcs":[[84,85,-82,-80]],"type":"Polygon","properties":{"n":"Quilandy (M)","c":803266,"d":"Kozhikode","s":"KERALA"}},{"arcs":[[-71,-69,86,87,-29,88,-78]],"type":"Polygon","properties":{"n":"Arikkulam (Part)","c":627376,"d":"Kozhikode","s":"KERALA"}},{"arcs":[[89,90,-38,-30,-88]],"type":"Polygon","properties":{"n":"Naduvannur (CT)","c":627395,"d":"Kozhikode","s":"KERALA"}},{"arcs":[[-87,-68,-62,-21,91,92,93,-90]],"type":"Polygon","properties":{"n":"Nochad","c":627374,"d":"Kozhikode","s":"KERALA"}},{"arcs":[[94,-50,-40,95,-93,96,-13,-3]],"type":"Polygon","properties":{"n":"Kayanna","c":627378,"d":"Kozhikode","s":"KERALA"}},{"arcs":[[-27,-46,97,98,99]],"type":"Polygon","properties":{"n":"Chengottukavu","c":627382,"d":"Kozhikode","s":"KERALA"}},{"arcs":[[-89,-28,-100,100,-85,-79]],"type":"Polygon","properties":{"n":"Quilandy (M)","c":803266,"d":"Kozhikode","s":"KERALA"}},{"arcs":[[-76,-84,101,-54]],"type":"Polygon","properties":{"n":"Thikkody (CT)","c":627393,"d":"Kozhikode","s":"KERALA"}},{"arcs":[[[102,103,104,-98,-45]],[[105,106,107,108,109,110,111]]],"type":"MultiPolygon","properties":{"n":"Chemancheri (CT)","c":627399,"d":"Kozhikode","s":"KERALA"}},{"arcs":[[-5,-12,-7,112,113,114]],"type":"Polygon","properties":{"n":"Chempanoda","c":627371,"d":"Kozhikode","s":"KERALA"}},{"arcs":[[-92,-20,-16,-14,-97]],"type":"Polygon","properties":{"n":"Menhaniam (CT)","c":627389,"d":"Kozhikode","s":"KERALA"}},{"arcs":[[-39,-91,-94,-96]],"type":"Polygon","properties":{"n":"Kottur","c":627377,"d":"Kozhikode","s":"KERALA"}},{"arcs":[[115,116,117,118,119]],"type":"Polygon","properties":{"n":"Kozhikode (M Corp.)","c":803267,"d":"Kozhikode","s":"KERALA"}},{"arcs":[[120,121,-117,122,123]],"type":"Polygon","properties":{"n":"Kozhikode (M Corp.)","c":803267,"d":"Kozhikode","s":"KERALA"}},{"arcs":[[124,125,126,127,-119,128]],"type":"Polygon","properties":{"n":"Kozhikode (M Corp.)","c":803267,"d":"Kozhikode","s":"KERALA"}},{"arcs":[[129,130,131,132,-125,133,134]],"type":"Polygon","properties":{"n":"Pantheeramkavu (CT)","c":627433,"d":"Kozhikode","s":"KERALA"}},{"arcs":[[135,136,137,138,139,140]],"type":"Polygon","properties":{"n":"Kodiyathur","c":627420,"d":"Kozhikode","s":"KERALA"}},{"arcs":[[141,142,143,144,-103,-44,145]],"type":"Polygon","properties":{"n":"Thalakkulathur (CT)","c":627423,"d":"Kozhikode","s":"KERALA"}},{"arcs":[[146,147,148,149,-143]],"type":"Polygon","properties":{"n":"Chelannur (CT)","c":627422,"d":"Kozhikode","s":"KERALA"}},{"arcs":[[150,151,-147,-142,152,153]],"type":"Polygon","properties":{"n":"Kakkur","c":627401,"d":"Kozhikode","s":"KERALA"}},{"arcs":[[-153,-146,-47,-42,154,155]],"type":"Polygon","properties":{"n":"Nanmanda (CT)","c":627421,"d":"Kozhikode","s":"KERALA"}},{"arcs":[[156,157,158,159,-132]],"type":"Polygon","properties":{"n":"Ramanattukara (CT)","c":627435,"d":"Kozhikode","s":"KERALA"}},{"arcs":[[160,161,162,163,-158]],"type":"Polygon","properties":{"n":"Feroke (CT)","c":627439,"d":"Kozhikode","s":"KERALA"}},{"arcs":[[164,165,166,-163]],"type":"Polygon","properties":{"n":"Karuvanthuruthy (CT)","c":627438,"d":"Kozhikode","s":"KERALA"}},{"arcs":[[-162,167,168,-165]],"type":"Polygon","properties":{"n":"Kadalundi (OG)","c":627442,"d":"Kozhikode","s":"KERALA"}},{"arcs":[[169,-166,-169,170,171]],"type":"Polygon","properties":{"n":"Beypore (CT)","c":627437,"d":"Kozhikode","s":"KERALA"}},{"arcs":[[-159,-164,-167,-170,172,173]],"type":"Polygon","properties":{"n":"Cheruvannur (CT)","c":627436,"d":"Kozhikode","s":"KERALA"}},{"arcs":[[-127,174,-173,-172,175,176,177]],"type":"Polygon","properties":{"n":"Kozhikode (M Corp.)","c":803267,"d":"Kozhikode","s":"KERALA"}},{"arcs":[[-177,178,179]],"type":"Polygon","properties":{"n":"Kozhikode (M Corp.)","c":803267,"d":"Kozhikode","s":"KERALA"}},{"arcs":[[180,-120,-128,-178,-180,181,182,183]],"type":"Polygon","properties":{"n":"Kozhikode (M Corp.)","c":803267,"d":"Kozhikode","s":"KERALA"}},{"arcs":[[184,185,-184]],"type":"Polygon","properties":{"n":"Kozhikode (M Corp.)","c":803267,"d":"Kozhikode","s":"KERALA"}},{"arcs":[[186,187,188,189,-123,-116,-181,-186]],"type":"Polygon","properties":{"n":"Kozhikode (M Corp.)","c":803267,"d":"Kozhikode","s":"KERALA"}},{"arcs":[[190,-144,-150,191,-189]],"type":"Polygon","properties":{"n":"Kakkodi (CT)","c":627424,"d":"Kozhikode","s":"KERALA"}},{"arcs":[[-145,-191,-188,192,193,-104]],"type":"Polygon","properties":{"n":"Elathur (OG)","c":627441,"d":"Kozhikode","s":"KERALA"}},{"arcs":[[-187,-185,-183,194,-193]],"type":"Polygon","properties":{"n":"Puthiyangadi (OG) (Part)","c":645600,"d":"Kozhikode","s":"KERALA"}},{"arcs":[[195,196,197,198,-109]],"type":"Polygon","properties":{"n":"Neeleswaram","c":627414,"d":"Kozhikode","s":"KERALA"}},{"arcs":[[199,200,201,202,203]],"type":"Polygon","properties":{"n":"Chathamangalam","c":627416,"d":"Kozhikode","s":"KERALA"}},{"arcs":[[204,-138,205,206,207,208,-202]],"type":"Polygon","properties":{"n":"Poolacode (CT)","c":627427,"d":"Kozhikode","s":"KERALA"}},{"arcs":[[209,-135,210,211,212]],"type":"Polygon","properties":{"n":"Kuttikkattoor (CT)","c":627431,"d":"Kozhikode","s":"KERALA"}},{"arcs":[[213,-130,-210,214]],"type":"Polygon","properties":{"n":"Perumanna (CT)","c":627434,"d":"Kozhikode","s":"KERALA"}},{"arcs":[[-129,-118,-122,215,-211,-134]],"type":"Polygon","properties":{"n":"Kozhikode (M Corp.)","c":803267,"d":"Kozhikode","s":"KERALA"}},{"arcs":[[-160,-174,-175,-126,-133]],"type":"Polygon","properties":{"n":"Olavanna (CT)","c":627432,"d":"Kozhikode","s":"KERALA"}},{"arcs":[[216,-140,217]],"type":"Polygon","properties":{"n":"Kakkad","c":627419,"d":"Kozhikode","s":"KERALA"}},{"arcs":[[218,219,-218,-139,-205,-201,220,-197]],"type":"Polygon","properties":{"n":"Thazhecode (CT)","c":627428,"d":"Kozhikode","s":"KERALA"}},{"arcs":[[221,222,-141,-217,-220]],"type":"Polygon","properties":{"n":"Kumaranallur","c":627418,"d":"Kozhikode","s":"KERALA"}},{"arcs":[[223,224,-212,-216,-121,225]],"type":"Polygon","properties":{"n":"Kozhikode (M Corp.)","c":803267,"d":"Kozhikode","s":"KERALA"}},{"arcs":[[226,227,228,229,-148,-152,230]],"type":"Polygon","properties":{"n":"Madavoor","c":627417,"d":"Kozhikode","s":"KERALA"}},{"arcs":[[-226,-124,-190,-192,-149,-230,231]],"type":"Polygon","properties":{"n":"Kuruvattur (CT)","c":627425,"d":"Kozhikode","s":"KERALA"}},{"arcs":[[-203,-209,232,-224,-232,-229,233]],"type":"Polygon","properties":{"n":"Kunnamangalam (CT)","c":627426,"d":"Kozhikode","s":"KERALA"}},{"arcs":[[-208,234,235,-215,-213,-225,-233]],"type":"Polygon","properties":{"n":"Peruvayal (CT)","c":627430,"d":"Kozhikode","s":"KERALA"}},{"arcs":[[236,-235,-207]],"type":"Polygon","properties":{"n":"Mavoor (CT)","c":627429,"d":"Kozhikode","s":"KERALA"}},{"arcs":[[237,-204,-234,-228,238,239]],"type":"Polygon","properties":{"n":"Koduvally (OG)","c":627440,"d":"Kozhikode","s":"KERALA"}},{"arcs":[[240,241,242,243,-240]],"type":"Polygon","properties":{"n":"Vavad","c":627404,"d":"Kozhikode","s":"KERALA"}},{"arcs":[[-241,-239,-227,244,245,246,247]],"type":"Polygon","properties":{"n":"Kizhakkoth","c":627403,"d":"Kozhikode","s":"KERALA"}},{"arcs":[[-221,-200,-238,-244,248,249,-198]],"type":"Polygon","properties":{"n":"Puthur","c":627415,"d":"Kozhikode","s":"KERALA"}},{"arcs":[[250,-107,251]],"type":"Polygon","properties":{"n":"Nellipoyil","c":627411,"d":"Kozhikode","s":"KERALA"}},{"arcs":[[252,253,-242,-248,254,255,-48,256,-1,257]],"type":"Polygon","properties":{"n":"Kedavur","c":627406,"d":"Kozhikode","s":"KERALA"}},{"arcs":[[-257,-51,-95,-2]],"type":"Polygon","properties":{"n":"Kanthalad","c":627380,"d":"Kozhikode","s":"KERALA"}},{"arcs":[[-256,258,259,260,-35,-49]],"type":"Polygon","properties":{"n":"Kinalur","c":627383,"d":"Kozhikode","s":"KERALA"}},{"arcs":[[-261,261,-155,-41,-36]],"type":"Polygon","properties":{"n":"Panangad (CT)","c":627396,"d":"Kozhikode","s":"KERALA"}},{"arcs":[[-156,-262,-260,262,-246,263,-154]],"type":"Polygon","properties":{"n":"Sivapuram","c":627385,"d":"Kozhikode","s":"KERALA"}},{"arcs":[[-245,-231,-151,-264]],"type":"Polygon","properties":{"n":"Narikkuni","c":627402,"d":"Kozhikode","s":"KERALA"}},{"arcs":[[264,-136,-223,265]],"type":"Polygon","properties":{"n":"Koodaranji","c":627412,"d":"Kozhikode","s":"KERALA"}},{"arcs":[[-266,-222,-219,-196,-108,-251,266]],"type":"Polygon","properties":{"n":"Thiruvambadi","c":627413,"d":"Kozhikode","s":"KERALA"}},{"arcs":[[267,-110,-199,-250,268]],"type":"Polygon","properties":{"n":"Koodathayi","c":627409,"d":"Kozhikode","s":"KERALA"}},{"arcs":[[269,-269,-249,-243,-254]],"type":"Polygon","properties":{"n":"Raroth","c":627405,"d":"Kozhikode","s":"KERALA"}},{"arcs":[[-259,-255,-247,-263]],"type":"Polygon","properties":{"n":"Unnikulam","c":627384,"d":"Kozhikode","s":"KERALA"}},{"arcs":[[-111,-268,-270,-253,270]],"type":"Polygon","properties":{"n":"Engapuzha","c":627408,"d":"Kozhikode","s":"KERALA"}},{"arcs":[[-112,-271,-258,271]],"type":"Polygon","properties":{"n":"Puthuppadi","c":627407,"d":"Kozhikode","s":"KERALA"}},{"arcs":[[-114,272,273,274,275,276]],"type":"Polygon","properties":{"n":"Kavilumpara","c":627345,"d":"Kozhikode","s":"KERALA"}},{"arcs":[[277,278,279,280,-274]],"type":"Polygon","properties":{"n":"Kayakkodi","c":627346,"d":"Kozhikode","s":"KERALA"}},{"arcs":[[-11,-25,281,-278,-273,-113]],"type":"Polygon","properties":{"n":"Maruthonkara","c":627352,"d":"Kozhikode","s":"KERALA"}},{"arcs":[[282,-26,-23,-67,283,284,285]],"type":"Polygon","properties":{"n":"Velom","c":627350,"d":"Kozhikode","s":"KERALA"}},{"arcs":[[-283,286,287,-279,-282,-24]],"type":"Polygon","properties":{"n":"Kuttiadi","c":627351,"d":"Kozhikode","s":"KERALA"}},{"arcs":[[-286,288,289,290,291,292,293,-287]],"type":"Polygon","properties":{"n":"Purameri","c":627348,"d":"Kozhikode","s":"KERALA"}},{"arcs":[[-285,294,295,296,297,-289]],"type":"Polygon","properties":{"n":"Ayancheri (CT)","c":627362,"d":"Kozhikode","s":"KERALA"}},{"arcs":[[298,299,300,-296]],"type":"Polygon","properties":{"n":"Kottappally (CT)","c":627363,"d":"Kozhikode","s":"KERALA"}},{"arcs":[[-301,301,302,303,304,305,306,-297]],"type":"Polygon","properties":{"n":"Villiappally (CT)","c":627364,"d":"Kozhikode","s":"KERALA"}},{"arcs":[[-304,307,-58,308]],"type":"Polygon","properties":{"n":"Vadakara (M)","c":803265,"d":"Kozhikode","s":"KERALA"}},{"arcs":[[-305,-309,-61,309,310]],"type":"Polygon","properties":{"n":"Vadakara (M)","c":803265,"d":"Kozhikode","s":"KERALA"}},{"arcs":[[-306,-311,311,312,313]],"type":"Polygon","properties":{"n":"Chorode (CT)","c":627361,"d":"Kozhikode","s":"KERALA"}},{"arcs":[[314,-290,-298,-307,-314,315,316,317]],"type":"Polygon","properties":{"n":"Eramala (CT)","c":627359,"d":"Kozhikode","s":"KERALA"}},{"arcs":[[-313,318,319,-316]],"type":"Polygon","properties":{"n":"Onchiam","c":627341,"d":"Kozhikode","s":"KERALA"}},{"arcs":[[-317,-320,320]],"type":"Polygon","properties":{"n":"Azhiyur (CT)","c":627360,"d":"Kozhikode","s":"KERALA"}},{"arcs":[[321,-292,322,323,324]],"type":"Polygon","properties":{"n":"Thuneri (CT)","c":627355,"d":"Kozhikode","s":"KERALA"}},{"arcs":[[325,326,327,328,329]],"type":"Polygon","properties":{"n":"Valayam (CT)","c":627353,"d":"Kozhikode","s":"KERALA"}},{"arcs":[[330,331,332,333,-327]],"type":"Polygon","properties":{"n":"Vanimel","c":627342,"d":"Kozhikode","s":"KERALA"}},{"arcs":[[334,-276,335,-332,336]],"type":"Polygon","properties":{"n":"Thinoor","c":627344,"d":"Kozhikode","s":"KERALA"}},{"arcs":[[-329,337,-325,338]],"type":"Polygon","properties":{"n":"Chekkiad (CT)","c":627354,"d":"Kozhikode","s":"KERALA"}},{"arcs":[[-291,-315,339,-323]],"type":"Polygon","properties":{"n":"Edacheri (CT)","c":627358,"d":"Kozhikode","s":"KERALA"}},{"arcs":[[-337,-331,-326,340]],"type":"Polygon","properties":{"n":"Vilangad","c":627343,"d":"Kozhikode","s":"KERALA"}},{"arcs":[[341,-57,-59,-308,-303]],"type":"Polygon","properties":{"n":"Palayad (CT)","c":627365,"d":"Kozhikode","s":"KERALA"}},{"arcs":[[-300,342,-65,-77,-52,-342,-302]],"type":"Polygon","properties":{"n":"Maniyur (CT)","c":627366,"d":"Kozhikode","s":"KERALA"}},{"arcs":[[-275,-281,343,344,-333,-336]],"type":"Polygon","properties":{"n":"Narippatta","c":627347,"d":"Kozhikode","s":"KERALA"}},{"arcs":[[-280,-288,-294,345,-344]],"type":"Polygon","properties":{"n":"Kunnummal (CT)","c":627356,"d":"Kozhikode","s":"KERALA"}},{"arcs":[[-334,-345,-346,-293,-322,-338,-328]],"type":"Polygon","properties":{"n":"Nadapuram (CT)","c":627357,"d":"Kozhikode","s":"KERALA"}},{"arcs":[[-343,-299,-295,-284,-66]],"type":"Polygon","properties":{"n":"Thiruvallur","c":627349,"d":"Kozhikode","s":"KERALA"}}]}}}