{"type":"Topology","arcs":[[[90424,4424],[461,-20],[183,-3281],[-869,-899]],[[90199,224],[-1592,-224],[-396,503],[-2623,495]],[[85588,998],[242,1363],[1679,24],[378,1025],[1208,122],[113,1038]],[[89208,4570],[1216,-146]],[[85588,998],[-1329,157]],[[84259,1155],[812,2108],[-932,630],[-264,1910]],[[83875,5803],[2085,-808],[1462,165],[1786,-590]],[[93953,3638],[1033,-790],[-692,-160],[-1508,-1068],[-339,-1526],[-2248,130]],[[90424,4424],[-10,1652]],[[90414,6076],[906,-27],[1027,-1802],[1606,-609]],[[66005,6607],[2540,-666],[-687,-1702]],[[67858,4239],[-1469,265],[-3488,1028]],[[62901,5532],[903,1087],[2201,-12]],[[70532,7483],[-245,-1419],[513,-632],[-434,-1940]],[[70366,3492],[-2508,747]],[[66005,6607],[794,292],[519,1540],[-670,603]],[[66648,9042],[348,904],[1009,-228],[-143,-822],[900,-339],[2,-862],[1768,-212]],[[81292,9680],[185,-2063],[544,-96]],[[82021,7521],[-921,-563],[-291,-1297],[35,-1592],[-760,-391],[11,1918],[-591,754],[207,1808],[-264,802],[-1358,-489],[-741,447]],[[77348,8918],[1317,1541],[1415,-212],[1212,-567]],[[95427,9413],[-1358,-938],[-469,-1638],[296,-986],[57,-2213]],[[90414,6076],[84,687],[-1038,152],[205,1355],[1308,922],[1112,1566]],[[92085,10758],[1894,-233],[1448,-1112]],[[76611,9195],[-8,-43]],[[76603,9152],[-417,-1631],[-732,-956],[903,-1209],[1584,-1105],[347,-1990]],[[78288,2261],[-4664,806],[-3258,425]],[[70532,7483],[317,395],[-35,1515],[1001,-122],[506,1906]],[[72321,11177],[1514,-180],[683,-1191],[2093,-611]],[[46005,10832],[240,-549],[2012,-166],[91,-490]],[[48348,9627],[-2229,49],[-1509,-868],[-844,938],[-701,212],[-781,932],[-39,786]],[[42245,11676],[2956,-521],[804,-323]],[[59285,12313],[3390,-781],[475,194]],[[63150,11726],[-765,-1315],[-1100,-270],[-1663,-1073],[-457,-2259]],[[59165,6809],[-2986,754],[-1661,601]],[[54518,8164],[276,2818],[424,99],[-217,1984]],[[55001,13065],[4284,-752]],[[72031,12815],[282,-261]],[[72313,12554],[8,-1377]],[[66648,9042],[-1796,882],[580,1323],[481,1995]],[[65913,13242],[2041,-407],[2355,-195],[1722,175]],[[77581,12496],[-473,-1620],[-42,-1148],[-455,-533]],[[72313,12554],[548,659],[2483,-176],[497,-363],[1740,-178]],[[97394,11433],[-1813,-1549],[-154,-471]],[[92085,10758],[128,1355]],[[92213,12113],[1202,1161],[3157,-1241],[822,-600]],[[81435,10517],[-143,-837]],[[77348,8918],[-745,234]],[[77581,12496],[727,-181],[120,961],[1594,-932],[708,-1823],[705,-4]],[[83875,5803],[-171,1519],[-1683,199]],[[81435,10517],[954,774],[826,-381],[973,1017],[-69,1090],[2625,1143]],[[86744,14160],[1325,-259],[-63,-3275],[1062,1681],[2715,145],[430,-339]],[[72035,13839],[-4,-1024]],[[65913,13242],[-201,1461]],[[65712,14703],[1856,-114],[244,-453],[1610,186],[1366,-762],[1247,279]],[[62901,5532],[-3736,1277]],[[63150,11726],[412,457],[400,1676],[731,868]],[[64693,14727],[1019,-24]],[[54808,14438],[-235,-948],[428,-425]],[[54518,8164],[-2540,762],[-3630,701]],[[46005,10832],[95,1107],[1367,495],[1060,1066],[2381,802],[644,-249],[184,1546]],[[51736,15599],[2089,-393],[983,-768]],[[59474,13620],[-189,-1307]],[[54808,14438],[1312,1389],[1051,-346],[-46,-1309],[2349,-552]],[[90079,16637],[1314,-597],[3179,-301],[1460,-842],[883,-112],[2057,573],[-366,-808],[1296,-693],[97,-1004],[-2337,-1075],[-268,-345]],[[86744,14160],[223,314],[-1052,912],[-46,1035]],[[85869,16421],[3014,282],[871,-547],[325,481]],[[74920,16368],[1583,-1126]],[[76503,15242],[1078,-2746]],[[72035,13839],[239,1100],[-587,2189]],[[71687,17128],[827,60]],[[72514,17188],[241,-308],[2165,-512]],[[85532,17192],[337,-771]],[[76503,15242],[2134,-1044],[264,769],[1305,-423],[1909,1205]],[[82115,15749],[292,1223]],[[82407,16972],[323,297],[1687,-329],[93,467],[1022,-215]],[[82115,15749],[-1901,758],[-529,1445],[1833,299],[166,928]],[[81684,19179],[433,-467],[290,-1740]],[[59549,19369],[505,-764],[-688,-805],[-55,-840],[2786,-794],[-760,-1084],[-1388,322],[-167,-723]],[[59782,14681],[-1413,413],[510,1447],[-118,1231],[-1121,-431],[-142,2078]],[[57498,19419],[743,-308],[390,667],[918,-409]],[[74920,16368],[745,1700],[-794,387],[-2,1391],[2247,-308],[1363,431]],[[78479,19969],[1132,-43],[1121,455],[952,-1202]],[[47363,20193],[2000,2],[1634,-321],[910,-1523]],[[51907,18351],[-171,-2752]],[[42245,11676],[-75,279]],[[42170,11955],[591,1730],[1258,583],[372,1118],[-522,2101],[1092,2644]],[[44961,20131],[524,373]],[[45485,20504],[904,158],[974,-469]],[[59782,14681],[-308,-1061]],[[51907,18351],[418,952],[985,128],[347,1161]],[[53657,20592],[1638,-309],[1066,141],[504,894],[804,-690],[-171,-1209]],[[71659,20861],[855,-3673]],[[71687,17128],[-1737,2127],[156,2307]],[[70106,21562],[-31,283]],[[70075,21845],[1584,-984]],[[61546,22045],[628,-56]],[[62174,21989],[-224,-2700],[1182,-700]],[[63132,18589],[-16,-1182],[479,-2015],[1098,-665]],[[59549,19369],[722,1700],[2,844],[1273,132]],[[44961,20131],[-607,240],[-858,-535],[-1024,531],[-188,1189],[511,509],[2737,285],[-300,-624],[253,-1222]],[[63132,18589],[871,1430],[1062,870],[1204,-193],[729,515],[-484,790],[270,658],[877,282],[1753,-651],[692,-728]],[[34622,23118],[-187,-2263],[463,-626],[-343,-1800],[1709,-754],[8,-631]],[[36272,17044],[-2597,1341],[-2083,669]],[[31592,19054],[-771,752],[698,966],[1903,1760],[410,794],[790,-208]],[[88110,24114],[853,-2135],[1315,-625],[-1139,-145],[-105,-946],[-571,-619],[-1086,-339],[-4,-780],[-1841,-1333]],[[78479,19969],[491,1082],[1031,34],[-201,1056],[542,28]],[[80342,22169],[695,137],[-209,773],[822,528],[964,-604],[853,-1028],[1194,866],[891,-40],[784,1652]],[[86336,24453],[958,114],[816,-453]],[[48983,25206],[1927,-1257],[-116,-1743],[2757,-882]],[[53551,21324],[106,-732]],[[47363,20193],[59,934],[916,2564],[-187,535],[688,992]],[[48839,25218],[144,-12]],[[42170,11955],[-1127,1948],[-2215,1638],[-1683,974]],[[37145,16515],[605,1134],[451,3007],[1125,-275],[970,910],[59,2237],[2083,993]],[[42438,24521],[3321,575]],[[45759,25096],[1340,-186],[1740,308]],[[69304,25042],[735,-604]],[[70039,24438],[-435,-555],[471,-2038]],[[62174,21989],[554,1503],[2353,227],[1667,615],[252,1057],[2304,-349]],[[53671,24114],[217,-1463],[-337,-1327]],[[48983,25206],[2175,-280],[1774,615]],[[52932,25541],[739,-1427]],[[88110,24114],[769,571]],[[88879,24685],[2014,818]],[[90893,25503],[1217,18],[131,-595],[-844,-389],[-146,-1011],[1376,-410],[71,-740],[-836,34],[-1397,-1197],[1068,-924],[-759,-800],[-957,-238],[-158,-950],[420,-1664]],[[74597,25132],[-1157,-1798],[-711,774],[-585,-740],[189,-1593],[-674,-914]],[[70039,24438],[737,411],[1141,-673],[932,357],[-500,1166],[977,503],[69,-489],[1202,-581]],[[75851,26233],[701,-993],[810,-252],[-901,-497],[732,-514],[311,-1074],[1111,16],[1727,-750]],[[74597,25132],[532,-218],[495,1423]],[[75624,26337],[227,-104]],[[38751,26657],[246,-914],[913,-411],[-1573,-1270],[-2749,-357],[-966,-587]],[[31592,19054],[-785,-72],[-1505,736],[-1126,994],[-957,1269]],[[27219,21981],[1943,3023],[-51,593],[3419,271],[788,449],[1817,-331]],[[35135,25986],[778,513],[2838,158]],[[80064,26577],[473,105],[1767,-758],[2190,90],[1842,-1561]],[[75851,26233],[827,1220],[976,-451],[-306,-1000],[442,-884],[1641,-249],[633,1708]],[[35811,28045],[-676,-2059]],[[27219,21981],[-1104,1525],[-1027,758]],[[25088,24264],[174,3350],[719,-750],[930,463]],[[26911,27327],[932,261]],[[27843,27588],[1218,-117],[576,954],[2232,139],[1508,-139],[481,-831],[1953,451]],[[45759,25096],[92,1752]],[[45851,26848],[473,-355],[1370,650],[1553,1561]],[[49247,28704],[2022,-690],[638,307],[455,-1439],[830,-221],[-260,-1120]],[[25088,24264],[-4030,2361]],[[21058,26625],[603,620],[20,928],[1943,1148]],[[23624,29321],[1669,-693],[1078,998],[540,-2299]],[[41141,29642],[1356,-4099]],[[42497,25543],[-59,-1022]],[[37145,16515],[-873,529]],[[38751,26657],[-12,1486],[1214,1754],[1188,-255]],[[75624,26337],[-1271,497]],[[74353,26834],[969,858],[1236,298],[666,1055],[1953,705]],[[79177,29750],[55,253]],[[79232,30003],[1431,-403],[-426,-1315],[-173,-1708]],[[69304,25042],[623,1261],[-426,1341],[430,956],[-325,737]],[[69606,29337],[780,163],[150,-770],[1604,-387],[725,1105],[1281,641]],[[74146,30089],[374,-2030],[-167,-1225]],[[46429,28109],[-578,-1261]],[[42497,25543],[651,485],[-308,934],[739,662],[418,1834],[-114,793]],[[43883,30251],[1277,-1415],[1078,-80],[191,-647]],[[19448,27483],[-1332,706],[-1239,1631]],[[16877,29820],[524,498]],[[17401,30318],[1145,-818],[942,-1480],[-40,-537]],[[61546,22045],[-192,2103],[-916,341],[-1328,2054],[1029,2808]],[[60139,29351],[1361,-364],[3559,-439],[288,-584],[1074,435],[666,1041],[719,-1161],[842,80],[240,1439],[698,1107]],[[69586,30905],[20,-1568]],[[35947,30097],[-631,-184],[692,-1219],[-197,-649]],[[27843,27588],[2367,3012],[1265,395]],[[31475,30995],[-644,-553],[804,-279],[225,558],[1344,-403],[1068,346],[1675,-567]],[[74146,30089],[337,1293]],[[74483,31382],[2909,-1157],[1785,-475]],[[41141,29642],[942,1401],[-94,804]],[[41989,31847],[1894,-1596]],[[49247,28704],[689,599],[-145,800],[890,162],[753,-761],[1518,1543],[295,-256],[1447,890],[1194,387]],[[55888,32068],[2447,-967],[156,-733],[-1153,427],[-291,-1941],[-448,-495],[623,-461],[296,-1716],[1704,-1776],[-561,-459],[-1486,40],[-2020,660],[-1484,-533]],[[29375,32370],[934,-419],[-249,-503],[1415,-453]],[[23624,29321],[367,1089]],[[23991,30410],[1363,741],[2913,1189],[1108,30]],[[41985,32029],[4,-182]],[[35947,30097],[883,1964],[1332,636]],[[38162,32697],[916,12],[2907,-680]],[[90483,30751],[766,-906],[-961,-520],[-36,-635],[995,228],[887,-517],[-1074,-669],[-167,-2229]],[[88879,24685],[-2221,1578],[701,2034],[1847,1632],[-262,952],[-980,964],[-96,932]],[[87868,32777],[1054,-1479],[1561,-547]],[[44001,33723],[274,-930],[916,-567],[1892,204]],[[47083,32430],[268,-1794],[-365,-1780],[-557,-747]],[[41985,32029],[-91,1169]],[[41894,33198],[459,764],[1648,-239]],[[61347,33970],[-241,-3306],[-967,-1313]],[[55888,32068],[2116,1471]],[[58004,33539],[1904,876]],[[59908,34415],[1498,138],[-59,-583]],[[57837,33960],[167,-421]],[[47083,32430],[242,-581],[690,383],[958,-914],[1011,563],[946,1175],[1103,-475]],[[52033,32581],[1070,-66],[115,960],[1326,210],[833,541],[578,-320],[896,894],[986,-840]],[[23991,30410],[-1405,1744]],[[22586,32154],[1227,391],[1122,1060],[-392,1377]],[[24543,34982],[851,74],[2288,-1756],[1693,-930]],[[69742,32354],[-156,-1449]],[[61347,33970],[733,226],[1621,-216],[781,745],[1651,12],[686,323],[603,-1559],[909,-155],[139,-599],[1272,-393]],[[44001,33723],[-513,930],[205,1207],[1157,-160],[1039,-906],[114,523]],[[46003,35317],[1624,477],[601,-451],[-311,-2071],[1633,581],[1163,-575],[847,559],[473,-1256]],[[21058,26625],[-1610,858]],[[17401,30318],[952,1587],[963,1063],[-1032,1172],[-227,1203],[327,719]],[[18384,36062],[-53,307],[1803,-50],[739,-1602],[-272,-238],[1985,-2325]],[[36932,34571],[108,-784],[1404,153],[-282,-1243]],[[29375,32370],[226,1510],[1301,1060],[-181,864]],[[30721,35804],[967,-573],[1123,-8],[789,743]],[[33600,35966],[1168,790],[828,-790],[126,-848],[1210,-547]],[[72877,36630],[0,-602],[1056,-1307],[-396,-655],[729,-94]],[[74266,33972],[-232,-2235],[449,-355]],[[69742,32354],[-79,740],[483,2153]],[[70146,35247],[1478,1679]],[[71624,36926],[1253,-296]],[[41023,36860],[467,-1421],[404,-2241]],[[36932,34571],[1283,884],[1023,16],[65,2261]],[[39303,37732],[1720,-872]],[[74266,33972],[641,984],[1982,906],[844,-535],[934,882],[3125,355],[609,609],[142,1138]],[[82543,38311],[374,-639],[-632,-2393],[853,379],[520,-648],[-445,-992],[-686,-251],[-1078,-1581],[-735,483],[-1241,-636],[350,-914],[-591,-1116]],[[46003,35317],[885,1413],[-24,1237]],[[46864,37967],[444,266]],[[47308,38233],[1395,-68],[1436,-1533],[1849,-255],[869,1101],[1649,-680],[887,-1343],[2012,-730],[432,-765]],[[27885,38135],[343,-22]],[[28228,38113],[1328,-730]],[[29556,37383],[-38,-972],[1203,-607]],[[24543,34982],[991,1020],[-363,433],[-2790,960],[751,1077],[1647,-62],[1685,-1291],[1013,-66],[408,1082]],[[85846,37975],[-613,-2129],[347,-1435],[-1646,-493],[-932,-1678],[847,-746],[2980,261],[1039,1022]],[[82543,38311],[851,1033],[1139,-1002],[1313,-367]],[[17651,39546],[422,-884],[-467,-2281],[778,-319]],[[16877,29820],[-2430,2658],[-1137,920]],[[13310,33398],[-95,1337],[893,746],[286,1319],[-1175,211],[907,1485]],[[14126,38496],[1338,120],[483,774]],[[15947,39390],[1704,156]],[[33600,35966],[-710,1099],[2217,1130],[2410,1738]],[[37517,39933],[1786,-2201]],[[17651,39546],[3094,-228],[526,840]],[[21271,40158],[789,-748],[1202,828],[1462,34],[816,-1229],[1190,-1076],[1155,168]],[[69170,38317],[1023,-865],[-556,-169],[509,-2036]],[[59908,34415],[-1299,729],[225,820],[-581,527]],[[58253,36491],[1156,898],[1283,-757],[1399,401],[-275,597],[1018,138],[688,872],[583,-667],[381,1329],[-448,509],[615,559],[852,-361],[1346,8],[1442,-1910],[877,210]],[[69170,38317],[-611,620],[168,752],[833,-407],[-390,934],[623,481]],[[69793,40697],[928,-287],[889,-1529],[14,-1955]],[[41023,36860],[-469,2231],[901,1608]],[[41455,40699],[743,-922],[1300,-706],[1650,-130],[315,-1786],[568,711],[833,101]],[[16879,41992],[731,-648],[41,-1798]],[[15947,39390],[-158,1427],[1090,1175]],[[14126,38496],[-582,-205]],[[13544,38291],[-122,1099],[826,1345]],[[14248,40735],[2079,1714]],[[16327,42449],[552,-457]],[[29556,37383],[1147,269],[433,1114],[-321,1943],[589,190],[176,2313]],[[31580,43212],[1139,161]],[[32719,43373],[1038,-786],[2221,-684],[440,-1120],[1099,-850]],[[65694,42852],[918,-920],[851,1238],[363,-70],[1043,-1766],[924,-637]],[[58253,36491],[-63,2085],[-791,3271],[422,1460],[1318,216]],[[59139,43523],[854,-1257],[-461,-697],[979,-552],[-495,-855],[1329,14],[1505,609],[-843,920],[248,327],[2142,-1177],[1078,1020],[219,977]],[[25581,42717],[635,-365],[1281,-3100],[731,-1139]],[[21271,40158],[-368,2182],[177,804],[909,730]],[[21989,43874],[2603,-267],[989,-890]],[[13014,43427],[1112,-285],[311,-729],[-499,-748],[310,-930]],[[13544,38291],[-1123,391],[-158,1955],[-1083,-12],[-755,1224]],[[10425,41849],[936,373],[394,2033],[1259,-828]],[[13310,33398],[-1827,1301],[-654,800],[-3143,2179],[-1411,714]],[[6275,38392],[936,1525],[-383,559]],[[6828,40476],[562,457],[240,1437],[-315,455],[489,1728]],[[7804,44553],[1139,-376],[-402,-1281],[1884,-1047]],[[47386,45339],[160,-890],[769,-28],[11,-1120],[665,-1428],[-497,-1262],[-871,70],[183,-890],[-498,-1558]],[[41455,40699],[-81,1080],[-672,1181]],[[40702,42960],[2083,790]],[[42785,43750],[1990,1104],[1577,487],[1034,-2]],[[32719,43373],[-954,1144]],[[31765,44517],[1228,-278],[1338,112],[1578,894]],[[35909,45245],[2166,96]],[[38075,45341],[696,-1994],[-247,-1045],[505,-1256],[2426,-347]],[[16061,44046],[360,-637],[-744,-670],[650,-290]],[[13014,43427],[-492,938],[201,1008]],[[12723,45373],[2081,-381],[319,-1042],[938,96]],[[38075,45341],[39,237]],[[38114,45578],[2588,-2618]],[[25581,42717],[542,305],[-81,898]],[[26042,43920],[162,647]],[[26204,44567],[351,429],[1450,50],[43,1079],[1386,-780],[1596,-1249],[550,-884]],[[21204,45411],[785,-1537]],[[16061,44046],[2477,1886]],[[18538,45932],[477,233],[2189,-754]],[[21204,45411],[526,287],[1270,-876],[110,964],[-453,437]],[[22657,46223],[1982,-453],[197,-1559],[1206,-291]],[[5287,46149],[434,-806],[-134,-1166],[-972,-1301],[-185,-1548],[2398,-852]],[[6275,38392],[-684,717],[-2462,1880],[-3129,2009],[910,1251],[245,1403],[766,90],[1599,-503],[616,1146],[1151,-236]],[[7804,44553],[-252,1159]],[[7552,45712],[1818,232],[942,437],[1916,-68],[1064,740]],[[13292,47053],[-1105,-1076],[536,-604]],[[35056,46622],[853,-1377]],[[31765,44517],[-1588,2005],[388,194]],[[30565,46716],[1255,-355],[1269,706],[1187,-18],[780,-427]],[[80200,46654],[611,-942],[-347,-1405],[-2227,-1034],[-802,523],[-832,-658],[341,-673],[-636,-678],[-1135,808],[-1496,-1102],[1990,-696],[875,-1311],[1230,666],[2568,-536],[1452,596],[1669,1774],[723,-2534],[605,-792],[1486,958],[-417,-827],[380,-433]],[[86238,38358],[-392,-383]],[[72877,36630],[792,1196],[-148,1121],[-1423,2708],[223,732]],[[72321,42387],[1378,232],[1769,2227],[643,1333],[997,958]],[[77108,47137],[1373,-36],[324,-359],[1395,-88]],[[64267,45435],[278,-1054],[1326,-756],[-177,-773]],[[59139,43523],[931,535],[-2267,2287],[540,1011],[917,306],[770,870]],[[60030,48532],[1387,-830],[468,-2112],[778,735],[1082,-958],[522,68]],[[6805,48743],[-124,-1652],[-332,-353],[1147,-433],[56,-593]],[[5287,46149],[481,621],[-759,423],[-311,1371],[2107,179]],[[19823,48775],[-310,-1111],[773,-82],[215,-1754],[954,257],[813,-431],[389,569]],[[18538,45932],[-449,516],[-197,1780],[-698,900]],[[17194,49128],[-215,174]],[[16979,49302],[2844,-527]],[[89080,38698],[132,-872],[-615,-104],[-1606,724],[-753,-88]],[[80200,46654],[1541,1748],[1632,1064]],[[83373,49466],[530,-1912],[871,-244],[1066,-2237],[861,-939],[394,-1415],[911,-527],[-18,-1391],[473,-1385],[619,-718]],[[72321,42387],[-136,527]],[[72185,42914],[885,1425],[-61,1800],[739,1014],[197,1239],[631,958]],[[74576,49350],[415,170],[1275,-1774],[842,-609]],[[19823,48775],[-22,780],[654,-241],[1059,770]],[[21514,50084],[1771,-2674],[2024,-131],[976,189],[122,-1550],[-203,-1351]],[[35972,50124],[-69,-489],[1492,-1596],[719,-2461]],[[35056,46622],[-725,1211],[100,1108],[-419,555],[327,794]],[[34339,50290],[234,-758],[1399,592]],[[9534,50312],[-91,-830],[716,-561],[-605,-956],[1123,-786],[1151,251],[1464,-377]],[[6805,48743],[-117,661],[2846,908]],[[36810,50258],[1531,-134],[956,-549]],[[39297,49575],[2329,-2696],[1610,70],[-333,-1183],[-973,359],[-166,-495],[942,-1047],[79,-833]],[[35972,50124],[838,134]],[[50993,50394],[823,-723],[1238,164],[83,-1527],[1596,-1229],[2359,-188],[887,2523],[2051,-882]],[[47386,45339],[-112,517],[1163,1161],[993,373]],[[49430,47390],[248,-253],[999,1728],[-819,1383],[1135,146]],[[14431,50681],[-317,-1982],[-672,-528],[-150,-1118]],[[9534,50312],[849,429],[1297,-792],[2751,732]],[[72185,42914],[-946,80],[-317,-1263],[-609,838],[-1886,988],[-816,1309],[-130,3736]],[[67481,48602],[1350,953],[-26,902],[883,340],[1766,-104],[1559,-595],[818,304],[212,-1244],[533,192]],[[14431,50681],[434,255],[130,-1488],[689,-1144],[1510,824]],[[65290,48807],[295,-1562],[564,-292],[-642,-894],[222,-716],[-548,-603],[-914,695]],[[60030,48532],[773,1235],[750,475],[310,870]],[[61863,51112],[717,-208],[2710,-2097]],[[65290,48807],[211,533],[-280,2081]],[[65221,51421],[914,-2754],[1346,-65]],[[65154,51385],[67,36]],[[61863,51112],[246,493]],[[62109,51605],[77,136]],[[62186,51741],[388,-449],[1729,-513],[851,606]],[[46606,50286],[483,-699]],[[47089,49587],[579,-788],[1762,-1409]],[[39297,49575],[952,661],[140,712]],[[40389,50948],[480,1365],[3437,-2995],[785,-265],[1515,1233]],[[30565,46716],[804,1010],[-69,814]],[[31300,48540],[-889,2071],[775,788],[577,1371]],[[31763,52770],[676,675],[1900,-3155]],[[47089,49587],[558,1168],[3093,2295],[-116,730]],[[50624,53780],[794,-259],[-425,-3127]],[[36810,50258],[-313,1339],[914,1038],[552,1241]],[[37963,53876],[731,-42],[1228,-1477],[467,-1409]],[[19506,52631],[2,-954],[1458,-757],[548,-836]],[[16979,49302],[-1584,1758],[-1007,1832],[1369,1120]],[[15757,54012],[491,-1078],[865,337],[49,-982],[2344,342]],[[21514,50084],[839,-481],[558,292],[-351,2097],[105,1185]],[[22665,53177],[967,-696],[826,403],[-91,1325],[877,535]],[[25244,54744],[1141,-1353],[1029,-1822],[967,-573],[1815,-2420],[1104,-36]],[[50624,53780],[692,1024]],[[51316,54804],[1775,-908],[1776,-102],[1395,-535],[1299,-147],[863,339],[1234,-194],[459,-772],[1433,-263],[559,-617]],[[19606,53469],[-100,-838]],[[15757,54012],[184,933]],[[15941,54945],[1543,-566],[644,-561],[743,287],[735,-636]],[[40532,55722],[1228,-144],[641,-1848],[603,-517],[1210,12],[1032,-1351],[1289,-784],[71,-804]],[[37963,53876],[1001,537],[1084,1343],[484,-34]],[[19606,53469],[773,-20],[-391,1463],[150,921]],[[20138,55833],[343,24]],[[20481,55857],[891,-1416],[1293,-1264]],[[15941,54945],[-73,1118]],[[15868,56063],[818,235],[697,1721]],[[17383,58019],[792,-407],[1029,-1270],[934,-509]],[[25244,54744],[1874,-174],[1868,986],[-1143,2550]],[[27843,58106],[1356,-431],[2140,787]],[[31339,58462],[1851,113]],[[33190,58575],[366,-922],[-1119,-1249],[465,-1259],[-1180,-303],[-1181,-1443],[1222,-629]],[[27843,58106],[46,870]],[[27889,58976],[1474,-37],[1976,-477]],[[25244,54744],[103,1070],[-397,572],[-189,1986],[493,734]],[[25254,59106],[1100,-519],[1535,389]],[[50624,53780],[-1411,910],[-672,96],[881,1028],[-435,862],[-1118,433],[-808,-296],[-433,-912],[-1011,332],[-532,710],[695,2197]],[[45780,59140],[1766,-640],[810,101],[1896,-1943],[855,-174],[621,-924],[-412,-756]],[[44113,59815],[1667,-675]],[[40532,55722],[749,1047],[205,2205]],[[41486,58974],[2627,841]],[[79861,61599],[493,-1447]],[[80354,60152],[536,-523],[-373,-3043],[144,-794],[1961,-767],[749,-1466],[382,-1539],[-1082,-1758],[702,-796]],[[65154,51385],[-22,1493],[-420,1778],[-926,1605],[-189,1384],[-1180,-265],[-728,315],[-108,1423],[867,427],[280,-732],[796,-337],[-146,1123],[737,1050],[2075,183],[1545,677],[720,-595],[2489,-491],[1432,14],[503,-636],[1411,351],[1295,-24],[1109,1219],[164,-391],[983,732],[788,-482],[1232,393]],[[14689,61210],[1589,-348],[447,-1874],[658,-969]],[[15868,56063],[-930,964],[-619,-643],[-658,304],[-2099,-1323],[106,1231],[505,922],[875,553],[193,973],[-270,1529],[-1587,0],[322,1297],[1466,485],[1517,-1145]],[[36144,60365],[820,-193],[136,-790],[-783,-839],[189,-1235],[1218,-429],[1275,-8],[1299,2167],[1188,-64]],[[33190,58575],[301,809],[-325,1744],[203,1620]],[[33369,62748],[595,-537],[877,-1780],[842,-487],[461,421]],[[92934,40188],[-473,-255],[73,-1535],[-1387,-854],[-2067,1154]],[[80354,60152],[1458,197],[1681,1371],[617,-596],[1909,-356],[729,679],[8,962],[1636,493],[1326,-1507],[753,-1307],[-1161,-1123],[-455,-1022],[573,-2950],[633,-1327],[-128,-983],[319,-1615],[-1602,281],[313,-800],[-404,-824],[479,-427],[-751,-1215],[2247,-1585],[676,-1089],[152,-1285],[2427,-2559],[18,-469],[1246,-1013],[-463,-278],[-1132,733],[-524,-350]],[[23991,63353],[217,-248],[510,-2895],[536,-1104]],[[20481,55857],[-609,1306],[1074,265],[424,976],[-81,1125],[-820,1006],[272,804],[725,240],[-35,948]],[[21431,62527],[1243,-160],[229,1032],[1088,-46]],[[36144,60365],[2043,2563],[1790,880],[760,-541],[1161,371],[668,732]],[[42566,64370],[260,571],[844,-140],[429,613],[934,-826],[491,285],[1066,-1195],[-617,-30],[-650,-800],[-719,-132],[569,1184],[-490,63],[-318,-1444],[-991,-495],[-502,1209],[-895,16],[8,-816],[2128,-2618]],[[14689,61210],[2008,1921],[682,345],[191,1788],[1311,1142]],[[18881,66406],[124,-768],[1121,-934],[367,-1285],[938,-892]],[[42150,66681],[-335,-1347],[751,-964]],[[33369,62748],[-739,405],[-71,705],[917,510],[1286,-570],[946,734]],[[35708,64532],[1240,-221],[295,506],[1203,-117],[-2,844],[1007,868],[713,26],[195,698],[1870,318],[-79,-773]],[[27883,64263],[1395,-535],[3484,-1860],[607,880]],[[23991,63353],[-367,666]],[[23624,64019],[-747,790],[-248,1361],[869,431],[589,1489],[992,-698],[281,-858],[1135,-72],[988,-537],[400,-1662]],[[18881,66406],[1716,1890],[-96,1139]],[[20501,69435],[1383,311],[-81,-1239],[396,-1255],[-750,-1090],[447,-802],[-443,-720],[1030,-1136],[1141,515]],[[25465,73482],[-199,-1934],[855,-191],[-278,-958],[1066,-361],[838,-1110],[240,-1337],[1782,-1131],[-34,-1473],[-1852,-724]],[[20501,69435],[-99,701],[828,574],[1210,2527],[3025,245]],[[46322,66937],[-849,726],[-2556,-263],[-767,-719]],[[35708,64532],[2460,2638],[-749,609],[2560,1487],[-55,943],[845,-271],[1236,854],[173,1557],[-512,121],[1598,2190]],[[43264,74660],[741,-893],[1444,-494],[-1533,-617],[-512,-1407],[1216,-1820],[1348,-525],[815,-1125],[-461,-842]],[[62186,51741],[564,1057],[-1019,1585],[709,1814],[-1817,774],[-1245,140],[459,1287],[637,3171],[1418,1345],[1325,674],[110,735],[-731,2265],[928,-74],[1181,1367],[-99,824],[2899,505],[1949,1373],[1068,1289],[47,2091],[-632,1136],[-81,2480],[1324,1355]],[[71180,78934],[1165,-200],[1159,-924],[1663,232],[293,-517],[-689,-884],[1604,-1295],[-450,-1036],[-1371,-1893],[179,-1501],[-522,-920],[1519,-2632],[783,205],[-154,-3059],[824,-1131],[1119,-172],[1559,-1608]],[[25465,73482],[1340,264],[-138,2241],[-1318,1460],[-1392,783],[-494,1478],[21,1365],[420,314],[-392,1303],[-1573,874],[-88,1207]],[[21851,84771],[3876,-4338],[4728,-1736],[770,-912],[4,-875],[1277,-961],[589,357],[1074,-637],[2111,-714],[1484,-930],[-117,-1227],[1201,-587],[516,603],[615,-310],[1034,2257],[619,667],[1632,-768]],[[46322,66937],[1630,535],[3352,2211],[1279,1875],[-504,691],[27,1313],[639,329],[-885,417],[548,806],[-2501,-273],[-1317,697],[4312,4096],[1819,1988],[520,2029],[1283,3365],[126,884]],[[56650,87900],[501,1169],[838,-518],[1414,514],[1924,-518],[1034,-835],[1721,-28],[3360,-977],[873,-1104],[1241,98],[635,-1116],[1056,-680],[-211,-1539],[725,-648],[-930,-383],[-98,-1844],[447,-557]],[[43264,74660],[814,1358],[-834,984],[-1090,228],[-309,830],[828,1229],[480,1934],[-1809,794],[95,2187],[646,124],[-605,1082],[280,1568],[1123,287],[566,982],[-53,3796],[418,297],[3470,-106],[867,675],[329,1941]],[[48480,94850],[2436,-1660],[802,349],[-154,-790],[1579,-962],[492,631],[590,-730],[-109,-1052],[1051,-689],[-235,-700],[1718,-1347]],[[21851,84771],[1480,1014],[674,1043],[1614,-73],[1929,-1016],[1697,-2056],[837,102],[418,956],[1015,613],[2211,223],[640,1082],[320,1578],[1570,3544],[1868,1816],[-303,751],[-1636,1826],[150,1199],[-950,1359],[-260,1267]],[[35125,99999],[2152,-1662],[1504,-739],[407,451],[2541,-544],[2047,-1413],[1027,301],[595,-491],[997,-4],[254,-501],[1831,-547]],[[84259,1155],[-5971,1106]],[[92934,40188],[-33,-439],[1909,-259],[-928,-1132],[1027,-51],[-327,-1469],[1093,-717],[747,126],[-108,-694],[776,-8],[-86,-1375],[315,-778],[-1169,-322],[-1030,218],[-3520,-138],[-1117,-2399]]],"transform":{"scale":[4.92554925549264e-06,5.011150111501121e-06],"translate":[77.09607,8.0777]},"objects":{"villages":{"type":"GeometryCollection","geometries":[{"arcs":[[0,1,2,3]],"type":"Polygon","properties":{"n":"Agasteeswaram","c":643182,"d":"Kanniyakumari","s":"TAMIL NADU"}},{"arcs":[[-3,4,5,6]],"type":"Polygon","properties":{"n":"Agastheeswaram (TP)","c":803937,"d":"Kanniyakumari","s":"TAMIL NADU"}},{"arcs":[[7,-1,8,9]],"type":"Polygon","properties":{"n":"Kanniyakumari (TP)","c":803939,"d":"Kanniyakumari","s":"TAMIL NADU"}},{"arcs":[[10,11,12]],"type":"Polygon","properties":{"n":"Dharamapuram","c":643189,"d":"Kanniyakumari","s":"TAMIL NADU"}},{"arcs":[[13,14,-11,15,16]],"type":"Polygon","properties":{"n":"Pallanthurai","c":643190,"d":"Kanniyakumari","s":"TAMIL NADU"}},{"arcs":[[17,18,19]],"type":"Polygon","properties":{"n":"Thamaraikulam  (Part)","c":643181,"d":"Kanniyakumari","s":"TAMIL NADU"}},{"arcs":[[20,-10,21,22]],"type":"Polygon","properties":{"n":"Kanniyakumari","c":643184,"d":"Kanniyakumari","s":"TAMIL NADU"}},{"arcs":[[23,24,25,-14,26,27]],"type":"Polygon","properties":{"n":"Puthalam (TP)","c":803936,"d":"Kanniyakumari","s":"TAMIL NADU"}},{"arcs":[[28,29,30]],"type":"Polygon","properties":{"n":"Kadiapattinam","c":0,"d":"Kanniyakumari","s":"TAMIL NADU"}},{"arcs":[[31,32,33,34,35]],"type":"Polygon","properties":{"n":"Neendakara -B","c":643176,"d":"Kanniyakumari","s":"TAMIL NADU"}},{"arcs":[[36,37,-27,-17,38,39]],"type":"Polygon","properties":{"n":"Madhusoodhanapuram  (Part)","c":643178,"d":"Kanniyakumari","s":"TAMIL NADU"}},{"arcs":[[40,-28,-38,41]],"type":"Polygon","properties":{"n":"Parakkai","c":643180,"d":"Kanniyakumari","s":"TAMIL NADU"}},{"arcs":[[42,-23,43,44]],"type":"Polygon","properties":{"n":"Azhagappapuram","c":643183,"d":"Kanniyakumari","s":"TAMIL NADU"}},{"arcs":[[45,-20,46,-24,-41,47]],"type":"Polygon","properties":{"n":"Kulasekarapuram","c":643170,"d":"Kanniyakumari","s":"TAMIL NADU"}},{"arcs":[[-44,-22,-9,-4,-7,48,-18,-46,49,50]],"type":"Polygon","properties":{"n":"Kottaram (TP)","c":803934,"d":"Kanniyakumari","s":"TAMIL NADU"}},{"arcs":[[51,-40,52,53]],"type":"Polygon","properties":{"n":"Vadiveeswaram  (Part)","c":643173,"d":"Kanniyakumari","s":"TAMIL NADU"}},{"arcs":[[-53,-39,-16,-13,54,-33,55,56]],"type":"Polygon","properties":{"n":"Dharmapuram  (Part)","c":643177,"d":"Kanniyakumari","s":"TAMIL NADU"}},{"arcs":[[57,-35,58,-29,59,60]],"type":"Polygon","properties":{"n":"Ganapathipuram (TP)","c":803930,"d":"Kanniyakumari","s":"TAMIL NADU"}},{"arcs":[[61,-36,-58,62]],"type":"Polygon","properties":{"n":"Neendakara-A (Part)","c":643174,"d":"Kanniyakumari","s":"TAMIL NADU"}},{"arcs":[[63,-45,-51,64,65]],"type":"Polygon","properties":{"n":"Anjugrammam (TP)","c":803933,"d":"Kanniyakumari","s":"TAMIL NADU"}},{"arcs":[[66,67,-42,-37,-52,68,69,70]],"type":"Polygon","properties":{"n":"Suchindrum (TP)","c":803929,"d":"Kanniyakumari","s":"TAMIL NADU"}},{"arcs":[[71,-65,-50,-48,-68,72,73,74]],"type":"Polygon","properties":{"n":"Kulasekaram (TP)","c":803898,"d":"Kanniyakumari","s":"TAMIL NADU"}},{"arcs":[[-74,75,76]],"type":"Polygon","properties":{"n":"Eraviputhoor","c":643171,"d":"Kanniyakumari","s":"TAMIL NADU"}},{"arcs":[[77,78,79]],"type":"Polygon","properties":{"n":"Asaripallam (TP)","c":803928,"d":"Kanniyakumari","s":"TAMIL NADU"}},{"arcs":[[-76,-73,-67,80,81]],"type":"Polygon","properties":{"n":"Marangoor","c":643169,"d":"Kanniyakumari","s":"TAMIL NADU"}},{"arcs":[[82,83,-60,-31,84,85,86,87]],"type":"Polygon","properties":{"n":"Kadiapattinam","c":643135,"d":"Kanniyakumari","s":"TAMIL NADU"}},{"arcs":[[-79,88,-63,-61,-84,89,90]],"type":"Polygon","properties":{"n":"Vempanoor","c":643175,"d":"Kanniyakumari","s":"TAMIL NADU"}},{"arcs":[[91,-70,92,93,94]],"type":"Polygon","properties":{"n":"Gandipuram","c":643187,"d":"Kanniyakumari","s":"TAMIL NADU"}},{"arcs":[[95,96,97,-56,-32,-62,-89,-78,98]],"type":"Polygon","properties":{"n":"Peruvilai","c":643188,"d":"Kanniyakumari","s":"TAMIL NADU"}},{"arcs":[[-87,99]],"type":"Polygon","properties":{"n":"Thalakkulam","c":643133,"d":"Kanniyakumari","s":"TAMIL NADU"}},{"arcs":[[-93,-69,-54,-57,-98,100]],"type":"Polygon","properties":{"n":"Nagercoil (M)","c":803927,"d":"Kanniyakumari","s":"TAMIL NADU"}},{"arcs":[[101,102,103]],"type":"Polygon","properties":{"n":"Colachel (M)","c":803917,"d":"Kanniyakumari","s":"TAMIL NADU"}},{"arcs":[[104,-75,-77,-82,105,106,107]],"type":"Polygon","properties":{"n":"Marungur (TP)","c":803925,"d":"Kanniyakumari","s":"TAMIL NADU"}},{"arcs":[[108,109,-90,-83,110,111]],"type":"Polygon","properties":{"n":"Kurunthencode (Part)","c":643134,"d":"Kanniyakumari","s":"TAMIL NADU"}},{"arcs":[[-111,-88,-100,-86,112,113,114,115]],"type":"Polygon","properties":{"n":"Kadiapattinam","c":0,"d":"Kanniyakumari","s":"TAMIL NADU"}},{"arcs":[[116,117,-94,-101,-97,118]],"type":"Polygon","properties":{"n":"Vadasery  (Part)","c":643166,"d":"Kanniyakumari","s":"TAMIL NADU"}},{"arcs":[[119,-109,120,121]],"type":"Polygon","properties":{"n":"Kattimancode","c":643145,"d":"Kanniyakumari","s":"TAMIL NADU"}},{"arcs":[[-66,-72,-105,122,123,124]],"type":"Polygon","properties":{"n":"Thekkumalai RF.(West and East)","c":643185,"d":"Kanniyakumari","s":"TAMIL NADU"}},{"arcs":[[125,-95,-118,126]],"type":"Polygon","properties":{"n":"Nagercoil","c":643167,"d":"Kanniyakumari","s":"TAMIL NADU"}},{"arcs":[[127,-106,-81,-71,-92,-126,128,129]],"type":"Polygon","properties":{"n":"Theroor","c":803926,"d":"Kanniyakumari","s":"TAMIL NADU"}},{"arcs":[[130,-104,131,132,133]],"type":"Polygon","properties":{"n":"Reethapuram (TP)","c":803913,"d":"Kanniyakumari","s":"TAMIL NADU"}},{"arcs":[[134,-107,-128,135]],"type":"Polygon","properties":{"n":"Theroor","c":643168,"d":"Kanniyakumari","s":"TAMIL NADU"}},{"arcs":[[136,-133,137,138,139,140]],"type":"Polygon","properties":{"n":"Palappallam (TP)","c":803895,"d":"Kanniyakumari","s":"TAMIL NADU"}},{"arcs":[[-121,-112,-116,141,142,143]],"type":"Polygon","properties":{"n":"Nullivilai","c":643143,"d":"Kanniyakumari","s":"TAMIL NADU"}},{"arcs":[[-139,144,145,146]],"type":"Polygon","properties":{"n":"Midalam (CT)","c":643120,"d":"Kanniyakumari","s":"TAMIL NADU"}},{"arcs":[[147,148,-114,149,-102,-131,150]],"type":"Polygon","properties":{"n":"Mandaikadu (TP)","c":803918,"d":"Kanniyakumari","s":"TAMIL NADU"}},{"arcs":[[-136,-130,151,152,153,154]],"type":"Polygon","properties":{"n":"Thovala","c":643155,"d":"Kanniyakumari","s":"TAMIL NADU"}},{"arcs":[[-152,-129,-127,-117,155,156,157]],"type":"Polygon","properties":{"n":"Thirupathisaram","c":643153,"d":"Kanniyakumari","s":"TAMIL NADU"}},{"arcs":[[158,-142,-115,-149,159,160]],"type":"Polygon","properties":{"n":"Neyyoor (TP)","c":803912,"d":"Kanniyakumari","s":"TAMIL NADU"}},{"arcs":[[161,162,163]],"type":"Polygon","properties":{"n":"Keezhkulam","c":643098,"d":"Kanniyakumari","s":"TAMIL NADU"}},{"arcs":[[-156,-119,-96,164,165,166]],"type":"Polygon","properties":{"n":" ","c":0,"d":"Kanniyakumari","s":"TAMIL NADU"}},{"arcs":[[167,-141,168,169]],"type":"Polygon","properties":{"n":"Mathicode","c":643121,"d":"Kanniyakumari","s":"TAMIL NADU"}},{"arcs":[[-153,-158,170,171]],"type":"Polygon","properties":{"n":"Chenbagaramanputhur  (Part)","c":643154,"d":"Kanniyakumari","s":"TAMIL NADU"}},{"arcs":[[-160,-148,172,173]],"type":"Polygon","properties":{"n":"Athivilai","c":643144,"d":"Kanniyakumari","s":"TAMIL NADU"}},{"arcs":[[-122,-144,174,175]],"type":"Polygon","properties":{"n":"Villukuri (TP)","c":803911,"d":"Kanniyakumari","s":"TAMIL NADU"}},{"arcs":[[176,-169,-140,-147,177,178]],"type":"Polygon","properties":{"n":" ","c":0,"d":"Kanniyakumari","s":"TAMIL NADU"}},{"arcs":[[179,-173,-151,-134,-137,-168,180,181]],"type":"Polygon","properties":{"n":"Thikkanamcode","c":643142,"d":"Kanniyakumari","s":"TAMIL NADU"}},{"arcs":[[182,-124,183,184]],"type":"Polygon","properties":{"n":"Thekkumalai East","c":643163,"d":"Kanniyakumari","s":"TAMIL NADU"}},{"arcs":[[185,186,-161,-174,-180,187,188]],"type":"Polygon","properties":{"n":"Thackalai","c":643130,"d":"Kanniyakumari","s":"TAMIL NADU"}},{"arcs":[[189,-165,-99,-80,-91,-110,-120,-176,190,191,192]],"type":"Polygon","properties":{"n":"Alur (TP)","c":803916,"d":"Kanniyakumari","s":"TAMIL NADU"}},{"arcs":[[193,-191,-175,-143,-159,-187,194,195]],"type":"Polygon","properties":{"n":"Kalkulam","c":0,"d":"Kanniyakumari","s":"TAMIL NADU"}},{"arcs":[[-179,196,197,198]],"type":"Polygon","properties":{"n":"Paloor","c":643119,"d":"Kanniyakumari","s":"TAMIL NADU"}},{"arcs":[[199,-166,-190,200]],"type":"Polygon","properties":{"n":"Erachakulam","c":643152,"d":"Kanniyakumari","s":"TAMIL NADU"}},{"arcs":[[-195,-186,201,202]],"type":"Polygon","properties":{"n":"Vellimalai (TP)","c":803920,"d":"Kanniyakumari","s":"TAMIL NADU"}},{"arcs":[[-197,-178,-146,203,-164,204,205]],"type":"Polygon","properties":{"n":"Keezhkulam (TP)","c":803893,"d":"Kanniyakumari","s":"TAMIL NADU"}},{"arcs":[[206,-181,-170,-177,207,208,209]],"type":"Polygon","properties":{"n":"Kappiyarai (TP)","c":803909,"d":"Kanniyakumari","s":"TAMIL NADU"}},{"arcs":[[210,211,-171,-157,-167,-200,212,213,214]],"type":"Polygon","properties":{"n":"Thazhakudy (TP)","c":803924,"d":"Kanniyakumari","s":"TAMIL NADU"}},{"arcs":[[215,-188,-182,-207,216,217]],"type":"Polygon","properties":{"n":"Thiruvithancode (TP)","c":803908,"d":"Kanniyakumari","s":"TAMIL NADU"}},{"arcs":[[-154,-172,-212,218,219]],"type":"Polygon","properties":{"n":"Chenbagaramanputhur","c":643165,"d":"Kanniyakumari","s":"TAMIL NADU"}},{"arcs":[[-196,-203,220,221,222]],"type":"Polygon","properties":{"n":"Kalkulam","c":643131,"d":"Kanniyakumari","s":"TAMIL NADU"}},{"arcs":[[223,224,225,-208,-199,226]],"type":"Polygon","properties":{"n":"Paloor  (Part)","c":643099,"d":"Kanniyakumari","s":"TAMIL NADU"}},{"arcs":[[227,-184,-123,-108,-135,-155,-220,228]],"type":"Polygon","properties":{"n":"Thekkumalai West","c":643162,"d":"Kanniyakumari","s":"TAMIL NADU"}},{"arcs":[[229,-205,-163,230,231,232,233]],"type":"Polygon","properties":{"n":"Painkulam","c":643118,"d":"Kanniyakumari","s":"TAMIL NADU"}},{"arcs":[[-217,-210,234,235]],"type":"Polygon","properties":{"n":"Valvachagostam","c":643129,"d":"Kanniyakumari","s":"TAMIL NADU"}},{"arcs":[[-227,-198,-206,-230,236,237]],"type":"Polygon","properties":{"n":"Killiyoor (TP)","c":803892,"d":"Kanniyakumari","s":"TAMIL NADU"}},{"arcs":[[238,-213,-201,-193,239,240]],"type":"Polygon","properties":{"n":"Esanthimangalam","c":643151,"d":"Kanniyakumari","s":"TAMIL NADU"}},{"arcs":[[-214,-239,241,242]],"type":"Polygon","properties":{"n":"Boothapandi (TP)","c":803922,"d":"Kanniyakumari","s":"TAMIL NADU"}},{"arcs":[[-221,-202,-189,-216,243,244]],"type":"Polygon","properties":{"n":"Thackalai","c":0,"d":"Kanniyakumari","s":"TAMIL NADU"}},{"arcs":[[245,-234,246]],"type":"Polygon","properties":{"n":" ","c":0,"d":"Kanniyakumari","s":"TAMIL NADU"}},{"arcs":[[-247,-233,247,248,249,250]],"type":"Polygon","properties":{"n":"Arudesam  (Part)","c":643097,"d":"Kanniyakumari","s":"TAMIL NADU"}},{"arcs":[[-235,-209,-226,251,252,253]],"type":"Polygon","properties":{"n":"Mulagumudu (TP)","c":803905,"d":"Kanniyakumari","s":"TAMIL NADU"}},{"arcs":[[254,-242,-241,255,256]],"type":"Polygon","properties":{"n":"Chiramadam","c":643150,"d":"Kanniyakumari","s":"TAMIL NADU"}},{"arcs":[[257,-224,-238,258,259]],"type":"Polygon","properties":{"n":"Nattalam","c":643117,"d":"Kanniyakumari","s":"TAMIL NADU"}},{"arcs":[[260,-249,261,262]],"type":"Polygon","properties":{"n":"Vavarai","c":643114,"d":"Kanniyakumari","s":"TAMIL NADU"}},{"arcs":[[-262,-248,-232,263,264,265,266]],"type":"Polygon","properties":{"n":"Karungal (TP)","c":803894,"d":"Kanniyakumari","s":"TAMIL NADU"}},{"arcs":[[267,-222,-245,268,269,270]],"type":"Polygon","properties":{"n":"Kothanallur (TP)","c":803903,"d":"Kanniyakumari","s":"TAMIL NADU"}},{"arcs":[[-244,-218,-236,-254,271,272,273,274]],"type":"Polygon","properties":{"n":"Kannanoor","c":643141,"d":"Kanniyakumari","s":"TAMIL NADU"}},{"arcs":[[275,-250,-261,276,277]],"type":"Polygon","properties":{"n":"Mancad (CT)","c":643115,"d":"Kanniyakumari","s":"TAMIL NADU"}},{"arcs":[[-269,-275,278,279]],"type":"Polygon","properties":{"n":"Vilavur (TP)","c":803906,"d":"Kanniyakumari","s":"TAMIL NADU"}},{"arcs":[[-252,-225,-258,280,281,282]],"type":"Polygon","properties":{"n":"Nattalam  (Part)","c":643095,"d":"Kanniyakumari","s":"TAMIL NADU"}},{"arcs":[[283,-259,-237,-246,-251,-276,284,285]],"type":"Polygon","properties":{"n":"Vilathurai (CT)","c":643116,"d":"Kanniyakumari","s":"TAMIL NADU"}},{"arcs":[[-281,-260,-284,286,287]],"type":"Polygon","properties":{"n":"Nalloor (TP)","c":803888,"d":"Kanniyakumari","s":"TAMIL NADU"}},{"arcs":[[288,-265,289]],"type":"Polygon","properties":{"n":"Kollancode (TP)","c":803889,"d":"Kanniyakumari","s":"TAMIL NADU"}},{"arcs":[[-277,-263,-267,290,291,292]],"type":"Polygon","properties":{"n":"Nadaikavu","c":643113,"d":"Kanniyakumari","s":"TAMIL NADU"}},{"arcs":[[293,-273,294,295]],"type":"Polygon","properties":{"n":"Kattathurai","c":643140,"d":"Kanniyakumari","s":"TAMIL NADU"}},{"arcs":[[296,297,-229,-219,-211,298,299,300]],"type":"Polygon","properties":{"n":"Ananthapuram","c":643146,"d":"Kanniyakumari","s":"TAMIL NADU"}},{"arcs":[[301,-257,302,303]],"type":"Polygon","properties":{"n":" ","c":643161,"d":"Kanniyakumari","s":"TAMIL NADU"}},{"arcs":[[304,-291,-266,-289,305]],"type":"Polygon","properties":{"n":"Choozhal","c":643112,"d":"Kanniyakumari","s":"TAMIL NADU"}},{"arcs":[[306,-287,-286,307,308,309]],"type":"Polygon","properties":{"n":"Vilavancode","c":643111,"d":"Kanniyakumari","s":"TAMIL NADU"}},{"arcs":[[310,-297,311,312]],"type":"Polygon","properties":{"n":"Poigaimalai  R.F.","c":643159,"d":"Kanniyakumari","s":"TAMIL NADU"}},{"arcs":[[-300,313,314,315]],"type":"Polygon","properties":{"n":"Azhagiapandipuram","c":643147,"d":"Kanniyakumari","s":"TAMIL NADU"}},{"arcs":[[-282,-288,-307,316,317]],"type":"Polygon","properties":{"n":"Nalloor (TP)","c":803888,"d":"Kanniyakumari","s":"TAMIL NADU"}},{"arcs":[[318,-279,-274,-294,319,320]],"type":"Polygon","properties":{"n":"Attoor  (Part)","c":643127,"d":"Kanniyakumari","s":"TAMIL NADU"}},{"arcs":[[321,-292,-305,322]],"type":"Polygon","properties":{"n":"Adaikkakuzhi (CT)","c":643109,"d":"Kanniyakumari","s":"TAMIL NADU"}},{"arcs":[[323,324,-270,-280,-319,325]],"type":"Polygon","properties":{"n":"Mecode","c":643126,"d":"Kanniyakumari","s":"TAMIL NADU"}},{"arcs":[[326,-303,-256,-240,-192,-194,-223,-268,327,328]],"type":"Polygon","properties":{"n":"Vellimalai (TP)","c":803920,"d":"Kanniyakumari","s":"TAMIL NADU"}},{"arcs":[[329,-322,330]],"type":"Polygon","properties":{"n":"Kulappuram  (CT)","c":643108,"d":"Kanniyakumari","s":"TAMIL NADU"}},{"arcs":[[-315,331,332]],"type":"Polygon","properties":{"n":"Azhagiapandipuram (TP)","c":803921,"d":"Kanniyakumari","s":"TAMIL NADU"}},{"arcs":[[-308,-285,-278,-293,-330,333]],"type":"Polygon","properties":{"n":"Methukummal","c":643110,"d":"Kanniyakumari","s":"TAMIL NADU"}},{"arcs":[[334,-304,335,336]],"type":"Polygon","properties":{"n":"Thadikarankonam","c":643164,"d":"Kanniyakumari","s":"TAMIL NADU"}},{"arcs":[[-332,-314,-299,-215,-243,-255,-302,-335,337,338]],"type":"Polygon","properties":{"n":"Derisanamcope","c":643148,"d":"Kanniyakumari","s":"TAMIL NADU"}},{"arcs":[[339,-338,-337,340,341,342]],"type":"Polygon","properties":{"n":"Arumanalloor  (Part)","c":643149,"d":"Kanniyakumari","s":"TAMIL NADU"}},{"arcs":[[343,344,-328,-271,-325,345,346]],"type":"Polygon","properties":{"n":"Veeyanoor  (Part)","c":643128,"d":"Kanniyakumari","s":"TAMIL NADU"}},{"arcs":[[-320,-296,347,348,349]],"type":"Polygon","properties":{"n":"Athur (TP)","c":803900,"d":"Kanniyakumari","s":"TAMIL NADU"}},{"arcs":[[-329,-345,350,351]],"type":"Polygon","properties":{"n":"Ponmanai","c":643125,"d":"Kanniyakumari","s":"TAMIL NADU"}},{"arcs":[[-346,-324,352,353]],"type":"Polygon","properties":{"n":"Aruvikkarai  (Part)","c":643123,"d":"Kanniyakumari","s":"TAMIL NADU"}},{"arcs":[[354,-317,-310,355,356]],"type":"Polygon","properties":{"n":"Kaliyakkavilai (TP)","c":803884,"d":"Kanniyakumari","s":"TAMIL NADU"}},{"arcs":[[-348,-295,-272,-253,-283,-318,357,358,359]],"type":"Polygon","properties":{"n":"Unnamalaikadai (TP)","c":803887,"d":"Kanniyakumari","s":"TAMIL NADU"}},{"arcs":[[-341,-336,-327,-352,360,361]],"type":"Polygon","properties":{"n":"Surulacode","c":643124,"d":"Kanniyakumari","s":"TAMIL NADU"}},{"arcs":[[362,-357,363,364]],"type":"Polygon","properties":{"n":"Vanniyoor (CT)","c":643105,"d":"Kanniyakumari","s":"TAMIL NADU"}},{"arcs":[[365,-347,-354,366]],"type":"Polygon","properties":{"n":"Ayacode (CT)","c":643139,"d":"Kanniyakumari","s":"TAMIL NADU"}},{"arcs":[[-358,-355,-363,367,368,369]],"type":"Polygon","properties":{"n":"Maruthancode","c":643106,"d":"Kanniyakumari","s":"TAMIL NADU"}},{"arcs":[[-368,-365,370,371,372]],"type":"Polygon","properties":{"n":"Malayadi","c":643104,"d":"Kanniyakumari","s":"TAMIL NADU"}},{"arcs":[[-349,-360,373,374,375,376]],"type":"Polygon","properties":{"n":"Vellamcode","c":643107,"d":"Kanniyakumari","s":"TAMIL NADU"}},{"arcs":[[-375,377,378]],"type":"Polygon","properties":{"n":"Arumanai (TP)","c":803881,"d":"Kanniyakumari","s":"TAMIL NADU"}},{"arcs":[[-378,-374,379,380]],"type":"Polygon","properties":{"n":"Muzhucode","c":643103,"d":"Kanniyakumari","s":"TAMIL NADU"}},{"arcs":[[-361,381,382]],"type":"Polygon","properties":{"n":" ","c":0,"d":"Kanniyakumari","s":"TAMIL NADU"}},{"arcs":[[383,-382,-351,-344,-366,384,385]],"type":"Polygon","properties":{"n":"Ponmanai (TP)","c":803897,"d":"Kanniyakumari","s":"TAMIL NADU"}},{"arcs":[[386,387,-312,-301,-316,-333,-339,-340,388]],"type":"Polygon","properties":{"n":"Asambu R.F.","c":643157,"d":"Kanniyakumari","s":"TAMIL NADU"}},{"arcs":[[389,-372,390]],"type":"Polygon","properties":{"n":"Palugal (TP)","c":803883,"d":"Kanniyakumari","s":"TAMIL NADU"}},{"arcs":[[391,-385,-367,-353,-326,-321,-350,-377,392,393]],"type":"Polygon","properties":{"n":"Thiruvattar (TP)","c":803899,"d":"Kanniyakumari","s":"TAMIL NADU"}},{"arcs":[[394,-313,-388,395]],"type":"Polygon","properties":{"n":"Mahendragiri R.F.","c":643158,"d":"Kanniyakumari","s":"TAMIL NADU"}},{"arcs":[[396,-380,-359,-370,397,398]],"type":"Polygon","properties":{"n":"Edaicode","c":643094,"d":"Kanniyakumari","s":"TAMIL NADU"}},{"arcs":[[-386,-392,399,400]],"type":"Polygon","properties":{"n":" ","c":0,"d":"Kanniyakumari","s":"TAMIL NADU"}},{"arcs":[[-398,-369,-373,-390,401,402]],"type":"Polygon","properties":{"n":"Edaicode (TP)","c":803882,"d":"Kanniyakumari","s":"TAMIL NADU"}},{"arcs":[[403,-400,-394,404,405]],"type":"Polygon","properties":{"n":"Thirparappu (TP)","c":803896,"d":"Kanniyakumari","s":"TAMIL NADU"}},{"arcs":[[406,-393,-376,-379,-381,-397,407,408]],"type":"Polygon","properties":{"n":"Manjalumoodu (CT)","c":643102,"d":"Kanniyakumari","s":"TAMIL NADU"}},{"arcs":[[-408,-399,-403,409,410]],"type":"Polygon","properties":{"n":"Puliyoorsalai","c":643101,"d":"Kanniyakumari","s":"TAMIL NADU"}},{"arcs":[[411,-409,-411,412]],"type":"Polygon","properties":{"n":"Mancode (Part)","c":643093,"d":"Kanniyakumari","s":"TAMIL NADU"}},{"arcs":[[413,-406,414,415]],"type":"Polygon","properties":{"n":"Thirpparappu","c":643122,"d":"Kanniyakumari","s":"TAMIL NADU"}},{"arcs":[[-389,-343,416,417]],"type":"Polygon","properties":{"n":"Veerapuli R.F.","c":643156,"d":"Kanniyakumari","s":"TAMIL NADU"}},{"arcs":[[-415,-405,-407,-412,418,419]],"type":"Polygon","properties":{"n":"Kadayal (TP)","c":803880,"d":"Kanniyakumari","s":"TAMIL NADU"}},{"arcs":[[-417,-342,-362,-383,-384,-401,-404,-414,420,421]],"type":"Polygon","properties":{"n":"Veerapuli Extn. (Old Kulasekarapuram)","c":643137,"d":"Kanniyakumari","s":"TAMIL NADU"}},{"arcs":[[-421,-416,422,423]],"type":"Polygon","properties":{"n":"Veerapuli R.F.","c":643136,"d":"Kanniyakumari","s":"TAMIL NADU"}},{"arcs":[[-423,-420,424,425]],"type":"Polygon","properties":{"n":"Kilamalai R.F.","c":643100,"d":"Kanniyakumari","s":"TAMIL NADU"}},{"arcs":[[-19,-49,-6,426,-25,-47]],"type":"Polygon","properties":{"n":"Thenthamaraikulam (TP)","c":803938,"d":"Kanniyakumari","s":"TAMIL NADU"}},{"arcs":[[-185,-228,-298,-311,-395,427]],"type":"Polygon","properties":{"n":"Aralvaimozhi (TP)","c":803923,"d":"Kanniyakumari","s":"TAMIL NADU"}}]}}}