{"type":"Topology","arcs":[[[49479,7981],[-210,-1866],[360,-1586],[-160,-1168],[-503,-236],[-155,260],[-418,1980],[334,1897],[290,617],[462,102]],[[57937,10725],[279,-449],[-762,-233],[-599,197],[-468,924],[171,709]],[[56558,11873],[646,-918],[733,-230]],[[60824,11748],[-462,-1797],[515,-1024],[69,-1334],[213,-1604]],[[61159,5989],[-825,679],[-473,-1068],[-498,800],[-1,1954],[-333,300],[79,1448],[-348,585]],[[58760,10687],[921,140],[760,1159]],[[60441,11986],[383,-238]],[[56558,11873],[447,447],[456,-423],[5,-386],[471,-786]],[[58760,10687],[74,766],[333,162],[-334,473],[910,353],[698,-455]],[[56498,11969],[60,-96]],[[57937,10725],[823,-38]],[[61159,5989],[-700,-1735],[-770,-156],[-178,-850],[-662,-1860],[-1477,-782],[-2625,16],[-1038,-622],[-465,336],[-683,881],[75,760],[-277,284],[-487,-173],[-559,289],[-507,-780],[-681,-233],[-711,815],[-373,693],[-289,44]],[[48752,2916],[0,234],[-1087,684],[70,1955],[-315,309],[497,730],[-276,776],[328,151],[-125,555],[202,864],[500,477],[292,-530],[1249,-147],[234,616],[1109,748],[-18,818],[829,357],[704,87],[-55,600],[1949,-249],[458,-869],[1009,520],[192,367]],[[60441,11986],[577,809],[254,42]],[[61272,12837],[-448,-1089]],[[48752,2916],[-717,323],[-454,-651],[-1141,309],[-167,1408],[-604,859],[286,622],[-84,642],[174,687],[37,1994],[1037,1591],[1207,640],[1239,870]],[[49565,12210],[1318,716],[341,331],[1533,388],[1180,874]],[[53937,14519],[83,-1207],[649,-22],[850,-766],[683,-171],[296,-384]],[[56931,14603],[-40,-433],[-1447,293],[-180,-575],[866,-755],[635,-341],[-267,-823]],[[53937,14519],[-431,1190]],[[53506,15709],[58,555],[1093,-106],[302,-558],[437,134],[845,-263],[690,-868]],[[56931,14603],[413,-76],[182,995],[676,227],[241,444],[661,122],[170,1364],[850,1231],[32,606],[319,-40],[218,1173]],[[60693,20649],[728,-233],[760,1066]],[[62181,21482],[-670,-7024],[-239,-1621]],[[52689,16929],[-420,-564],[462,-1029],[-680,-47],[-125,-353],[1162,29],[-245,564],[663,180]],[[49565,12210],[-389,1271],[-160,1282],[-68,2139],[345,1677],[-920,220],[-1173,-85],[45,847],[309,1086],[-306,1249]],[[47248,21896],[492,468],[921,236],[112,-338],[-71,-1437],[-638,-969],[937,12],[452,393],[613,-1105],[327,-219],[-256,-467],[392,-428],[-810,-753],[763,388],[601,-422],[868,735],[145,-530],[593,-531]],[[52689,16929],[453,535],[166,1466],[676,1555],[295,-189],[751,1642]],[[55030,21938],[873,-374],[76,773],[424,405]],[[56403,22742],[896,-180],[227,144],[1624,-369],[254,287],[-62,-924],[398,-22],[953,-1029]],[[15281,26498],[929,-338],[-74,-702],[174,-641],[1199,-174],[330,-2561],[825,-193]],[[18664,21889],[316,-1819]],[[18980,20070],[-728,-844],[-40,-682],[-387,284],[-426,-857],[-875,344],[-361,526],[-432,-229],[-579,-695],[-550,-1961],[-22,-578],[-847,613],[-1034,294],[-964,8]],[[11735,16293],[158,1611],[288,1184],[27,1652],[370,1713],[217,477],[778,3017],[149,1379]],[[13722,27326],[514,-997],[1045,169]],[[24027,27555],[-208,-1328],[-273,-202],[-2,-711],[-338,-742],[-241,-2503],[444,-1926],[-168,-2468]],[[23241,17675],[-142,-180],[-1074,164],[-325,538],[-2145,271],[-575,1602]],[[18664,21889],[-120,850],[311,3144],[182,830]],[[19037,26713],[864,-370],[49,359],[1079,362],[-41,-435],[1060,-413],[678,229],[486,660]],[[23212,27105],[815,450]],[[11735,16293],[-124,465],[-884,-354],[-509,-490],[-606,-249],[-625,666],[-816,1464],[-675,673],[179,320],[-51,2310],[246,1228],[173,1808]],[[8043,24134],[470,567],[1044,155],[544,498],[1794,651],[1458,1599]],[[13353,27604],[369,-278]],[[47248,21896],[-61,741]],[[47187,22637],[1080,180],[174,1613],[227,531],[630,-27],[90,935],[367,112],[372,2145]],[[50127,28126],[1398,-1446],[807,1211],[1506,-718],[-200,-462],[300,-662],[16,-642],[928,-86],[37,-1058],[271,-217],[53,-1233],[-213,-875]],[[26040,25620],[200,-1581],[-14,-1159]],[[26226,22880],[399,-3270],[557,-1182],[193,-848],[-202,-642],[-311,144],[-1848,-189],[-943,118],[-198,686],[-632,-22]],[[24027,27555],[547,825],[315,166],[-147,-871],[362,-1819],[936,-236]],[[80963,29528],[16,-1708],[346,124],[-28,-1279],[310,-236],[49,-788]],[[81656,25641],[-594,-2106],[-370,-29],[46,-580],[-614,-286],[-1513,444],[-438,331],[-530,1080],[-92,1641],[-350,-84],[281,1170]],[[77482,27222],[159,27],[-77,1261],[466,1204]],[[78030,29714],[499,-342],[2434,156]],[[61062,28666],[530,-40],[1309,-497]],[[62901,28129],[-3,-894],[-369,-1745],[-5,-905],[-219,-833],[-124,-2270]],[[56403,22742],[-404,1928],[84,1395],[187,920],[78,2199],[324,835]],[[56672,30019],[929,-216],[227,-935],[935,-177],[767,301],[1532,-326]],[[19858,30297],[149,-789],[-292,-1068],[-257,-32],[-284,-706],[-137,-989]],[[15281,26498],[10,653],[641,1620],[-347,692],[40,474]],[[15625,29937],[943,124],[846,-211],[520,346],[881,-384],[1043,485]],[[12378,29004],[507,-1156],[468,-244]],[[8043,24134],[-451,-348],[-684,599],[278,734],[-262,1657],[213,910],[766,796],[972,2105]],[[8875,30587],[2439,-670],[504,-747],[560,-166]],[[91536,29204],[-66,-1324],[-341,-927],[-739,325],[-1010,29],[-1090,268],[-547,465],[2,330],[-758,-106],[-852,287]],[[86135,28551],[-553,1939]],[[85582,30490],[524,571]],[[86106,31061],[755,-473],[1443,8],[585,154],[2033,-345],[461,-604],[153,-597]],[[30813,26878],[-151,-1826],[-201,-842],[27,-791],[-567,123],[-8,-371],[-538,-54],[-642,-418],[-444,356],[-1461,286],[-602,-461]],[[26040,25620],[-574,1562],[192,989],[-152,957],[43,962],[523,1104]],[[26072,31194],[618,-236],[1143,40],[67,-149],[112,-3058],[281,-176],[-51,-637],[1293,29],[1278,-129]],[[55950,30674],[722,-655]],[[50127,28126],[429,2939],[532,138]],[[51088,31203],[317,-171],[31,-882],[1270,337],[819,374],[1607,-203],[818,16]],[[26073,31933],[-1,-739]],[[23212,27105],[349,883],[-71,749],[179,1922],[40,1797]],[[23709,32456],[1355,-362],[131,-431],[878,270]],[[85642,27657],[-1019,-120],[-934,-1412]],[[83689,26125],[-1551,-71],[-482,-413]],[[80963,29528],[258,324],[178,1482],[625,1639]],[[82024,32973],[794,-295],[270,-756],[1143,-448],[113,-294],[1238,-690]],[[86135,28551],[-493,-894]],[[21070,32322],[-204,-1317],[-301,-58],[-112,-600],[-595,-50]],[[15625,29937],[178,1206],[578,1091],[1021,797],[560,1484],[544,-285],[304,-819],[1067,-391],[1193,-698]],[[72645,35357],[-49,-1002],[94,-1826]],[[72690,32529],[-105,-620],[-1574,-115],[11,-636],[-382,-2321],[-875,298],[-19,500],[-648,-85],[-122,-566],[-232,420],[-656,131]],[[68088,29535],[304,835],[184,1613],[-208,110],[-207,1418],[224,128],[-279,853],[49,998]],[[68155,35490],[949,-287],[1763,280],[1778,-126]],[[68088,29535],[-493,-1353],[-1673,266],[-785,-309],[-388,70],[-373,2243],[146,2306],[254,397],[-49,1142]],[[64727,34297],[1892,566],[881,651],[655,-24]],[[21070,32322],[390,647],[164,1630]],[[21624,34599],[678,76],[1467,948],[635,154]],[[24404,35777],[18,-954],[-235,-1403],[-478,-964]],[[25332,35801],[517,-1335],[-13,-1550],[237,-983]],[[24404,35777],[928,24]],[[25332,35801],[536,73],[1183,-218],[543,200],[555,-213],[1458,18],[-258,-902],[319,-829],[-3,-613],[464,-51],[961,273],[163,-581],[-388,-1053],[772,-451],[-517,-1157],[-234,-985],[-73,-2434]],[[78635,35696],[-45,-1330],[-448,-655],[-112,-3997]],[[77482,27222],[-1766,3696],[-1202,325],[417,1362],[-2241,-76]],[[72645,35357],[1806,320],[531,-16],[1583,293],[1671,-55],[399,-203]],[[50346,35958],[-56,-635],[1030,151],[11,-741],[260,-25],[-182,-2863],[-321,-642]],[[47187,22637],[-43,1009],[226,1151],[26,1803],[250,1195],[456,1408],[188,2326],[0,1971],[-242,641],[-119,1109],[205,891]],[[48134,36141],[838,-42],[633,-371],[741,230]],[[61062,28666],[390,909],[40,1788],[-206,2112],[-281,513]],[[61005,33988],[149,442],[622,-399],[455,1743],[545,-17],[889,468]],[[63665,36225],[39,-1541],[-210,-1156],[-222,-2217],[-69,-1456],[-302,-1726]],[[55950,30674],[560,158],[313,515],[98,882],[300,226],[-364,1251],[239,918]],[[57096,34624],[629,859],[566,456]],[[58291,35939],[721,208],[-80,-1630],[1088,-45],[79,269],[704,-9],[202,-744]],[[21611,36190],[13,-1591]],[[12378,29004],[720,1443],[95,631],[1893,2806],[661,648],[-17,796]],[[15730,35328],[573,477],[1443,-450],[234,950],[754,-271],[1959,325],[918,-169]],[[93398,34757],[4,-555],[772,-500],[25,-935],[398,-20],[235,-614]],[[94832,32133],[-116,-697],[-692,-515],[-456,-96],[-761,-1075],[-865,62],[-406,-608]],[[86106,31061],[241,1024],[298,-74],[721,1224],[39,846],[503,962]],[[87908,35043],[1465,1260],[864,-67],[214,542]],[[90451,36778],[1103,-902],[472,-22],[553,-768],[819,-329]],[[97454,35250],[-262,-607],[131,-493],[-901,-599],[-409,-602],[-316,-951],[-865,135]],[[93398,34757],[1143,948],[267,1082],[363,-329],[635,-1388],[1648,180]],[[81209,37154],[-124,-1300],[739,-540],[55,-952],[580,-65],[42,-298],[-477,-1026]],[[78635,35696],[856,291],[297,354],[138,1112]],[[79926,37453],[1283,-299]],[[84435,40179],[1370,-1110],[372,-738],[1026,-760],[687,-2045],[18,-483]],[[81209,37154],[915,1352],[200,787],[924,-43],[422,269],[106,773]],[[83776,40292],[659,-113]],[[64727,34297],[-365,-144],[-360,526],[-45,1673]],[[63957,36352],[417,995]],[[64374,37347],[555,-102],[693,186],[733,645],[503,1363],[141,924]],[[66999,40363],[1282,323],[1090,-94],[481,138]],[[69852,40730],[403,-2450],[1249,-331],[355,-322],[683,-125],[103,-2145]],[[50346,35958],[123,702],[999,729],[546,1235],[492,1830],[-46,1866]],[[52460,42320],[696,-126],[837,-1129],[39,-3485],[-228,-637],[368,55],[363,-486],[23,-1044],[578,-11],[18,-387],[619,-393],[1323,-53]],[[61276,40897],[-55,-1238],[520,-1112],[518,106],[707,-191],[1408,-1115]],[[63957,36352],[-292,-127]],[[58291,35939],[242,491],[-125,1645],[-276,85],[184,1371],[-364,157],[-403,742],[-153,1473],[131,169]],[[57527,42072],[371,-223],[879,76],[499,415]],[[59276,42340],[254,-268],[148,-864],[455,-74],[99,471],[1044,-708]],[[48134,36141],[1238,3598],[578,2228]],[[49950,41967],[654,23],[584,361],[1272,-31]],[[15125,41588],[103,-707],[-261,-1622],[75,-1415],[191,112],[253,-851],[-167,-149],[411,-1628]],[[8875,30587],[5,329]],[[8880,30916],[3274,3677],[767,2158],[19,438],[-706,2017],[-289,536],[146,783],[-68,945],[168,1755]],[[12191,43225],[316,-87],[692,-933],[468,-282],[793,-962],[175,673],[490,-46]],[[90562,42876],[157,-382],[127,-2331],[421,-339]],[[91267,39824],[-451,-1926],[-104,-955],[-261,-165]],[[84435,40179],[14,1322],[328,855],[1587,211],[2223,758],[259,270]],[[88846,43595],[527,-322],[1189,-397]],[[8880,30916],[-327,3070],[630,2908],[-412,748]],[[8771,37642],[315,891],[-27,1506],[111,929],[-223,684],[-811,200],[-61,1270],[541,122],[-92,-348],[596,-567],[529,158],[-213,811],[679,-402],[124,773]],[[10239,43669],[1231,-465],[721,21]],[[69852,40730],[35,646],[647,645]],[[70534,42021],[2336,775],[1161,38]],[[74031,42834],[285,-103],[1484,564],[1941,436]],[[77741,43731],[275,-62],[-19,-1686],[291,-351],[240,-1271],[758,-1197],[640,-1711]],[[55161,45088],[290,-69],[176,-1017],[281,638],[388,0],[15,-765],[1053,-431],[-15,-464],[366,-164],[-188,-744]],[[52460,42320],[566,96],[-71,1450],[1191,478],[1015,744]],[[93691,43333],[10,-1215],[-321,-17],[-144,-747],[52,-955],[-1105,-400],[-916,-175]],[[90562,42876],[910,529],[251,1516],[851,318]],[[92574,45239],[390,-502],[552,-162],[175,-1242]],[[25411,45101],[564,-1059],[591,-24],[754,-600],[1629,-220],[651,-1855]],[[29600,41343],[-380,-2232],[-362,42],[-1029,-456],[-660,111],[-307,340],[-2534,611]],[[24328,39759],[-91,691],[-869,2814],[91,874],[-597,1232],[359,78],[709,-666],[1481,319]],[[8771,37642],[-470,511],[-824,360],[-924,-437],[-886,-678],[-242,560],[-956,151],[-717,704],[15,678],[-1270,604],[159,1055],[640,3034],[1042,-251],[852,373],[586,2810],[2149,-1241],[217,-343],[1132,92],[74,-1085],[937,-264],[-46,-606]],[[67337,47571],[-192,-2580],[-596,-1333],[-88,-956],[397,-566],[-143,-1753],[284,-20]],[[61276,40897],[133,1226],[479,-43],[-9,1131],[466,136],[274,2181],[837,316],[593,-272],[704,2297]],[[64753,47869],[1115,-537],[1469,239]],[[74220,48005],[-15,-1520],[-174,-3651]],[[70534,42021],[321,2579],[-251,653],[-162,1210],[-10,1158]],[[70432,47621],[3169,399],[619,-15]],[[20805,47838],[476,-902],[-51,-891],[-312,-1459],[185,-488],[-292,-823],[-528,-302],[105,-943],[494,84],[39,-1415],[317,-1682],[1014,-286]],[[22252,38731],[-491,-1017],[-150,-1524]],[[15125,41588],[129,128],[914,-535],[768,126],[106,1402],[-159,1939],[-209,258]],[[16674,44906],[681,1293],[797,1035],[491,366]],[[18643,47600],[1264,181],[209,279]],[[20116,48060],[689,-222]],[[90421,48214],[1050,-1056],[888,60],[-58,-1093],[315,-170],[-42,-716]],[[88846,43595],[222,1075],[-264,1489],[130,1315]],[[88934,47474],[350,-340],[391,689],[746,391]],[[87232,48707],[806,-209],[896,-1024]],[[83776,40292],[-727,962],[-214,1835],[385,1932]],[[83220,45021],[956,109],[28,1135],[1129,753],[862,1760],[16,508]],[[86211,49286],[1021,-579]],[[25924,47760],[-270,-473],[-289,-1206],[46,-980]],[[24328,39759],[-941,442],[-819,123],[17,-492],[-333,-1101]],[[20805,47838],[642,904],[147,-233],[960,477],[21,291],[854,291],[443,-237],[284,533],[1024,24],[352,-248],[724,-20],[-234,-678],[-98,-1182]],[[40916,49620],[528,182],[881,-478],[-190,-615],[-44,-2355]],[[42091,46354],[-225,-913],[-265,-159],[-265,-1236],[55,-1559],[380,-206],[-239,-2226],[-519,29],[-1498,939],[-261,606],[-1078,25],[-324,-384],[175,-358],[-312,-729],[-189,218],[-666,-397],[-239,-560],[-210,402],[285,1244]],[[36696,41090],[122,980],[-415,353],[-58,786],[-273,-64],[242,1534],[82,1367]],[[36396,46046],[272,821],[418,207],[578,2757]],[[37664,49831],[1839,-162],[-3,299],[983,-439],[433,91]],[[32539,41807],[23,-482],[-1484,158],[-1478,-140]],[[25924,47760],[2010,389],[1081,476],[-124,379],[137,1331]],[[29028,50335],[581,-547],[252,-591],[770,-255],[1106,-2021],[26,-1238],[-360,-1215],[-51,-1679],[443,-935],[744,-47]],[[94889,45070],[194,-566],[422,9],[362,-404],[495,9],[16,-1533],[916,300],[780,-1417],[-821,-1187],[-306,-659],[275,-1566],[320,284],[-25,-1720],[228,-106],[-291,-1264]],[[93691,43333],[718,-324],[-49,1571],[522,504]],[[94882,45084],[7,-14]],[[63219,50353],[-612,-804],[542,157],[584,-426],[-23,-682],[412,513],[504,193],[127,-1435]],[[59276,42340],[179,1111],[588,147],[83,2308],[-375,-22],[-403,750],[-448,2854]],[[58900,49488],[290,21],[891,912],[518,-128],[582,320],[386,553],[398,-294],[3,-455],[1251,-64]],[[18625,50668],[-384,-1408],[-5,-671],[407,-989]],[[16674,44906],[-569,-828],[-826,80],[-725,883],[-198,1147],[603,1763]],[[14959,47951],[280,25],[305,824],[753,671],[-68,799],[442,1644]],[[16671,51914],[784,-73],[272,-666],[626,140],[272,-647]],[[81853,52025],[-34,-717],[404,-2057],[163,-367],[249,-2363],[367,-13],[-101,-1246],[319,-241]],[[77741,43731],[55,1779],[-479,791],[49,1042],[-108,2206],[281,793],[1198,144],[1081,844],[1427,687]],[[81245,52017],[608,8]],[[55161,45088],[-299,1924],[570,333]],[[55432,47345],[782,-242],[214,387],[1282,-212],[51,1286],[-406,103],[-34,1224],[119,591],[657,-191],[2,1023],[-173,141],[92,986]],[[58018,52441],[573,-98],[489,-1872],[-180,-983]],[[96040,48509],[591,2408]],[[96631,50917],[140,1624],[207,513]],[[96978,53054],[1253,64]],[[98231,53118],[-7,-549],[1259,-955],[382,87],[135,-435],[-782,-2310],[-572,-1422],[-563,93],[-2043,882]],[[31506,52740],[683,-786],[0,-639],[871,57],[675,-264],[897,-1024],[334,-1990],[-162,-996],[164,-846],[732,296],[696,-502]],[[36696,41090],[-222,240],[-946,-83],[85,722],[-751,12],[-194,-422],[-854,-81],[59,944],[-727,276],[-134,-1142],[-473,251]],[[29028,50335],[141,1164],[-345,809],[-112,988]],[[28712,53296],[576,231],[1541,-29],[677,-758]],[[58141,53303],[-123,-862]],[[55432,47345],[-85,707],[204,688],[243,2275],[78,2679]],[[55872,53694],[2269,-391]],[[81853,52025],[278,514],[728,459],[511,931]],[[83370,53929],[1595,-466],[-48,-587],[321,-458],[534,-242],[83,-1190],[359,-1171],[-3,-529]],[[16507,53782],[164,-1868]],[[14959,47951],[-218,2022],[-187,7],[-27,2081],[188,177],[-265,1060],[-300,475]],[[14150,53773],[1041,196],[1316,-187]],[[49950,41967],[12,2328],[145,1589],[1264,2190],[667,1510]],[[52038,49584],[1375,4485]],[[53413,54069],[853,-176],[1175,143],[431,-342]],[[97237,54495],[-259,-1441]],[[96631,50917],[-702,-53],[-152,-360],[-531,-107],[-113,-498],[-549,281],[-231,-1111],[-732,240],[-74,-973],[250,-438],[733,-144],[-226,-329],[307,-606],[-1,-1135],[272,-600]],[[90421,48214],[563,4231],[645,284],[612,1276],[846,972],[754,-360],[1092,-173],[188,-306],[593,38],[794,351],[729,-32]],[[68029,55690],[-28,-733],[-286,-646],[361,-809],[-124,-3818],[185,-2046],[-800,-67]],[[63219,50353],[-110,490],[-642,818],[300,702],[-68,1719],[252,274]],[[62951,54356],[480,-240],[280,-598],[1597,-104],[936,2010],[1785,266]],[[18560,55864],[69,-655],[312,8],[374,-2354],[-215,-242],[-142,-1473],[-333,-480]],[[16507,53782],[49,1180],[187,549],[576,180]],[[17319,55691],[360,190],[881,-17]],[[71339,52581],[-46,-729],[-350,-420],[-513,-1597],[-82,-1213],[84,-1001]],[[68029,55690],[171,329]],[[68200,56019],[673,-69],[-1,-277],[616,242],[1123,-806],[94,-822],[634,-1706]],[[63021,55868],[-70,-1512]],[[58141,53303],[106,597],[-82,1770],[1371,16],[461,-300]],[[59997,55386],[1331,696],[1693,-214]],[[97237,54495],[228,1286],[424,1031]],[[97889,56812],[-7,-499],[383,93],[696,-1180],[-179,-1033],[-327,23],[-224,-1098]],[[71339,52581],[127,344],[829,826],[212,1158],[1074,1694],[130,400]],[[73711,57003],[298,-24],[375,-1308],[398,266],[216,-848],[674,-431],[-52,-1959],[-213,-2031],[-536,-2639],[-651,-24]],[[14150,53773],[-877,1054],[-167,-225],[-422,444],[-955,-1548]],[[11729,53498],[-765,-216],[782,1435],[-69,700]],[[11677,55417],[659,469],[1563,544],[1110,562]],[[15009,56992],[354,89],[1779,-577],[177,-813]],[[90306,58572],[-210,-2262],[-148,-688],[-54,-1611],[-695,-682],[-88,-830],[-436,-900],[-720,-307],[-723,-2585]],[[83370,53929],[107,820],[603,988],[-156,496]],[[83924,56233],[292,-5],[68,658],[1956,-214],[140,1900],[1655,-418],[20,164]],[[88055,58318],[300,416],[1951,-162]],[[35748,58700],[732,-1079],[-18,-347],[554,-37],[23,-736],[459,-968],[127,-1860],[-85,-1055],[207,-1301],[-83,-1486]],[[31506,52740],[250,505],[531,-31],[1114,2767]],[[33401,55981],[223,1085],[-270,693]],[[33354,57759],[1006,-91],[237,1135],[617,179],[534,-282]],[[23496,59236],[-355,-1129],[-1474,-2141],[-221,-840],[-10,-1921]],[[21436,53205],[-240,-24],[2,1081],[-412,227],[422,1091],[-1103,324],[-487,444],[-627,-60],[12,591],[307,171],[56,973],[1729,275],[703,287],[351,417],[1347,234]],[[48758,59969],[157,-1322],[-332,-1690],[-78,-1957],[-175,-915],[-124,-2975]],[[48206,51110],[-197,-231],[-289,-1799],[-91,-2306],[-580,84],[-352,-275],[-585,251],[-638,-309],[-323,291],[-1758,191],[-1025,-22],[-277,-631]],[[40916,49620],[315,2237],[185,686],[228,1992],[304,1800],[77,2152]],[[42025,58487],[1109,82],[887,598],[1228,-16],[182,342],[1442,80],[274,496]],[[47147,60069],[1611,-100]],[[26978,59898],[182,-14],[179,-1122],[-262,-1696],[-532,-1727],[180,-1123],[534,-352],[894,-181],[559,-387]],[[20116,48060],[207,1675],[544,1029],[599,1648],[-30,793]],[[23496,59236],[814,877]],[[24310,60113],[836,-1000],[400,-173],[1432,958]],[[80434,57056],[-204,-1148],[153,-1277],[361,-1297],[296,68],[205,-1385]],[[73711,57003],[315,1087],[-24,1008]],[[74002,59098],[173,1417]],[[74175,60515],[818,-104],[71,-796],[244,-382],[565,256],[445,697],[346,-879],[1045,-1535],[54,-987],[1061,143],[5,417],[1605,-289]],[[80434,57056],[-53,2100],[242,537],[429,229],[170,962]],[[81222,60884],[510,-115],[-12,-392],[1018,-328],[591,-562],[41,-1509],[815,-173],[-273,-691],[12,-881]],[[30606,59154],[-120,-816],[118,-2401],[1077,-55],[1720,99]],[[26978,59898],[1602,1121]],[[28580,61019],[719,-922],[821,-91],[147,-772],[339,-80]],[[90306,58572],[810,202],[248,1825],[366,356],[284,-204],[510,226]],[[92524,60977],[708,-51],[862,-593],[958,96],[507,-254],[894,-1484],[8,-1019],[581,-31],[847,-829]],[[54915,59576],[-651,-2553]],[[54264,57023],[-851,-2954]],[[52038,49584],[-609,151],[343,218],[372,1532],[-37,592],[-561,-43],[78,-1633],[-670,-190],[-178,612],[64,1636],[-337,-462],[-405,248],[-1342,-213],[-11,-915],[-539,-7]],[[48758,59969],[-17,271],[950,1042],[791,110],[1267,-703],[315,-1238],[585,-77],[-23,1088],[1231,-562],[705,-526],[353,202]],[[14593,58689],[-14,-944],[430,-753]],[[11677,55417],[-60,1178],[-255,195],[-7,726],[-436,1316],[675,-56],[70,327],[1263,1610],[319,875]],[[13246,61588],[659,-335],[988,6],[-14,-928],[-416,-682],[130,-960]],[[60327,61570],[86,-595]],[[60413,60975],[-474,-1013],[-317,-2357],[368,-657],[7,-1562]],[[54264,57023],[1136,178],[1165,473],[98,1519],[-68,1353],[124,1060],[1647,15],[1033,-182],[928,131]],[[33025,60933],[-24,-476],[353,-606],[0,-2092]],[[30606,59154],[-176,2488],[638,75],[222,-340],[787,402],[98,-489],[850,-357]],[[60413,60975],[341,15],[288,-923],[554,-9],[790,722],[251,1070],[363,-95],[320,555]],[[63320,62310],[-159,-1724],[-196,-622],[116,-1979],[-60,-2117]],[[17941,61763],[272,-721],[-15,-909],[220,-267],[115,-1295],[-137,-750],[164,-1957]],[[14593,58689],[720,398],[-75,2652],[344,642],[348,118],[705,-384],[1306,-352]],[[68209,62386],[-173,-1175],[66,-798],[688,-557],[175,-1466],[-359,-132],[-406,-2239]],[[63320,62310],[617,64],[271,-400],[2056,-211],[-2,396],[1234,1177]],[[67496,63336],[402,-371],[-82,-406],[393,-173]],[[70761,63148],[271,-261],[-102,-1512],[522,-1397],[1072,-143],[790,-812],[688,75]],[[68209,62386],[576,953],[1976,-191]],[[88055,58318],[-41,1662],[-295,368],[-58,1302]],[[87661,61650],[728,1722],[388,-182],[601,-836],[1173,-877],[924,-122],[487,-382],[562,4]],[[21613,63250],[1713,-1806],[822,-700],[162,-631]],[[17941,61763],[-425,996],[-62,1397]],[[17454,64156],[604,-58],[790,-673],[884,-162],[1287,357],[594,-370]],[[78416,64185],[-70,-447],[635,-122],[351,-504],[-132,-622],[1545,204]],[[80745,62694],[330,-839],[147,-971]],[[74175,60515],[112,1055]],[[74287,61570],[782,-182],[286,1035],[531,-442],[108,1009],[282,695],[598,-335],[228,457],[529,67],[30,409],[755,-98]],[[42025,58487],[153,1346],[-183,1062],[-6,3559]],[[41989,64454],[349,-31]],[[42338,64423],[2115,-50],[54,920],[1065,-178],[324,351]],[[45896,65466],[280,-351],[-149,-1550],[122,42],[279,-1390],[597,-213],[122,-1935]],[[86661,65269],[250,-733],[-781,-615],[-52,-1791]],[[86078,62130],[-800,136],[-275,-405],[-698,-153],[303,3345],[-464,480],[41,411],[1318,-684],[1158,9]],[[41130,64342],[809,411],[50,-299]],[[35748,58700],[209,1255],[935,2111],[255,1672],[-150,611]],[[36997,64349],[0,1344]],[[36997,65693],[480,449]],[[37477,66142],[695,6],[82,-2596],[990,242],[396,286],[1099,78],[391,184]],[[33025,60933],[414,131],[-95,3188],[-154,1084],[127,670]],[[33317,66006],[404,185],[111,639],[1209,-226],[139,-415],[-90,-1453],[1096,120],[811,-507]],[[11889,68232],[304,-675],[324,26],[212,-613],[21,-926],[401,-1462],[95,-2994]],[[11729,53498],[-349,-713],[-667,-360],[-779,356],[-978,2207],[-455,1402],[-416,304]],[[8085,56694],[166,1969],[452,1775],[135,1068],[248,649],[1290,1790],[706,1963],[140,989],[-153,1444]],[[11069,68341],[739,-384],[81,275]],[[8085,56694],[-1040,-86],[-1525,1457],[-280,1138],[182,892],[-369,1036],[-345,502]],[[4708,61633],[381,513],[-6,635],[638,142],[253,2350],[386,63],[133,1021],[928,1402],[160,537]],[[7581,68296],[385,45],[934,-360],[2169,360]],[[28580,61019],[493,1307],[-390,410],[319,478],[-139,835],[228,222],[-473,1498],[197,877],[575,617]],[[29390,67263],[298,-261],[807,470],[1482,554],[517,495]],[[32494,68521],[284,-285],[228,-1259],[-890,-733],[339,-846],[862,608]],[[26978,59898],[-461,2823],[-780,-435],[-507,26],[-40,1689],[279,988]],[[25469,64989],[451,771],[365,1026],[146,1075],[1020,713],[1219,-100],[720,-1211]],[[21613,63250],[-79,690],[267,2439],[211,605],[70,1437]],[[22082,68421],[213,-178],[1598,716]],[[23893,68959],[343,-1109],[406,-809],[173,-1686],[654,-366]],[[86078,62130],[6,-367],[680,-230],[897,117]],[[80745,62694],[99,638],[332,384],[238,840],[-29,1422],[459,312],[1105,-641],[336,1048],[-190,515],[265,984],[507,865]],[[83867,69061],[1930,-936],[-587,-1237],[989,-453],[984,-642],[1065,-360],[-252,-560],[-667,123],[-516,508],[-152,-235]],[[37477,66142],[291,1110],[367,265],[347,713],[12,700],[791,28],[114,443]],[[39399,69401],[630,-216],[17,-1220],[578,-1657],[155,-1179],[351,-787]],[[59530,65913],[1274,-22]],[[60804,65891],[-11,-2230],[-365,-1180],[-101,-911]],[[54915,59576],[554,1945],[809,3315]],[[56278,64836],[497,2076],[70,813],[577,2284]],[[57422,70009],[665,-473],[171,-1701],[-109,-1480],[1381,-442]],[[78408,69940],[929,-733]],[[79337,69207],[-401,-1099],[325,-591],[9,-818],[-222,-1001],[-410,-653],[-222,-860]],[[74287,61570],[37,885],[-275,-12],[14,1951],[670,1326],[610,706],[125,2574]],[[75468,69000],[104,114]],[[75572,69114],[851,-175]],[[76423,68939],[893,-421],[695,320],[359,1302]],[[78370,70140],[38,-200]],[[70761,63148],[195,1079],[572,1757]],[[71528,65984],[325,-106],[-1,819],[581,980],[298,2030],[1042,27],[117,666]],[[73890,70400],[648,-216],[-214,-512],[686,-587],[458,-85]],[[51837,63983],[1087,-85],[543,927]],[[53467,64825],[680,-141],[1396,305],[735,-153]],[[45896,65466],[-56,596],[347,1844]],[[46187,67906],[54,317],[1185,-46],[-146,1495],[584,379],[1248,354]],[[49112,70405],[367,-349],[129,526],[818,-198],[28,-1539],[458,-900],[60,-872],[297,-338],[-214,-1931],[140,-935],[642,114]],[[79337,69207],[263,-857],[403,-169]],[[80003,68181],[-141,-324],[522,-323],[473,578],[413,25],[965,2800]],[[82235,70937],[1632,-1876]],[[43607,69996],[-62,-953],[703,57],[171,-473],[560,154],[293,-564],[915,-311]],[[42338,64423],[-8,1761],[383,2741],[-571,1420],[1415,652]],[[43557,70997],[50,-1001]],[[76423,68939],[485,450],[458,1737]],[[77366,71126],[1004,-986]],[[20066,71306],[-154,-939],[136,-298],[763,-309],[1271,-1339]],[[17454,64156],[206,1150],[-83,1034],[87,1019],[263,260],[52,764],[412,1046],[-272,1051]],[[18119,70480],[1343,902],[604,-76]],[[32988,71166],[-37,-1028],[-457,-1617]],[[29390,67263],[209,671],[107,2402]],[[29706,70336],[640,439],[104,473],[498,-50],[909,388],[545,-353],[586,-67]],[[4708,61633],[-403,-43],[-270,-1197],[25,-991],[-833,-686],[-270,313],[-264,1053],[41,1855],[-167,1137],[-1040,1097],[-287,682],[78,2266],[143,1542],[496,1974],[82,1098]],[[2039,71733],[1366,-171],[827,457],[1306,16]],[[5538,72035],[987,251],[319,-466],[176,-1738],[303,-1357],[258,-429]],[[80003,68181],[659,1075],[715,3034]],[[81377,72290],[858,-1353]],[[70178,72628],[1446,-564],[-173,-458],[495,-189],[533,216]],[[72479,71633],[1509,-62],[-98,-1171]],[[71528,65984],[-1402,220],[0,709],[-404,162],[211,1042],[-556,162],[-23,1355],[122,2015],[320,108],[199,895],[183,-24]],[[57833,71437],[-411,-1428]],[[53467,64825],[-149,1241],[111,884],[1143,-2],[558,616],[310,939],[103,1430],[-923,523],[-313,844],[-113,846],[267,517]],[[54461,72663],[166,292],[469,-372],[58,-717],[698,-300],[90,356],[878,113],[208,-371],[805,-227]],[[36997,65693],[-923,633],[-179,1273]],[[35895,67599],[-114,1039],[73,2064]],[[35854,70702],[564,204],[433,-528],[1039,1197],[358,880],[839,348]],[[39087,72803],[822,251]],[[39909,73054],[155,-961],[-665,-2692]],[[15595,73004],[39,-363],[655,-184],[673,196],[469,-1007],[254,-104],[434,-1062]],[[11889,68232],[122,1111],[584,704],[699,1251],[745,344]],[[14039,71642],[712,89],[-122,1270],[966,3]],[[34972,73372],[478,-282],[1096,-1071]],[[36546,72019],[-726,-475],[34,-842]],[[35895,67599],[-906,53],[-299,593],[13,649],[-453,109],[228,1699],[-306,522],[135,666],[-31,1731]],[[34276,73621],[696,-249]],[[49112,70405],[192,1455],[442,462],[-33,502],[-379,268],[822,127],[-21,297]],[[50135,73516],[545,154],[23,-800],[-436,-238],[742,-528],[270,46],[893,-748],[965,-253],[-70,-600],[-562,-591],[-197,-647],[-652,-133],[-23,-815],[436,-78],[181,-948],[-115,-1189],[162,-160],[-116,-923],[-344,-1082]],[[32988,71166],[-17,1282],[145,682]],[[33116,73130],[369,537],[791,-46]],[[36546,72019],[820,222],[1020,1195],[47,371]],[[38433,73807],[654,349],[0,-1353]],[[78408,69940],[429,1106],[6,1075],[290,731],[68,1351]],[[79201,74203],[1515,-1058],[661,-855]],[[29706,70336],[297,1444],[409,201],[322,-266],[130,635],[720,-95],[45,1266],[-340,684],[549,309]],[[31838,74514],[849,-1069],[429,-315]],[[47229,74712],[1176,-845],[449,-53]],[[48854,73814],[-18,-473],[1014,346]],[[49850,73687],[285,-171]],[[43607,69996],[1024,53],[189,513],[657,56],[-113,1222],[126,1154],[377,156],[787,820],[67,777]],[[46721,74747],[508,-35]],[[5538,72035],[26,973],[-709,384],[4,771],[796,584],[517,-102]],[[6172,74645],[1279,407],[635,-676],[599,415],[-62,-1003],[644,-438],[457,155]],[[9724,73505],[845,20],[997,460],[1050,1113],[639,142],[457,-1115],[114,-1615],[213,-868]],[[77366,71126],[371,1135],[147,1096],[-65,1997]],[[77819,75354],[1382,-1151]],[[75572,69114],[86,1342],[525,3340],[-340,731],[-88,744]],[[75755,75271],[1553,198],[511,-115]],[[70178,72628],[-124,698],[-54,2210]],[[70000,75536],[601,-165],[2360,340]],[[72961,75711],[100,-1970],[-679,-65],[-110,-1259],[207,-784]],[[54539,74905],[-4,-1140],[-439,-366],[365,-736]],[[49850,73687],[758,771],[1168,867],[1143,-440],[191,868]],[[53110,75753],[772,-586],[657,-262]],[[72961,75711],[2174,124],[620,-564]],[[66915,75820],[-136,-2628],[690,-155],[-351,-214],[224,-653],[630,-89],[-24,-790],[250,-2051],[403,-106],[-605,-1148],[-287,-1660],[-4,-609],[-299,-595],[90,-1786]],[[60804,65891],[369,-193],[1357,566],[355,917],[713,373],[63,1105],[-92,1130],[288,611],[42,1491],[189,351]],[[64088,72242],[1266,168],[239,742],[115,1320],[-109,1410]],[[65599,75882],[1316,-62]],[[66915,75820],[778,135],[1775,-224],[532,-195]],[[64088,72242],[58,3922]],[[64146,76164],[1453,-282]],[[43557,70997],[708,205],[-365,1346],[308,633],[174,1022],[463,1033],[265,968]],[[45110,76204],[1024,-1168],[587,-289]],[[54539,74905],[1333,58],[1063,295],[1608,1031]],[[58543,76289],[90,-1424],[-468,-2515],[-332,-913]],[[24283,70154],[-324,-511],[-66,-684]],[[20066,71306],[11,1326],[259,678],[568,2948]],[[20904,76258],[641,-149],[599,522],[582,-205],[-159,-1132],[1248,-462],[-83,-1384],[148,-360],[-67,-1871],[417,-573],[53,-490]],[[59530,65913],[228,1610],[651,1529],[642,548],[459,1269],[4,1092],[599,547],[-554,486],[-215,591],[82,835],[-332,-26],[-437,608],[73,1738]],[[60730,76740],[1666,-105],[1750,-471]],[[58543,76289],[1168,484],[1019,-33]],[[6568,77235],[-405,-1682],[9,-908]],[[2039,71733],[160,1042],[-76,844],[186,393]],[[2309,74012],[1146,-54],[1127,-410],[-20,799],[312,100],[114,620],[362,25],[77,712],[-154,905],[397,119],[188,512],[710,-105]],[[39937,76435],[287,-86],[675,628],[163,-277],[720,-200],[-11,-771],[390,-87],[40,-1002],[-918,149],[-92,-846],[-351,-566],[-792,108],[-139,-431]],[[38433,73807],[-381,47]],[[38052,73854],[-154,365],[81,1717],[578,-47],[344,791],[-82,522],[354,171],[202,-758],[562,-180]],[[15595,73004],[532,2856]],[[16127,75860],[864,618],[-28,364],[1172,-156],[1324,358],[142,275],[1348,467]],[[20949,77786],[-45,-1528]],[[43672,77117],[1438,-913]],[[39937,76435],[-26,767],[434,2],[589,588],[664,240]],[[41598,78032],[68,-737],[1196,36],[810,-214]],[[49743,78194],[-217,-1490],[882,165],[177,-611],[-353,-838],[-977,-720],[-509,-135],[108,-751]],[[47229,74712],[147,1437],[290,451],[-818,469],[161,1421]],[[47009,78490],[1610,35],[1124,-331]],[[20949,77786],[958,266],[1474,-131],[1188,698],[1122,96]],[[25691,78715],[97,-660],[-57,-1546],[123,-1487],[194,-250],[578,248],[99,-1597],[-653,-1086],[236,-795],[-269,-715],[-88,-1000],[-420,-282],[-738,147],[-510,462]],[[49743,78194],[916,631],[807,165]],[[51466,78990],[232,-429],[421,182],[1101,-1066],[228,-457],[-338,-1467]],[[31117,76198],[320,-191],[401,-1493]],[[25691,78715],[643,406],[51,-435],[1118,-740],[323,317],[622,40],[680,-475],[560,-666],[516,289],[492,-1364],[421,111]],[[38341,79796],[989,-37],[519,-398],[1274,-384]],[[41123,78977],[141,-638],[563,216],[105,-471],[331,357],[315,-469],[-980,60]],[[38052,73854],[-834,460],[-610,1579],[-1669,1624],[366,1862],[2581,-440],[455,857]],[[43672,77117],[288,969],[513,-378],[478,255],[289,-246],[102,609],[283,-74],[167,1806]],[[45792,80058],[827,-1264],[390,-304]],[[34972,73372],[-283,1006],[114,1176],[-904,15],[202,709],[-123,1013],[102,2227],[-254,114]],[[33826,79632],[128,579],[352,196]],[[34306,80407],[991,-338],[1121,-124],[246,-255],[215,686],[1607,198],[-145,-778]],[[31117,76198],[-111,1303],[108,933],[261,625],[239,1866]],[[31614,80925],[954,-232],[1096,-719],[162,-342]],[[41761,82680],[650,-651],[1530,-102],[791,-1062],[217,-918],[661,605]],[[45610,80552],[182,-494]],[[41123,78977],[-61,1523],[136,856],[-134,482],[176,881]],[[41240,82719],[521,-39]],[[45610,80552],[165,204],[-298,904],[99,575]],[[45576,82235],[613,-318],[692,-48],[633,986],[659,682],[1398,986]],[[49571,84523],[164,-946],[308,-644],[178,-1391],[1245,-2552]],[[19222,84417],[194,-1227],[587,-1192],[542,-3495],[404,-717]],[[16127,75860],[-604,76],[-124,1615],[47,1383],[465,429],[388,-136],[-355,2953],[267,821],[-84,472],[317,397]],[[16444,83870],[566,44],[291,387],[938,216],[983,-100]],[[34306,80407],[-13,326],[635,172],[451,480],[1138,652],[580,92],[-15,-849],[1458,-122],[83,1786],[-596,1621]],[[38027,84565],[408,67],[731,-369],[356,131],[855,-955],[68,-409],[795,-311]],[[8968,84716],[952,18],[783,-631],[1437,-360]],[[12140,83743],[16,-651],[598,-57],[-337,-1326],[-29,-782],[-281,-1324],[-314,-80],[-483,-1157],[-1337,-303],[-446,-2372],[221,-1504],[-24,-682]],[[6568,77235],[141,366],[-352,3386],[295,1324],[25,1097]],[[6677,83408],[679,-36],[240,1065],[534,-112],[320,483],[518,-92]],[[2309,74012],[57,1481],[-178,902],[-425,-319],[-1405,115],[-358,1855],[112,1022],[967,-318],[320,1044],[2317,2368],[231,1128],[292,584],[27,844],[265,605]],[[4531,85323],[469,75],[936,-228],[-6,-693],[323,-794],[424,-275]],[[41761,82680],[262,632],[-140,774],[459,779]],[[42342,84865],[497,-391],[584,515],[1137,452],[618,626]],[[45178,86067],[281,4],[-166,-1042],[339,-461],[-124,-765],[68,-1568]],[[26318,87109],[226,-1004],[-699,-4587],[28,-1671],[-182,-1132]],[[19222,84417],[87,1814],[390,0],[257,571],[589,209],[668,635]],[[21213,87646],[108,-204],[878,42],[139,-2565],[1268,661],[1244,274],[413,384],[630,7],[51,1141],[374,-277]],[[34446,87644],[243,55],[112,-944],[1595,-746],[705,-819],[815,-338],[111,-287]],[[31614,80925],[143,1977],[-37,1261],[-298,878],[309,902],[105,1732]],[[31836,87675],[1707,304],[903,-335]],[[12140,83743],[346,3],[332,1146],[475,-104],[294,408],[423,1617]],[[14010,86813],[386,-138],[1232,192],[577,1126]],[[16205,87993],[259,-467],[-20,-3656]],[[26318,87109],[401,526],[995,49]],[[27714,87684],[359,33],[215,-713],[945,-289],[719,1013],[568,-73],[146,620]],[[30666,88275],[1170,-600]],[[4531,85323],[288,1502],[-158,139],[304,920]],[[4965,87884],[639,-162],[1034,473],[1635,-164],[874,1008]],[[9147,89039],[173,-273],[296,-1462],[-648,-2588]],[[45178,86067],[219,948],[346,576],[68,1359],[1378,182]],[[47189,89132],[768,-1428],[971,-1188],[643,-1993]],[[38722,90370],[1813,-718],[264,-289]],[[40799,89363],[-52,-922],[-550,-226],[-136,-1651],[593,-164],[1688,-1535]],[[34446,87644],[123,778],[367,955]],[[34936,89377],[791,-513],[154,821],[1586,-13],[216,791],[1039,-93]],[[9147,89039],[597,1999]],[[9744,91038],[1043,-469],[584,660],[744,-399],[20,-1462],[295,-1164],[861,-227],[719,-1164]],[[16205,87993],[374,378],[1281,253],[355,617],[264,1246],[276,333],[667,178],[532,-302],[496,604]],[[20450,91300],[687,-2892],[76,-762]],[[40799,89363],[346,473],[1172,2435]],[[42317,92271],[419,-73],[931,-756],[313,538]],[[43980,91980],[778,-1166],[87,355],[-612,922]],[[44233,92091],[321,476]],[[44554,92567],[246,-554],[811,-1057],[357,-833],[1221,-991]],[[43980,91980],[-999,1304],[-152,422],[1241,-1688],[163,73]],[[4965,87884],[-252,1139],[-870,511],[-65,2177],[-590,725],[-36,619],[358,840],[769,182],[1059,595],[1142,-777],[332,342],[168,902],[407,258],[690,-165],[1130,-1119],[303,-1022],[-79,-987],[313,-1066]],[[28019,90994],[-302,-1173],[-3,-2137]],[[20450,91300],[351,1295],[527,902]],[[21328,93497],[2102,-146],[1096,62],[956,1408],[1244,1260]],[[26726,96081],[258,-1069],[736,-1994],[303,-176],[-4,-1848]],[[42317,92271],[-137,673],[202,627],[-573,411],[-936,179],[-118,374],[-635,-100],[-322,439],[174,456],[746,277],[11,891]],[[40729,96498],[1242,-320],[2063,-2728],[520,-883]],[[38722,90370],[106,1104],[361,955],[-113,2727],[225,551],[-98,996]],[[39203,96703],[1526,-205]],[[34936,89377],[46,575],[585,473],[666,1006],[832,860],[-137,1559],[200,696],[-228,1588]],[[36900,96134],[1403,684],[900,-115]],[[30666,88275],[-617,608],[-89,674],[279,1221],[856,-44],[62,271],[1031,233],[282,1369],[526,1794],[53,1267]],[[33049,95668],[151,1066],[347,801],[145,931]],[[33692,98466],[1664,-1242],[225,-497],[783,-829],[536,236]],[[28019,90994],[434,786],[75,764],[550,922],[-220,1449],[-64,3012],[92,850]],[[28886,98777],[802,-831],[48,-644],[1333,78],[589,522],[605,-638],[382,-1017],[404,-579]],[[21328,93497],[514,1709],[598,-509],[944,-367],[703,254],[1460,1557],[1674,2159],[279,468],[1012,998]],[[28512,99766],[130,-1147],[-348,-244],[-246,-1539],[-616,-102],[-706,-653]],[[28512,99766],[317,233]],[[28829,99999],[57,-1222]],[[28829,99999],[865,-5],[1144,-490],[351,168],[1917,-753],[586,-453]],[[85642,27657],[376,-570],[14,-1004],[-591,-362],[-463,86],[-649,-322],[-653,94],[13,546]],[[96040,48509],[-463,-1766],[-465,-260],[-9,-1108],[-214,-305]]],"transform":{"scale":[8.376400000000075e-06,5.498154981549824e-06],"translate":[77.75017000000001,10.5467]},"objects":{"villages":{"type":"GeometryCollection","geometries":[{"arcs":[[0]],"type":"Polygon","properties":{"n":" ","c":0,"d":"Karur","s":"TAMIL NADU"}},{"arcs":[[1,2]],"type":"Polygon","properties":{"n":" ","c":0,"d":"Karur","s":"TAMIL NADU"}},{"arcs":[[3,4,5,6]],"type":"Polygon","properties":{"n":" ","c":0,"d":"Karur","s":"TAMIL NADU"}},{"arcs":[[-3,7]],"type":"Polygon","properties":{"n":" ","c":0,"d":"Karur","s":"TAMIL NADU"}},{"arcs":[[-6,8]],"type":"Polygon","properties":{"n":" ","c":0,"d":"Karur","s":"TAMIL NADU"}},{"arcs":[[9,-2,10,-5,11,12],[-1]],"type":"Polygon","properties":{"n":" ","c":635659,"d":"Karur","s":"TAMIL NADU"}},{"arcs":[[-7,13,14]],"type":"Polygon","properties":{"n":" ","c":0,"d":"Karur","s":"TAMIL NADU"}},{"arcs":[[-13,15,16,17]],"type":"Polygon","properties":{"n":" ","c":0,"d":"Karur","s":"TAMIL NADU"}},{"arcs":[[18,-18,19,20]],"type":"Polygon","properties":{"n":" ","c":0,"d":"Karur","s":"TAMIL NADU"}},{"arcs":[[-14,-9,-11,-8,-10,-19,21,22,23]],"type":"Polygon","properties":{"n":" ","c":635661,"d":"Karur","s":"TAMIL NADU"}},{"arcs":[[24,-20,-17,25,26]],"type":"Polygon","properties":{"n":" ","c":0,"d":"Karur","s":"TAMIL NADU"}},{"arcs":[[-22,-21,-25,27,28,29]],"type":"Polygon","properties":{"n":"Palaviduthi","c":635660,"d":"Karur","s":"TAMIL NADU"}},{"arcs":[[30,31,32,33,34]],"type":"Polygon","properties":{"n":"Sendamangalam(East)","c":635538,"d":"Karur","s":"TAMIL NADU"}},{"arcs":[[35,36,-32,37,38,39]],"type":"Polygon","properties":{"n":"Alamarathupatti","c":635544,"d":"Karur","s":"TAMIL NADU"}},{"arcs":[[-34,40,41,42]],"type":"Polygon","properties":{"n":"Sendamangalam(West)","c":635536,"d":"Karur","s":"TAMIL NADU"}},{"arcs":[[-28,-27,43,44,45]],"type":"Polygon","properties":{"n":" ","c":635658,"d":"Karur","s":"TAMIL NADU"}},{"arcs":[[46,47,-36,48]],"type":"Polygon","properties":{"n":"Periyamanjuvali","c":635545,"d":"Karur","s":"TAMIL NADU"}},{"arcs":[[49,50,51,52]],"type":"Polygon","properties":{"n":"Porundalur","c":635638,"d":"Karur","s":"TAMIL NADU"}},{"arcs":[[53,54,-23,-30,55,56]],"type":"Polygon","properties":{"n":"Mavathur","c":635662,"d":"Karur","s":"TAMIL NADU"}},{"arcs":[[57,-38,-31,58,59]],"type":"Polygon","properties":{"n":"Pallapatti","c":635539,"d":"Karur","s":"TAMIL NADU"}},{"arcs":[[60,-42,61,62]],"type":"Polygon","properties":{"n":"Inanganur","c":635535,"d":"Karur","s":"TAMIL NADU"}},{"arcs":[[63,64,65,66]],"type":"Polygon","properties":{"n":"Pillur","c":635641,"d":"Karur","s":"TAMIL NADU"}},{"arcs":[[67,-47,68,69]],"type":"Polygon","properties":{"n":"Ammapatti","c":635546,"d":"Karur","s":"TAMIL NADU"}},{"arcs":[[70,-56,-29,-46,71,72]],"type":"Polygon","properties":{"n":"Adhanur","c":635657,"d":"Karur","s":"TAMIL NADU"}},{"arcs":[[73,-69,-49,-40,74,75]],"type":"Polygon","properties":{"n":"Eurumarpatti","c":635543,"d":"Karur","s":"TAMIL NADU"}},{"arcs":[[76,77,-50,78,79,-65,80]],"type":"Polygon","properties":{"n":"Padiripatti","c":635639,"d":"Karur","s":"TAMIL NADU"}},{"arcs":[[81,-60,82]],"type":"Polygon","properties":{"n":"Pallapatti (TP)","c":803602,"d":"Karur","s":"TAMIL NADU"}},{"arcs":[[83,84,85,86]],"type":"Polygon","properties":{"n":"Thondamanginam","c":635645,"d":"Karur","s":"TAMIL NADU"}},{"arcs":[[-86,87,88]],"type":"Polygon","properties":{"n":"Mathagiri","c":635644,"d":"Karur","s":"TAMIL NADU"}},{"arcs":[[-75,-39,-58,-82,89,90,91]],"type":"Polygon","properties":{"n":"Thethupatti","c":635540,"d":"Karur","s":"TAMIL NADU"}},{"arcs":[[92,-76,-92,93]],"type":"Polygon","properties":{"n":"Anjagoundanpatti","c":635541,"d":"Karur","s":"TAMIL NADU"}},{"arcs":[[-70,-74,-93,94]],"type":"Polygon","properties":{"n":"Esanatham","c":635542,"d":"Karur","s":"TAMIL NADU"}},{"arcs":[[95,-52,96,-84,97]],"type":"Polygon","properties":{"n":"Naganur","c":635637,"d":"Karur","s":"TAMIL NADU"}},{"arcs":[[98,-72,-45,99,100]],"type":"Polygon","properties":{"n":"Devarmalai","c":635656,"d":"Karur","s":"TAMIL NADU"}},{"arcs":[[-54,101,102,103]],"type":"Polygon","properties":{"n":"Valvarmangalam","c":635664,"d":"Karur","s":"TAMIL NADU"}},{"arcs":[[-102,-57,-71,104,105,106]],"type":"Polygon","properties":{"n":" ","c":635663,"d":"Karur","s":"TAMIL NADU"}},{"arcs":[[107,-90,-83,-59,-35,-43,-61,108,109]],"type":"Polygon","properties":{"n":"Velambadi","c":635537,"d":"Karur","s":"TAMIL NADU"}},{"arcs":[[110,111,-67,112,113,114]],"type":"Polygon","properties":{"n":"Vadaseri","c":635633,"d":"Karur","s":"TAMIL NADU"}},{"arcs":[[115,-111,116]],"type":"Polygon","properties":{"n":"Puluderi","c":635632,"d":"Karur","s":"TAMIL NADU"}},{"arcs":[[117,-79,-53,-96,118,119]],"type":"Polygon","properties":{"n":"Thogamalai","c":635635,"d":"Karur","s":"TAMIL NADU"}},{"arcs":[[120,-113,-66,-80,-118,121,122]],"type":"Polygon","properties":{"n":"Kalladai","c":635634,"d":"Karur","s":"TAMIL NADU"}},{"arcs":[[-87,-89,123,124,125,126,127]],"type":"Polygon","properties":{"n":"Kosur","c":635643,"d":"Karur","s":"TAMIL NADU"}},{"arcs":[[-105,-73,-99,128,129]],"type":"Polygon","properties":{"n":"Melappaguthi","c":635654,"d":"Karur","s":"TAMIL NADU"}},{"arcs":[[130,-125,131,-103,-107,132,133,134]],"type":"Polygon","properties":{"n":"Thennilai","c":635652,"d":"Karur","s":"TAMIL NADU"}},{"arcs":[[-129,-101,135,136]],"type":"Polygon","properties":{"n":"Kalayapatti","c":635655,"d":"Karur","s":"TAMIL NADU"}},{"arcs":[[137,-109,-63,138,139,140]],"type":"Polygon","properties":{"n":"Modakkur(East)","c":635534,"d":"Karur","s":"TAMIL NADU"}},{"arcs":[[141,142,-114,-121,143,144]],"type":"Polygon","properties":{"n":"Puthur","c":635629,"d":"Karur","s":"TAMIL NADU"}},{"arcs":[[-140,145,146,147]],"type":"Polygon","properties":{"n":"Modakkur(West)","c":635533,"d":"Karur","s":"TAMIL NADU"}},{"arcs":[[-119,-98,-128,148,149,150,151]],"type":"Polygon","properties":{"n":"Kalugur","c":635636,"d":"Karur","s":"TAMIL NADU"}},{"arcs":[[152,-133,-106,-130,153]],"type":"Polygon","properties":{"n":"Varavanai","c":635653,"d":"Karur","s":"TAMIL NADU"}},{"arcs":[[154,-142,155,156]],"type":"Polygon","properties":{"n":"Alathur","c":635630,"d":"Karur","s":"TAMIL NADU"}},{"arcs":[[157,158,159]],"type":"Polygon","properties":{"n":"Pungambadi(East)","c":635530,"d":"Karur","s":"TAMIL NADU"}},{"arcs":[[-147,160]],"type":"Polygon","properties":{"n":"Santhapadi","c":635532,"d":"Karur","s":"TAMIL NADU"}},{"arcs":[[161,-126,-131,162,163]],"type":"Polygon","properties":{"n":"Keeranur","c":635651,"d":"Karur","s":"TAMIL NADU"}},{"arcs":[[164,-150,165,166]],"type":"Polygon","properties":{"n":"Chinniyampalayam","c":635627,"d":"Karur","s":"TAMIL NADU"}},{"arcs":[[167,168,-110,-138,169,170,171,172]],"type":"Polygon","properties":{"n":"Aravakurichi (TP)","c":803601,"d":"Karur","s":"TAMIL NADU"}},{"arcs":[[173,-156,-145,174,175]],"type":"Polygon","properties":{"n":"Thalinji","c":635621,"d":"Karur","s":"TAMIL NADU"}},{"arcs":[[176,-175,-144,-123,177,178,179]],"type":"Polygon","properties":{"n":"Kallai","c":635622,"d":"Karur","s":"TAMIL NADU"}},{"arcs":[[180,-160,181,-168,182]],"type":"Polygon","properties":{"n":"Pungambadi(West)","c":635531,"d":"Karur","s":"TAMIL NADU"}},{"arcs":[[183,184,185,186,187]],"type":"Polygon","properties":{"n":"K.Pichampatti","c":635579,"d":"Karur","s":"TAMIL NADU"}},{"arcs":[[188,-158,-181,189,190]],"type":"Polygon","properties":{"n":"Venjamangudalur(West)","c":635529,"d":"Karur","s":"TAMIL NADU"}},{"arcs":[[191,-117,-115,-143,-155,192,193]],"type":"Polygon","properties":{"n":"R.T.Malai","c":635631,"d":"Karur","s":"TAMIL NADU"}},{"arcs":[[194,-163,-135,195,196]],"type":"Polygon","properties":{"n":"Vellapatti","c":635650,"d":"Karur","s":"TAMIL NADU"}},{"arcs":[[197,-171,198,199,200]],"type":"Polygon","properties":{"n":"Rajapuram","c":635523,"d":"Karur","s":"TAMIL NADU"}},{"arcs":[[201,-178,-122,-120,-152,202,203]],"type":"Polygon","properties":{"n":"Gudalur","c":635628,"d":"Karur","s":"TAMIL NADU"}},{"arcs":[[-196,-134,-153,204,205,206]],"type":"Polygon","properties":{"n":"Pannapatti","c":635649,"d":"Karur","s":"TAMIL NADU"}},{"arcs":[[207,208,209,210]],"type":"Polygon","properties":{"n":"Mudalaipatti","c":635617,"d":"Karur","s":"TAMIL NADU"}},{"arcs":[[211,-186,212,-191,213,214]],"type":"Polygon","properties":{"n":"Venjamangudalur(East)","c":635528,"d":"Karur","s":"TAMIL NADU"}},{"arcs":[[215,-206,216,217]],"type":"Polygon","properties":{"n":"Muthurengampatti","c":635601,"d":"Karur","s":"TAMIL NADU"}},{"arcs":[[-179,-202,218,219]],"type":"Polygon","properties":{"n":"Nallur","c":635624,"d":"Karur","s":"TAMIL NADU"}},{"arcs":[[220,-200,221,222]],"type":"Polygon","properties":{"n":"Thokkupatti","c":635522,"d":"Karur","s":"TAMIL NADU"}},{"arcs":[[-217,-205,-154,-137,223,224,225]],"type":"Polygon","properties":{"n":"Manjanaickenpatti","c":635648,"d":"Karur","s":"TAMIL NADU"}},{"arcs":[[226,-209,227,-193,-157,-174,228]],"type":"Polygon","properties":{"n":"Neidalur (South)","c":635620,"d":"Karur","s":"TAMIL NADU"}},{"arcs":[[229,-164,-195,230,231]],"type":"Polygon","properties":{"n":"Panjapatti","c":635602,"d":"Karur","s":"TAMIL NADU"}},{"arcs":[[232,-201,-221,233,234]],"type":"Polygon","properties":{"n":"Elavanur","c":635521,"d":"Karur","s":"TAMIL NADU"}},{"arcs":[[235,-166,-149,-127,-162,-230,236,237]],"type":"Polygon","properties":{"n":"Pothuravuthanpatti","c":635603,"d":"Karur","s":"TAMIL NADU"}},{"arcs":[[238,-231,-197,-207,-216,239,240]],"type":"Polygon","properties":{"n":"Vadavambadi","c":635647,"d":"Karur","s":"TAMIL NADU"}},{"arcs":[[-210,-227,241,242]],"type":"Polygon","properties":{"n":"Sooriyanur","c":635616,"d":"Karur","s":"TAMIL NADU"}},{"arcs":[[-167,-236,243,244]],"type":"Polygon","properties":{"n":"Pappakkapatti","c":635604,"d":"Karur","s":"TAMIL NADU"}},{"arcs":[[-234,-223,245,246,247,248]],"type":"Polygon","properties":{"n":"Chinnadarapuram","c":635520,"d":"Karur","s":"TAMIL NADU"}},{"arcs":[[249,-180,-220,250,251,252]],"type":"Polygon","properties":{"n":"Inungur","c":635623,"d":"Karur","s":"TAMIL NADU"}},{"arcs":[[253,-187,-212,254,255,256]],"type":"Polygon","properties":{"n":"Paganatham","c":635578,"d":"Karur","s":"TAMIL NADU"}},{"arcs":[[257,258]],"type":"Polygon","properties":{"n":"Kalakurichi Nanjai","c":635525,"d":"Karur","s":"TAMIL NADU"}},{"arcs":[[259,260,-184,261,262,263]],"type":"Polygon","properties":{"n":"Vellianai(south)","c":635580,"d":"Karur","s":"TAMIL NADU"}},{"arcs":[[264,-214,-190,-183,-173,265,-258,266,267]],"type":"Polygon","properties":{"n":"Nagamballi","c":635526,"d":"Karur","s":"TAMIL NADU"}},{"arcs":[[268,-203,-151,-165,-245,269,270,271]],"type":"Polygon","properties":{"n":"Sivayam (North)","c":635605,"d":"Karur","s":"TAMIL NADU"}},{"arcs":[[-251,-219,-204,-269,272,273]],"type":"Polygon","properties":{"n":"Hiranyamangalam","c":635625,"d":"Karur","s":"TAMIL NADU"}},{"arcs":[[274,-255,-215,-265,275,276]],"type":"Polygon","properties":{"n":"Kodaiyur","c":635527,"d":"Karur","s":"TAMIL NADU"}},{"arcs":[[-242,-229,-176,-177,-250,277,278]],"type":"Polygon","properties":{"n":"Nangavaram (TP)","c":803615,"d":"Karur","s":"TAMIL NADU"}},{"arcs":[[279,280,-225,281,-260,282]],"type":"Polygon","properties":{"n":"Jegadabi","c":635575,"d":"Karur","s":"TAMIL NADU"}},{"arcs":[[283,-248,284,285]],"type":"Polygon","properties":{"n":"Tenilai venkitapuram","c":635519,"d":"Karur","s":"TAMIL NADU"}},{"arcs":[[286,287,-240,-218,-226,-281,288]],"type":"Polygon","properties":{"n":"P.J. Cholapuram (TP)","c":803612,"d":"Karur","s":"TAMIL NADU"}},{"arcs":[[289,-256,-275,290]],"type":"Polygon","properties":{"n":"Puthambur","c":635572,"d":"Karur","s":"TAMIL NADU"}},{"arcs":[[-241,-288,291,292]],"type":"Polygon","properties":{"n":"Pappayambadi","c":635646,"d":"Karur","s":"TAMIL NADU"}},{"arcs":[[293,-235,-249,-284,294]],"type":"Polygon","properties":{"n":"Soodamani","c":635518,"d":"Karur","s":"TAMIL NADU"}},{"arcs":[[295,-237,-232,-239,-293,296,297]],"type":"Polygon","properties":{"n":"Veeriyapalayam","c":635599,"d":"Karur","s":"TAMIL NADU"}},{"arcs":[[298,-270,-244,-238,-296,299]],"type":"Polygon","properties":{"n":"Vayalur","c":635598,"d":"Karur","s":"TAMIL NADU"}},{"arcs":[[-278,-253,300,301]],"type":"Polygon","properties":{"n":"Poyyamani","c":635615,"d":"Karur","s":"TAMIL NADU"}},{"arcs":[[302,-267,-259,-266,-172,-198,-233,-294,303,304]],"type":"Polygon","properties":{"n":"Kalakurichi Punjai","c":635524,"d":"Karur","s":"TAMIL NADU"}},{"arcs":[[305,306,-273,-272,307,308]],"type":"Polygon","properties":{"n":"Sathiyamangalam","c":635626,"d":"Karur","s":"TAMIL NADU"}},{"arcs":[[-263,309,310,311,312]],"type":"Polygon","properties":{"n":"Manavadi","c":635574,"d":"Karur","s":"TAMIL NADU"}},{"arcs":[[313,314]],"type":"Polygon","properties":{"n":"Kumaramangalam","c":635614,"d":"Karur","s":"TAMIL NADU"}},{"arcs":[[315,-310,-262,-188,-254,316,317,318,319]],"type":"Polygon","properties":{"n":"Mookanankurichi","c":635577,"d":"Karur","s":"TAMIL NADU"}},{"arcs":[[-317,-257,-290,320,321]],"type":"Polygon","properties":{"n":"Kakkavadi","c":635573,"d":"Karur","s":"TAMIL NADU"}},{"arcs":[[322,-285,-247,323,324,325]],"type":"Polygon","properties":{"n":" ","c":0,"d":"Karur","s":"TAMIL NADU"}},{"arcs":[[-325,326,327,328]],"type":"Polygon","properties":{"n":" ","c":0,"d":"Karur","s":"TAMIL NADU"}},{"arcs":[[-321,-291,-277,329,330,331]],"type":"Polygon","properties":{"n":"Thalapatti","c":635571,"d":"Karur","s":"TAMIL NADU"}},{"arcs":[[-330,-276,332,333]],"type":"Polygon","properties":{"n":"Thumbivadi","c":635515,"d":"Karur","s":"TAMIL NADU"}},{"arcs":[[-333,-268,-303,334,335,336]],"type":"Polygon","properties":{"n":"P.Anaipalayam","c":635516,"d":"Karur","s":"TAMIL NADU"}},{"arcs":[[-315,337,-301,-252,-274,-307,338,339]],"type":"Polygon","properties":{"n":"Marudur (TP)","c":803614,"d":"Karur","s":"TAMIL NADU"}},{"arcs":[[-320,340,341]],"type":"Polygon","properties":{"n":" ","c":0,"d":"Karur","s":"TAMIL NADU"}},{"arcs":[[342,343,-289,-280,344,345,346]],"type":"Polygon","properties":{"n":"Sithalavai","c":635591,"d":"Karur","s":"TAMIL NADU"}},{"arcs":[[347,348,-309,349,350,351,352,353]],"type":"Polygon","properties":{"n":"Vaiganallur(South)","c":635611,"d":"Karur","s":"TAMIL NADU"}},{"arcs":[[-350,-308,-271,-299,354,355,356]],"type":"Polygon","properties":{"n":"Karuppathur","c":635597,"d":"Karur","s":"TAMIL NADU"}},{"arcs":[[357,358,-345,-283,-264,-313,359,360,361]],"type":"Polygon","properties":{"n":"Uppidamangalam (TP)","c":803610,"d":"Karur","s":"TAMIL NADU"}},{"arcs":[[-339,-306,-349,362,363,364]],"type":"Polygon","properties":{"n":" ","c":635612,"d":"Karur","s":"TAMIL NADU"}},{"arcs":[[365,-360,-312,366,367]],"type":"Polygon","properties":{"n":"Emur","c":635566,"d":"Karur","s":"TAMIL NADU"}},{"arcs":[[-353,368,369]],"type":"Polygon","properties":{"n":"Manathattai","c":635609,"d":"Karur","s":"TAMIL NADU"}},{"arcs":[[370,-335,-305,371,372]],"type":"Polygon","properties":{"n":"Ariyur","c":635517,"d":"Karur","s":"TAMIL NADU"}},{"arcs":[[373,-331,374,375]],"type":"Polygon","properties":{"n":"Pallapalayam","c":635570,"d":"Karur","s":"TAMIL NADU"}},{"arcs":[[-328,376,377,378]],"type":"Polygon","properties":{"n":"Kodanthur(north)","c":635505,"d":"Karur","s":"TAMIL NADU"}},{"arcs":[[-364,379,380]],"type":"Polygon","properties":{"n":" ","c":0,"d":"Karur","s":"TAMIL NADU"}},{"arcs":[[381,382,-356,383]],"type":"Polygon","properties":{"n":"Pillapalayam","c":635595,"d":"Karur","s":"TAMIL NADU"}},{"arcs":[[384,-346,-359,385,386]],"type":"Polygon","properties":{"n":"Manavasi","c":635590,"d":"Karur","s":"TAMIL NADU"}},{"arcs":[[-341,-319,387,388,389,390,391]],"type":"Polygon","properties":{"n":" ","c":0,"d":"Karur","s":"TAMIL NADU"}},{"arcs":[[392,-372,-304,-295,-286,-323,393,394]],"type":"Polygon","properties":{"n":" ","c":0,"d":"Karur","s":"TAMIL NADU"}},{"arcs":[[395,396,-389,397,398]],"type":"Polygon","properties":{"n":"Karuppampalayam","c":635568,"d":"Karur","s":"TAMIL NADU"}},{"arcs":[[-362,399,400]],"type":"Polygon","properties":{"n":"Balarajapuram","c":635585,"d":"Karur","s":"TAMIL NADU"}},{"arcs":[[-398,-388,-318,-322,-332,-374,401,402]],"type":"Polygon","properties":{"n":"Appipalayam","c":635569,"d":"Karur","s":"TAMIL NADU"}},{"arcs":[[-390,-397,403,404]],"type":"Polygon","properties":{"n":"Thirumanilaiyur","c":635567,"d":"Karur","s":"TAMIL NADU"}},{"arcs":[[-380,-363,-348,405,406]],"type":"Polygon","properties":{"n":"Kulithalai (M)","c":803613,"d":"Karur","s":"TAMIL NADU"}},{"arcs":[[-402,-376,407,408]],"type":"Polygon","properties":{"n":"Viswanathapuri","c":635514,"d":"Karur","s":"TAMIL NADU"}},{"arcs":[[409,410,411,-400,-361,-366,412,413]],"type":"Polygon","properties":{"n":"Puliyur (TP)","c":803608,"d":"Karur","s":"TAMIL NADU"}},{"arcs":[[-394,-326,-329,-379,414,415,416]],"type":"Polygon","properties":{"n":"Thennilai(south)","c":635500,"d":"Karur","s":"TAMIL NADU"}},{"arcs":[[-406,-354,-370,417,418]],"type":"Polygon","properties":{"n":"Vaiganallur(North)","c":635610,"d":"Karur","s":"TAMIL NADU"}},{"arcs":[[-418,-369,-352,419,420]],"type":"Polygon","properties":{"n":"Vadhiyam","c":635608,"d":"Karur","s":"TAMIL NADU"}},{"arcs":[[-382,421,422,423]],"type":"Polygon","properties":{"n":"Kallapalli","c":635596,"d":"Karur","s":"TAMIL NADU"}},{"arcs":[[424,-386,-358,-401,-412,425,426]],"type":"Polygon","properties":{"n":"Renganathapuram (South)","c":635587,"d":"Karur","s":"TAMIL NADU"}},{"arcs":[[-420,-351,-357,-383,-424,427]],"type":"Polygon","properties":{"n":"Karuvappanaickenpettai","c":635607,"d":"Karur","s":"TAMIL NADU"}},{"arcs":[[428,-297,-292,-287,-344,429,430,431]],"type":"Polygon","properties":{"n":"Mahadhanapuram(North)","c":635593,"d":"Karur","s":"TAMIL NADU"}},{"arcs":[[-422,-384,-355,-300,-298,-429,432]],"type":"Polygon","properties":{"n":"Chinthalavadi","c":635594,"d":"Karur","s":"TAMIL NADU"}},{"arcs":[[-431,433,434]],"type":"Polygon","properties":{"n":"Kammanallur","c":635592,"d":"Karur","s":"TAMIL NADU"}},{"arcs":[[-413,-368,435,436]],"type":"Polygon","properties":{"n":"Melapalayam","c":635565,"d":"Karur","s":"TAMIL NADU"}},{"arcs":[[-387,-425,437,438]],"type":"Polygon","properties":{"n":"Mayanur","c":635588,"d":"Karur","s":"TAMIL NADU"}},{"arcs":[[439,-336,-371,440,441]],"type":"Polygon","properties":{"n":"Nedungur","c":635511,"d":"Karur","s":"TAMIL NADU"}},{"arcs":[[-434,-430,-343,442,443]],"type":"Polygon","properties":{"n":"Krishnarayapuram (TP)","c":803611,"d":"Karur","s":"TAMIL NADU"}},{"arcs":[[-443,-347,-385,-439,444]],"type":"Polygon","properties":{"n":"Thirukkampuliyur","c":635589,"d":"Karur","s":"TAMIL NADU"}},{"arcs":[[445,-415,-378,446,447]],"type":"Polygon","properties":{"n":"Elakkaturamachandrapuram","c":635504,"d":"Karur","s":"TAMIL NADU"}},{"arcs":[[448,-391,-405,449,450]],"type":"Polygon","properties":{"n":"Karur (M)","c":803607,"d":"Karur","s":"TAMIL NADU"}},{"arcs":[[-441,-373,-393,451,452,453]],"type":"Polygon","properties":{"n":"K.Paramathi","c":635499,"d":"Karur","s":"TAMIL NADU"}},{"arcs":[[454,-436,-367,-311,-316,-342,-392,-449,455,456]],"type":"Polygon","properties":{"n":"Thanthoni (M)","c":803609,"d":"Karur","s":"TAMIL NADU"}},{"arcs":[[457,-410,458,459]],"type":"Polygon","properties":{"n":"Somur","c":635560,"d":"Karur","s":"TAMIL NADU"}},{"arcs":[[-442,-454,460,461]],"type":"Polygon","properties":{"n":"Karudayampalayam","c":635512,"d":"Karur","s":"TAMIL NADU"}},{"arcs":[[-426,-411,-458,462,463]],"type":"Polygon","properties":{"n":"Achamapuram","c":635559,"d":"Karur","s":"TAMIL NADU"}},{"arcs":[[464,-408,-375,-334,-337,-440,-462,465]],"type":"Polygon","properties":{"n":"Pavithiram","c":635513,"d":"Karur","s":"TAMIL NADU"}},{"arcs":[[466,467,-456,-451,468]],"type":"Polygon","properties":{"n":" ","c":0,"d":"Karur","s":"TAMIL NADU"}},{"arcs":[[-459,-414,-437,-455,469,470]],"type":"Polygon","properties":{"n":"Koyamballi","c":635561,"d":"Karur","s":"TAMIL NADU"}},{"arcs":[[-469,-450,-404,-396,471,472,473]],"type":"Polygon","properties":{"n":"Andankoil  East (CT)","c":635583,"d":"Karur","s":"TAMIL NADU"}},{"arcs":[[-472,-399,-403,-409,-465,474,475]],"type":"Polygon","properties":{"n":"Andankoil(West)","c":635564,"d":"Karur","s":"TAMIL NADU"}},{"arcs":[[476,477,-470,-457,-468,478,479]],"type":"Polygon","properties":{"n":"Minampalli-Pachamadevi (CT)","c":635581,"d":"Karur","s":"TAMIL NADU"}},{"arcs":[[-463,-460,-471,-478,480,481,482]],"type":"Polygon","properties":{"n":"Nerur South","c":635558,"d":"Karur","s":"TAMIL NADU"}},{"arcs":[[483,-453,484,485]],"type":"Polygon","properties":{"n":"Munnur","c":635498,"d":"Karur","s":"TAMIL NADU"}},{"arcs":[[-479,-467,-474,486,487]],"type":"Polygon","properties":{"n":"Kadaparai (CT)","c":635582,"d":"Karur","s":"TAMIL NADU"}},{"arcs":[[488,489,-416,-446,490,491]],"type":"Polygon","properties":{"n":"Thennilai(West)","c":635501,"d":"Karur","s":"TAMIL NADU"}},{"arcs":[[-491,-448,492,493]],"type":"Polygon","properties":{"n":"Monjanur (East)","c":635502,"d":"Karur","s":"TAMIL NADU"}},{"arcs":[[-481,-477,494,495,496]],"type":"Polygon","properties":{"n":" ","c":0,"d":"Karur","s":"TAMIL NADU"}},{"arcs":[[497,-461,-484,498,499]],"type":"Polygon","properties":{"n":"Kuppam","c":635497,"d":"Karur","s":"TAMIL NADU"}},{"arcs":[[500,-487,-473,-476,501,502]],"type":"Polygon","properties":{"n":"Athur","c":635563,"d":"Karur","s":"TAMIL NADU"}},{"arcs":[[-485,-452,-395,-417,-490,503,504,505]],"type":"Polygon","properties":{"n":"Thennilai(East)","c":635494,"d":"Karur","s":"TAMIL NADU"}},{"arcs":[[-502,-475,-466,-498,506,507,508]],"type":"Polygon","properties":{"n":"Punnam","c":635496,"d":"Karur","s":"TAMIL NADU"}},{"arcs":[[-492,-494,509,510,511]],"type":"Polygon","properties":{"n":"Karvazhi","c":635492,"d":"Karur","s":"TAMIL NADU"}},{"arcs":[[-482,-497,512,513]],"type":"Polygon","properties":{"n":"Nerur North","c":635557,"d":"Karur","s":"TAMIL NADU"}},{"arcs":[[514,515,-495,-480,-488,-501,516,517]],"type":"Polygon","properties":{"n":"Manmangalam","c":635562,"d":"Karur","s":"TAMIL NADU"}},{"arcs":[[-504,-489,-512,518,519]],"type":"Polygon","properties":{"n":"Thukkachi","c":635493,"d":"Karur","s":"TAMIL NADU"}},{"arcs":[[-499,-486,-506,520,521]],"type":"Polygon","properties":{"n":"Athipalayam","c":635495,"d":"Karur","s":"TAMIL NADU"}},{"arcs":[[-513,-496,-516,522,523,524,525,526]],"type":"Polygon","properties":{"n":"Kuppuchipalayam","c":635555,"d":"Karur","s":"TAMIL NADU"}},{"arcs":[[-525,527]],"type":"Polygon","properties":{"n":" ","c":0,"d":"Karur","s":"TAMIL NADU"}},{"arcs":[[-519,-511,528]],"type":"Polygon","properties":{"n":"Anjur","c":635491,"d":"Karur","s":"TAMIL NADU"}},{"arcs":[[529,-507,-500,-522,530,531,532]],"type":"Polygon","properties":{"n":"Vettamangalam (East)","c":635548,"d":"Karur","s":"TAMIL NADU"}},{"arcs":[[-526,-528,-524,533,534]],"type":"Polygon","properties":{"n":"Vangal","c":635556,"d":"Karur","s":"TAMIL NADU"}},{"arcs":[[-534,-523,-515,535,536]],"type":"Polygon","properties":{"n":"Nanniyur","c":635554,"d":"Karur","s":"TAMIL NADU"}},{"arcs":[[-536,-518,537,538]],"type":"Polygon","properties":{"n":"N.Kadambankurichi","c":635552,"d":"Karur","s":"TAMIL NADU"}},{"arcs":[[-538,-517,-503,-509,539,540,541]],"type":"Polygon","properties":{"n":"P.Kadambankurichi","c":635553,"d":"Karur","s":"TAMIL NADU"}},{"arcs":[[-540,-508,-530,542,543]],"type":"Polygon","properties":{"n":"Punjai Thottakurichi (TP)","c":803605,"d":"Karur","s":"TAMIL NADU"}},{"arcs":[[-532,544,545]],"type":"Polygon","properties":{"n":"Kombupalayam","c":635549,"d":"Karur","s":"TAMIL NADU"}},{"arcs":[[-543,-533,-546,546,547]],"type":"Polygon","properties":{"n":"Thirukkattuthurai","c":635550,"d":"Karur","s":"TAMIL NADU"}},{"arcs":[[-541,-544,-548,548]],"type":"Polygon","properties":{"n":"TNPL Pugalur (TP)","c":803603,"d":"Karur","s":"TAMIL NADU"}},{"arcs":[[549,-77]],"type":"Polygon","properties":{"n":"Uthuppatti","c":635640,"d":"Karur","s":"TAMIL NADU"}},{"arcs":[[-194,-228,-208,550]],"type":"Polygon","properties":{"n":"Seplapatti","c":635618,"d":"Karur","s":"TAMIL NADU"}}]}}}