{"type":"Topology","arcs":[[[14030,15727],[-264,-1016]],[[13766,14711],[332,-1035],[566,-466],[536,-1656],[-873,-757],[-302,-1173],[-371,-190]],[[13654,9434],[-1005,-595],[-1496,782],[-1102,894],[-55,705],[-895,559],[-479,-130],[-816,609],[71,1035],[-1175,316],[-962,-9],[-167,-476],[-1219,-299],[-304,-406],[-1210,445],[-1264,257]],[[1576,13121],[570,635],[662,350],[1051,75],[1073,293],[758,436],[57,299]],[[5747,15209],[1147,77],[399,394],[1166,-216],[296,-521],[1379,-135],[102,-682],[1073,70],[-24,-586],[638,-147],[359,577],[-500,55],[324,1136],[673,26],[55,406],[-556,865],[-571,-71],[-183,494],[930,762],[1699,-1272],[-123,-714]],[[15205,24345],[746,-283],[-105,-1738],[-683,-475]],[[15163,21849],[-689,648],[-1514,-113],[41,830],[1594,1250],[610,-119]],[[22525,23302],[443,-230],[22,-777],[502,-1379]],[[23492,20916],[-1177,24],[-710,-317],[-72,-555],[-769,-52],[4,-624],[-439,-312],[-225,-1071],[516,-214],[487,431],[786,-328],[-536,-475],[99,-456],[-1093,-250],[-520,-382],[-41,-612],[-850,140],[256,1296],[-1140,440],[236,336],[-1033,249],[50,-1436],[-1090,-909],[-994,-147],[-481,-739],[-990,-242]],[[14030,15727],[282,978],[-209,2118],[792,400],[505,1335],[-237,1291]],[[15205,24345],[240,159],[1853,2239]],[[17298,26743],[786,-409],[1704,-186],[-82,-625],[549,-13],[225,-1087],[998,-142],[143,-709],[904,-270]],[[5747,15209],[-302,15],[-342,781],[830,609],[506,636],[-591,-266],[-992,83],[-566,367],[467,415],[-38,395],[664,204],[-603,709],[639,270],[131,406],[619,-180],[499,463],[895,-161],[145,708],[-1148,361],[523,881],[-702,186],[901,900],[-23,505],[753,562],[525,-147],[201,324],[-267,566],[151,709],[834,165],[-395,879],[234,729]],[[9295,27283],[1445,-712],[2089,37],[711,495],[780,255],[832,-53],[142,244],[1054,-183],[950,-623]],[[34803,29300],[254,-35]],[[35057,29265],[43,-658],[-788,-1118],[88,-753],[366,-595],[1695,-1558],[1320,78],[932,-603],[497,133],[424,1076]],[[39634,25267],[400,-854],[-226,-611],[-632,-349],[-986,-130],[-1624,-926],[-467,-548],[667,-932],[1539,209],[-1015,-914],[-23,-669],[-659,-620],[211,-894],[838,-1312],[-3,-526],[-1209,-1317],[-1679,-984],[-1269,-1761]],[[33497,12129],[-1519,-2172],[-726,-1278],[32,-414],[-467,-534],[-1239,787],[-1269,174],[-254,775],[400,455],[-293,673],[885,679],[-243,295],[-559,-353],[-460,87],[-814,602],[-435,-256],[-2052,-282],[-1739,-1404],[-699,-33],[47,-560],[-1750,-742],[-630,-548],[-813,103],[-468,-529],[-1040,139],[-426,442],[-554,-49],[-933,927],[-1825,321]],[[23492,20916],[967,-378],[444,432],[-431,752],[-611,159],[701,311],[302,1181],[591,315],[2850,-86],[1048,-302],[-165,905],[310,553],[1713,-398],[-21,749]],[[31190,25109],[516,104],[-112,493],[-1606,-460],[838,981],[167,1311],[-331,306],[987,-236],[272,898],[877,1178],[708,-125],[193,-363],[710,345],[394,-241]],[[22525,23302],[-444,1138],[343,-36],[441,1069],[-230,599],[637,1201],[-178,391]],[[23094,27664],[-40,767]],[[23054,28431],[857,1403],[1148,-259],[826,141],[211,-1812],[-226,-832],[455,-468],[768,-296],[824,-1026],[1022,-23],[288,-227],[800,143],[1163,-66]],[[18604,31095],[256,-552],[-23,-1057],[1018,-436],[636,83]],[[20491,29133],[-352,-1298],[1720,-379],[431,356],[804,-148]],[[9295,27283],[-257,355],[598,747],[1405,-61],[416,1345],[816,19],[11,422],[-838,1226]],[[11446,31336],[350,-221],[873,157],[1833,-32],[526,155],[1810,-236],[1766,-64]],[[11579,31432],[-133,-96]],[[1576,13121],[-886,-161],[-690,426],[341,309],[81,1007],[556,567],[543,62],[325,431],[-375,484],[-17,635],[926,1080],[84,1629],[621,634],[790,158],[-118,694],[1257,559],[82,510],[1478,2302],[660,602],[-415,1083],[-414,268],[304,1029],[291,286],[-60,1544],[2382,313],[406,509],[493,52],[-383,1566]],[[9838,31699],[1067,66],[674,-333]],[[18604,31095],[-69,1386],[392,18],[-50,1205],[806,-67],[1333,290],[1035,-349],[1642,-64],[67,-574],[-218,-1108],[273,-563],[-713,-167],[-852,290],[124,-775],[-522,62],[282,-528],[-236,-1135],[-1407,117]],[[26953,34261],[-204,-602],[206,-1112]],[[26955,32547],[1015,-489],[838,-15],[436,-392],[1672,240],[994,-234],[-53,-411],[850,-394],[1164,-1088],[623,-162],[309,-302]],[[23054,28431],[271,1247],[1021,1275],[131,759],[816,1377],[253,928]],[[25546,34017],[481,363],[926,-119]],[[11579,31432],[967,335],[780,836],[475,-154],[369,819],[-292,823],[-449,129],[30,473],[449,372],[-659,154],[174,1313]],[[13423,36532],[1326,-195],[552,-473],[3465,-673],[1430,-116],[554,-345],[2000,-423],[1150,22],[1646,-312]],[[45568,33821],[-575,-974],[236,-2320],[-259,-780],[-561,-628],[-1301,-948],[-1273,-1451],[-774,-307],[-612,-908],[-815,-238]],[[35057,29265],[438,-262],[315,712],[-512,473],[-543,-267],[-1003,588],[-158,606]],[[33594,31115],[-145,266],[469,1216],[339,421],[697,-33],[-94,1415],[414,189],[53,590]],[[35327,35179],[1045,115],[733,-549],[385,-611],[-394,-813],[1113,-1054]],[[38209,32267],[1651,203],[1226,911],[1177,308],[1606,1266],[863,1472]],[[44732,36427],[577,160],[-103,-1029],[-325,-492],[687,-1245]],[[26955,32547],[552,432],[-171,343],[107,1600],[848,1036],[982,179],[971,679],[756,210]],[[31000,37026],[237,-1053],[-273,-950],[600,-2143],[527,-815],[877,-732],[626,-218]],[[27860,36044],[-1122,-1009],[215,-774]],[[13423,36532],[188,641],[551,-170],[186,764],[-783,257],[522,223]],[[14087,38247],[1031,120],[5169,-1342],[186,193],[2497,-222],[313,-264],[2424,-599],[627,236],[1526,-325]],[[38520,38966],[90,-579],[859,229],[-282,-608],[82,-870],[-357,-6],[-137,-1035],[201,-785],[-293,-61],[55,-912],[-529,-2072]],[[35327,35179],[-181,1620],[-254,858],[531,689],[182,783]],[[35605,39129],[719,60],[124,-436],[2072,213]],[[29807,38815],[-580,-1040],[-73,-524],[-538,-85],[-302,-807],[-454,-315]],[[14087,38247],[202,665],[764,-237],[179,364],[589,-284],[641,400],[838,-243],[612,330],[444,-229],[1155,199],[-176,-876],[229,-126]],[[19564,38210],[1818,-806],[699,-9],[772,326],[174,387],[1734,311],[249,-289],[873,81],[852,1280]],[[26735,39491],[1210,-469],[1496,367],[366,-574]],[[31000,37026],[404,515],[515,-116],[760,958]],[[32679,38383],[743,690]],[[33422,39073],[604,-264],[1230,848],[349,-528]],[[29807,38815],[428,67],[96,843],[355,-336],[1993,-1006]],[[47103,35406],[-777,-501],[-758,-1084]],[[44732,36427],[-581,305],[339,676],[-770,499],[64,516],[-538,586],[-786,373],[-836,126],[-277,483],[470,120],[267,528]],[[42084,40639],[1281,-14],[309,-313],[923,-60],[428,-246],[-52,-890],[346,-240],[226,-1116],[569,-303],[-115,-591],[405,177],[346,-825],[527,-335],[-174,-477]],[[38520,38966],[-36,1017],[1319,-346],[582,1594]],[[40385,41231],[951,43],[47,-586],[701,-49]],[[33422,39073],[1008,1703]],[[34430,40776],[300,-43],[771,802],[573,182],[1010,-183],[1400,-13],[1053,489],[690,110]],[[40227,42120],[158,-889]],[[31369,42209],[-208,-529],[691,263],[1425,1155],[642,-538],[-23,-1301],[-179,-327],[713,-156]],[[26735,39491],[-799,366],[309,619],[-94,650],[729,645],[829,129],[46,1524]],[[27755,43424],[763,-556],[1213,-448],[1638,-211]],[[47234,37278],[-115,-738],[527,-770],[-543,-364]],[[40227,42120],[1205,1159],[286,604]],[[41718,43883],[2439,-513],[585,-248],[861,-1052],[101,-813],[-294,-993],[101,-664],[705,-722],[628,-1487],[390,-113]],[[33037,44576],[-222,-878],[-580,-810],[-866,-679]],[[27755,43424],[433,892],[1101,1696]],[[29289,46012],[2907,-254],[14,-626],[715,-136],[112,-420]],[[57188,44041],[21,-15]],[[57209,44026],[-21,15]],[[57188,44041],[-829,-630],[916,326],[337,-167],[-279,-471],[-823,-80],[-719,-753],[972,360],[657,-53],[410,-1760],[1159,-121],[57,-1403],[-325,-699],[2135,-300],[503,-230],[-137,-556],[456,-12],[-286,827],[135,391],[568,-15]],[[62095,38695],[437,-292],[1721,560]],[[64253,38963],[80,-238],[3094,217],[1425,-166],[-687,-712],[-1654,-902],[866,-167],[840,699],[727,-222],[996,697],[458,-108],[1232,604],[449,-582],[-29,-431],[508,-1112],[683,249],[1024,-16]],[[74265,36773],[-591,-1101],[-907,-832],[-1285,-757],[-1634,-405],[-1809,-2180],[-16,-588],[-802,-925],[-1051,-1585],[-866,-645],[-30,-1267],[-1250,-533],[47,-843],[-341,-451],[-2283,-243],[-21,-351],[-619,84],[-698,-267],[-996,137],[-546,1435],[-948,438],[-971,-295],[-2751,-53],[-1077,385],[-627,2287],[-509,644],[-16,567],[385,879],[-671,572],[60,358],[-1063,-5],[-687,263],[-882,20],[-127,745],[983,1188],[250,798],[767,1104],[-135,674],[653,46],[201,516],[516,223],[408,667],[-195,696],[-618,1043],[174,690],[-95,794],[213,318],[2174,1582],[536,1197],[475,184],[396,579],[-168,815],[-345,446],[1102,435],[169,-163],[-564,-829],[616,-655],[992,-568]],[[49089,41108],[-263,-412],[50,-1219],[1090,526],[967,-115],[-413,-1173],[-654,-126],[-190,479],[-1176,-654],[376,-587],[-1221,-1277],[-421,728]],[[41718,43883],[692,869]],[[42410,44752],[955,-117],[1794,582],[4125,1122],[611,81],[774,-1023],[-306,-1198],[-1139,-695],[154,-745],[-200,-675],[-629,-250],[-170,-892],[710,166]],[[78660,39691],[-620,-673]],[[78040,39018],[-812,-37],[-1017,-778],[-703,-120],[-707,-495],[-536,-815]],[[64253,38963],[1784,997],[446,713],[669,-34],[910,382],[1557,1050],[2089,362],[1989,26],[1868,993],[-1866,-2487],[-1524,-150],[-2929,-859],[1155,0],[-779,-441],[-49,-380],[2066,559],[1835,233],[832,639],[-1058,-366],[-832,-71],[738,488],[1202,215],[1832,1139],[339,342],[612,1227],[-202,694],[-554,492],[619,369],[586,855],[195,745],[888,-43],[814,672],[-454,-689],[57,-778],[-421,-307],[485,-894],[-350,-260],[449,-656],[-1164,-1007],[-1072,-1269],[-135,-578],[269,-411],[629,58],[431,782],[744,816],[216,-164],[-630,-1195],[121,-1081]],[[29519,46652],[-230,-640]],[[19564,38210],[724,994],[-49,1273],[390,-125],[1015,684],[-516,372],[137,293],[821,-231],[1257,293],[447,301],[-273,506],[-685,171],[722,597],[-435,336],[-1121,-798],[-1365,-753],[-222,327],[-765,125],[-1432,-125],[-233,-1193],[-311,-92],[-1522,636],[-579,948],[-967,523],[-87,306],[-771,130],[-163,389],[375,453],[671,-67],[127,498],[-314,341],[810,800]],[[15250,46122],[729,-102],[2504,-6],[994,198],[811,544],[1813,278],[759,1082],[508,130]],[[23368,48246],[1221,-207],[-20,269],[971,55],[1503,-257],[1403,692]],[[28446,48798],[498,-1039],[-87,-644],[662,-463]],[[78040,39018],[-374,-119],[-422,-825],[-80,-719],[-969,-1055],[-1051,-470],[-1422,-1460],[-1134,-765],[-224,-404],[-1048,-301],[-591,-687],[78,-444],[-886,-906],[-517,-1348],[-642,-705],[138,-813],[-1011,-908],[-433,-1022],[143,-408],[-449,-728],[-612,246],[-955,-2902],[-1326,-982],[-28,-497],[-806,-627],[-580,35],[-1424,-1128],[-1466,-352],[91,-768],[378,-908],[-1285,-1182],[-875,-1247],[-1370,-1013],[-164,-1077],[-477,-511],[-1539,-1054],[-703,-791],[-1063,-1634],[941,-767],[733,-279],[362,-1042],[-43,-995],[339,-744],[-749,-527],[-1803,-332],[-319,-309],[-1124,-356],[-284,325],[-896,238],[-632,-301],[-621,474],[-612,-140],[-1731,117],[-955,-990],[-1484,-426],[-575,-682],[-1494,-970],[-348,329],[-568,-471],[-1423,-577],[-730,-114],[-896,876],[-568,-75],[-637,288],[-68,435],[-772,713],[-530,18],[-178,1672],[209,604],[-757,980],[-1530,258],[-471,1072],[481,826],[918,150],[330,658],[-422,909],[-464,242],[439,1125],[646,485],[225,-324],[666,58],[-59,540],[-1991,619]],[[49089,41108],[1150,783],[-99,299],[1056,1140],[246,533],[1408,1255],[900,613],[67,455],[1118,187],[368,585],[1184,546],[521,-111],[297,-657],[525,874],[-875,556]],[[56955,48166],[1017,433],[1141,845],[646,283],[556,-580],[-208,-714],[-802,-928],[-715,-383],[-337,-573],[200,-982],[1088,-436],[-275,-749],[-1122,-359],[-401,219],[-534,-216]],[[34296,50086],[-297,-1215],[-609,-245],[-750,219],[-2095,-76]],[[30545,48769],[98,246],[1803,1161]],[[32446,50176],[1850,-90]],[[40032,49923],[-795,-475],[-447,-1205],[-1065,-713],[-1188,449]],[[36537,47979],[518,577],[75,481],[738,476],[41,619],[403,90]],[[38312,50222],[1061,140],[659,-439]],[[44167,50473],[-65,-388],[722,-426],[34,-382],[-593,-276],[28,-662],[1424,-585]],[[45717,47754],[161,-433],[-349,-911],[-531,-277],[-946,-116],[-534,-583],[-1108,-682]],[[33037,44576],[1374,1091],[1287,715],[259,793],[580,804]],[[40032,49923],[1789,-762],[1759,-302],[-114,641],[701,973]],[[29519,46652],[471,1901],[555,216]],[[34296,50086],[1615,137],[433,383],[404,-311],[-33,-1496],[-348,-486],[170,-334]],[[13196,50724],[57,-32]],[[13253,50692],[-21,-326],[805,-489],[831,-127],[978,-926],[664,-251],[-219,-757],[652,-601],[-944,-254],[-749,-839]],[[9838,31699],[-264,213],[468,1104],[754,998],[-79,605],[493,706],[600,322],[-740,378],[-737,1031],[82,382],[-334,956],[2370,325],[552,826],[1340,293],[-158,564],[179,882],[-1170,1209],[-1350,137],[24,582],[-1943,138],[367,200],[-12,693],[492,289],[-197,369],[371,684],[-815,971],[923,609],[1604,320],[-154,1176],[-643,277]],[[11861,48938],[655,1477],[680,309]],[[22894,51027],[360,-807],[-699,-447],[-312,-705],[846,-320],[279,-502]],[[13253,50692],[926,122],[1362,-47],[2428,77],[903,144],[4022,39]],[[28531,50977],[-233,-797],[148,-1382]],[[22894,51027],[2712,13],[2925,-63]],[[61188,48378],[-452,-757],[-510,-307],[-1113,-1067],[0,-347],[2107,30],[-829,-758],[-1049,-1459],[716,-295],[672,739],[-72,-918],[669,-316],[-199,1201],[3528,2459],[-113,-776],[465,-380],[71,-531],[447,557],[1787,677],[1307,186],[-542,-299],[-729,-829],[-1145,-529],[-825,-765],[-231,346],[-898,-889],[71,-325],[-966,-447],[-619,-802],[-1182,289],[-185,-704],[361,-127],[1111,212],[-373,-722],[531,-635],[-1754,-488],[181,-403],[1008,135],[953,582],[302,-232],[-527,-573],[-1067,-416]],[[56955,48166],[-444,439]],[[56511,48605],[1427,1448],[-236,696],[261,248],[1056,85]],[[59019,51082],[803,-764],[134,-439],[799,-481],[433,-1020]],[[53546,51571],[333,-373],[455,-1201],[720,-945],[1457,-447]],[[45717,47754],[170,877],[2096,103],[884,234],[1976,1026],[-414,232],[140,805]],[[50569,51031],[43,393],[2934,147]],[[28531,50977],[2392,63],[515,796]],[[31438,51836],[832,-638],[176,-1022]],[[44405,52568],[678,-378],[703,5],[-5,-376],[1008,0],[136,-226],[948,-26],[265,-221],[1249,-252],[1182,-63]],[[44167,50473],[185,955],[-380,158],[433,982]],[[13196,50724],[-538,278],[-765,-263],[-122,688]],[[11771,51427],[967,-120],[1173,563],[835,185],[3322,164],[618,187],[1286,0],[549,395],[1301,-52],[1099,687],[-11,414]],[[22910,53850],[807,226],[1534,-241],[548,-348],[781,579],[889,150]],[[27469,54216],[2414,-597],[1394,-1196],[161,-587]],[[66419,54488],[422,-508],[-273,-456],[1815,-1248],[1282,10],[-82,-669],[1012,94],[1136,867]],[[71731,52578],[1090,372],[1098,-65],[236,-384],[-427,-546],[-213,-944],[-361,-410]],[[73154,50601],[-703,-261],[-1301,-772],[-282,853],[-1377,28],[-774,242],[-972,-233],[-416,-401],[-348,538],[-506,-163],[-740,560],[-1956,-699],[-383,238],[-1278,-794],[-410,-427]],[[61708,49310],[-664,633],[123,725],[410,353],[401,1284],[784,646],[386,1022],[-229,438],[1255,-252],[266,255],[1617,-289],[362,363]],[[44395,52968],[10,-400]],[[38312,50222],[478,1329],[-29,1041]],[[38761,52592],[1393,1348],[1046,737],[273,530],[657,-217],[-579,-1004],[2844,-1018]],[[79982,55301],[84,-879],[617,-1239],[-293,-654]],[[80390,52529],[-2493,942],[-753,631],[-1086,-393],[-67,-1007],[985,-2810],[140,-1077],[355,56],[239,853],[-23,-1597],[-768,-303],[220,638],[-731,487],[-1903,-303],[-946,-553],[-99,886],[-764,56],[-878,-231],[1599,1053],[907,446],[-69,578],[-616,-413],[-485,133]],[[71731,52578],[121,739],[450,1102],[-268,1265]],[[72034,55684],[936,-153]],[[72970,55531],[12,-350],[1420,-163],[919,37],[1562,1253]],[[76883,56308],[1669,-383],[159,-428],[1271,-196]],[[25622,56049],[1436,-480]],[[27058,55569],[108,-890],[303,-463]],[[22910,53850],[-1294,193],[18,671],[908,490],[457,1111],[871,-46],[55,-1327],[1697,1107]],[[39414,53810],[-653,-1218]],[[31438,51836],[1056,1304],[1305,532],[374,337],[76,745]],[[34249,54754],[687,1109],[545,10],[1163,623]],[[36644,56496],[520,-102],[1416,-784],[1090,-344],[-939,-1269],[683,-187]],[[70900,56552],[1134,-868]],[[66419,54488],[-14,1048],[1061,976],[1139,-249],[2295,289]],[[29768,57204],[200,-209],[1083,-80],[128,-304],[1170,-319],[628,-1597],[1272,59]],[[27058,55569],[765,536],[26,473],[1919,626]],[[81264,56933],[-205,-790],[-1077,-842]],[[76883,56308],[263,178]],[[77146,56486],[511,-101],[350,443],[2584,406],[673,-301]],[[81264,56933],[1187,1030]],[[82451,57963],[964,-1125],[1088,-40],[-9,-397],[813,-494],[-1337,-157],[-41,-536],[-1089,-763],[-549,44],[-108,-673],[928,-125],[543,316],[364,-291],[-447,-944],[-1140,-1182],[-379,297],[-522,-903],[-671,-276],[-623,-705],[-660,798],[557,348],[-185,599],[524,405],[-82,370]],[[56339,57323],[249,-701],[-187,-1241],[-442,-689],[604,199],[721,-282],[685,-787],[939,-246]],[[58908,53576],[-460,-785],[816,-1207],[-245,-502]],[[53546,51571],[351,1254],[394,385],[-415,391],[156,1131],[-343,305],[245,556],[-548,1877],[238,569]],[[53624,58039],[1993,-159],[722,-557]],[[73786,58023],[-73,-2492],[-743,0]],[[70900,56552],[668,463],[-75,1216]],[[71493,58231],[1306,84],[987,-292]],[[41691,57685],[254,-176]],[[41945,57509],[-568,-1105],[-1423,-1319],[-540,-1275]],[[36644,56496],[135,529],[1286,1430]],[[38065,58455],[2364,-407],[309,436],[440,-95],[-555,-652],[1068,-52]],[[44395,52968],[143,-37],[1362,2402],[1262,2383],[855,1191]],[[48017,58907],[1949,-245],[1382,3],[1088,-214],[102,-380],[770,-319],[316,287]],[[77146,56486],[-336,705],[249,416],[655,209],[538,1071],[967,137]],[[79219,59024],[-630,-515],[346,-273],[1161,441],[-1015,-855],[1501,68],[591,344],[1278,-271]],[[11771,51427],[-156,609],[734,906],[-867,339],[237,642],[629,130],[255,389],[1507,1461],[-323,909],[781,83],[41,812],[854,356],[1047,-233],[564,1115],[552,-498],[353,381],[-76,839]],[[17903,59667],[1503,-203],[1363,-609],[1637,-347],[648,-319],[289,-477],[570,-160],[617,-984],[1092,-519]],[[41945,57509],[978,2146],[1463,171],[142,-157],[3209,-901],[280,139]],[[78788,59396],[431,-372]],[[73786,58023],[270,1373],[699,523]],[[74755,59919],[321,-166],[1908,-117],[416,-296],[596,184],[792,-128]],[[60269,59948],[-14,-732],[1120,-73]],[[61375,59143],[-68,-1571],[-287,-517],[-552,81],[-102,-499],[371,-938],[-241,-403],[-1029,-591],[12,-552],[-571,-577]],[[56339,57323],[432,16],[243,1039]],[[57014,58378],[887,39],[-89,564],[730,463],[69,924]],[[58611,60368],[1658,-420]],[[50933,60530],[2952,-711],[-245,-922],[1185,-360],[125,277],[1530,-40],[534,-396]],[[48017,58907],[-138,1677],[344,369]],[[48223,60953],[1658,-647],[1052,224]],[[82194,60884],[1531,-49],[-321,-466],[-46,-867],[1177,-1570],[1057,-571],[1202,-170]],[[86794,57191],[-248,-291],[-109,-987],[-1187,-1218],[330,-843],[-740,-1293],[-964,-832],[-1152,-1398],[-687,-310],[-715,-648],[-552,-146],[-502,-933],[-153,-891],[259,-662],[-289,-652],[549,-895],[970,-41],[-335,-548],[-9,-1000],[-752,-1577],[-1312,-2008],[-536,-327]],[[61188,48378],[586,653],[-66,279]],[[78788,59396],[701,489],[781,845]],[[80270,60730],[571,394],[1353,-240]],[[67681,59642],[195,-1929],[2644,-38],[973,556]],[[61375,59143],[207,717],[476,385],[1452,-370],[536,237],[504,1028]],[[64550,61140],[621,-1451],[680,149],[1830,-196]],[[67681,59642],[992,233],[-103,1063],[-348,273]],[[68222,61211],[1501,795],[1021,273]],[[70744,62279],[-28,-969],[234,-815],[454,-203],[-165,-1045],[254,-1016]],[[64550,61140],[-179,1540]],[[64371,62680],[1318,-12],[1777,-200],[383,-919],[373,-338]],[[22708,62723],[1641,-491],[1120,-587],[744,138],[1452,-200],[397,-613],[794,-359],[1159,-1726],[-18,-621],[397,-192],[-197,-633],[-429,-235]],[[17903,59667],[60,414],[772,91],[513,658],[898,-223],[-111,483],[752,543],[726,43],[172,771],[1007,276]],[[22692,62723],[16,0]],[[74755,59919],[-103,265],[369,997],[1490,406],[202,322]],[[76713,61909],[500,595],[1076,499]],[[78289,63003],[59,-925],[754,30],[14,-877],[1154,-501]],[[11861,48938],[-1162,-97],[-1159,547],[-1306,1852],[536,-36],[399,995],[573,19],[-472,1699],[28,1133],[769,238],[321,531],[960,352],[338,1702],[699,333],[-233,602],[664,909],[1791,1486],[-287,582],[651,-32],[488,325],[1376,-149],[1206,1095]],[[18041,63024],[1610,-440],[1665,216],[1376,-77]],[[50933,60530],[659,1085],[1247,857],[627,95],[591,506]],[[54057,63073],[-34,-718],[1081,-725],[426,-31],[426,-651],[706,-340],[1280,39],[669,-279]],[[41691,57685],[423,866],[-57,569],[307,512],[-186,339],[612,1416],[477,403],[52,571],[1083,525],[401,490],[1881,649]],[[46684,64025],[270,-173],[-201,-914],[872,-1461],[598,-524]],[[35132,60141],[686,-100],[96,-744],[716,256],[1162,854]],[[37792,60407],[827,-635]],[[38619,59772],[84,-809],[-638,-508]],[[22708,62723],[-545,451],[-259,814],[115,550]],[[22019,64538],[1918,233],[1573,-690],[373,-329],[1184,-86],[209,-256],[1200,63],[78,591],[1354,-920],[-231,-599],[263,-533],[1468,-304],[566,-528],[167,-508],[1019,45],[-217,-335],[1397,-379],[792,138]],[[81556,65160],[-227,-679],[57,-1091],[836,-1591],[30,-878]],[[82252,60921],[-58,-37]],[[78289,63003],[389,1324],[-943,494],[604,791],[326,7],[433,-795],[1168,84],[1090,375],[200,-123]],[[69363,65254],[398,-714],[1008,-1210],[-25,-1051]],[[64371,62680],[-877,223],[-235,1324],[213,190],[-122,943],[305,645],[401,-380],[432,472]],[[64488,66097],[1613,-551],[2570,-157],[692,-135]],[[41885,66370],[1182,-258],[-155,-436],[886,-357],[849,226],[-166,-398],[410,-889],[2020,619],[872,711],[672,71]],[[48455,65659],[478,-1658],[-2249,24]],[[38619,59772],[561,234],[-76,485],[401,812],[520,74],[87,747],[662,25],[73,719],[507,88],[462,-774],[163,722],[854,44],[-165,612],[-620,125],[-373,417],[91,704],[-446,178],[565,1386]],[[69363,65254],[419,1161],[1535,113],[1843,-286],[1716,362],[763,-21],[314,298]],[[75953,66881],[123,-1385],[482,-502],[-307,-1216],[343,-938],[119,-931]],[[37792,60407],[666,1338],[-863,623],[410,651],[-770,157],[-80,605],[389,122],[715,804],[940,-66],[-28,1062],[298,872],[-293,33]],[[39176,66608],[451,371]],[[39627,66979],[826,-366],[1432,-243]],[[35132,60141],[138,260],[-314,895],[309,382],[-114,526],[-477,321],[-1591,469],[-136,521],[-632,-195],[-304,388],[52,909],[-337,28],[-169,728],[-447,153],[333,559],[-527,187],[139,778]],[[31055,67050],[1700,-585],[1315,-21],[1186,273]],[[35256,66717],[498,569],[1351,-346],[520,59],[1551,-391]],[[93723,66342],[481,-138]],[[94204,66204],[-557,-1024],[-282,-1008],[-1782,107],[-803,-943],[-734,-63],[221,-1248],[400,-1077],[417,-1815],[-2064,-2799],[-1159,504],[-783,551],[-284,-198]],[[82252,60921],[611,778],[578,174],[1662,-501],[-29,-785],[-518,-369],[108,-385],[565,313],[859,-459],[186,-966],[1507,33],[165,1560],[392,1249],[-637,522],[-18,1128],[-300,-9],[-253,1680],[394,508],[-91,620],[-1203,867],[-559,-48],[138,602],[587,260]],[[86396,67693],[402,-291],[1263,692],[1301,-389],[-78,-1215],[403,-278],[1115,-214],[633,-671],[574,-15],[223,541],[1110,101],[381,388]],[[22019,64538],[731,655],[305,683],[707,22],[-325,336],[-259,1182],[600,-84],[332,452],[860,37],[386,443]],[[25356,68264],[367,-373],[958,-192],[1234,-1],[559,-200],[2581,-448]],[[54895,65536],[-732,-71],[-71,-349],[-727,121],[147,824],[603,1142],[556,315],[1017,1129],[279,60]],[[55967,68707],[12,-558],[-1084,-2613]],[[60957,67982],[428,-607],[-236,-1317],[-417,-1099],[-87,-828],[446,-511],[-403,-1023],[369,-205],[-1015,-614],[585,-581],[-358,-1249]],[[54057,63073],[838,2463]],[[55967,68707],[269,100]],[[56236,68807],[1789,143],[350,-522],[628,-64],[1266,-452],[688,70]],[[81556,65160],[939,63],[1550,-342],[215,1301],[-1268,2085],[-427,1103]],[[82565,69370],[2321,-134],[1266,-250],[628,-628],[-384,-665]],[[75953,66881],[126,978],[776,794],[461,960]],[[77316,69613],[962,-214],[3389,-295],[898,266]],[[48455,65659],[-126,902],[-623,1137],[-266,13],[211,779],[634,410],[263,-432],[798,119]],[[49346,68587],[1678,99],[821,254],[1016,775],[1418,329]],[[54279,70044],[1957,-1237]],[[60957,67982],[-37,761],[1085,519],[198,669]],[[62203,69931],[2207,503],[843,563],[-190,265]],[[65063,71262],[790,-369],[266,-805],[-192,-898],[-641,-763],[-846,-1626],[48,-704]],[[34677,70200],[632,-436],[83,-807],[-383,-1069],[-532,-519]],[[34477,67369],[779,-652]],[[25356,68264],[-279,546],[799,-64],[1356,210],[-338,850],[48,569],[1046,231],[-259,692]],[[27729,71298],[1153,416]],[[28882,71714],[2387,-1050],[341,-991],[1518,-517],[1072,-194],[64,667],[413,571]],[[39627,66979],[-603,764],[-561,358],[9,743],[1329,163],[2524,50],[460,-100],[58,755],[-685,911]],[[42158,70623],[1022,522],[801,616]],[[43981,71761],[1427,-308],[678,135],[-163,-379],[850,-106],[477,-369],[891,-103],[483,-490],[893,-239],[-171,-1315]],[[27627,71318],[-828,-527],[-421,201],[-712,-150],[-168,-612],[-717,343],[-703,-628],[-460,412],[-1150,-56],[525,954],[-385,696]],[[22608,71951],[1484,-157],[435,-261],[3100,-215]],[[59293,72654],[-575,-707],[406,-847],[1069,-178],[864,-399]],[[61057,70523],[-2165,65],[-803,218],[-232,-1091],[-786,50],[321,680],[924,701],[-379,296],[-778,-763],[-692,584],[1468,1726]],[[57935,72989],[1083,56],[275,-391]],[[28882,71714],[558,1302],[1423,-603],[-110,773],[712,29],[997,-455],[330,149],[1056,-901],[833,46],[-160,-682],[524,-196],[-368,-976]],[[96206,73721],[667,-132],[82,-1341],[-566,-447],[-37,-445],[-1530,-613],[-387,444]],[[94435,71187],[-836,755],[1216,848]],[[94815,72790],[85,1042],[309,-423],[997,312]],[[34477,67369],[773,-309],[634,776],[538,-4],[834,1125],[-176,1048],[151,469],[577,210]],[[37808,70684],[284,785],[-66,811],[650,929],[779,269],[346,397]],[[39801,73875],[845,33],[115,-383],[-559,-758],[771,-459],[-733,-795],[-1358,-371],[42,-744],[1230,136],[1280,475],[724,-386]],[[48365,74008],[1145,-462],[119,-271],[947,60],[-266,-523],[593,-355],[184,-453],[1825,-769],[277,-667],[1090,-524]],[[43981,71761],[935,1031],[433,85],[-99,1161],[971,179],[112,-332],[2032,123]],[[37808,70684],[-717,1307],[367,1195],[0,695],[-472,843]],[[36986,74724],[613,-97],[1070,-545],[1404,193],[-272,-400]],[[78518,72065],[-691,-756],[-511,-1696]],[[65063,71262],[600,892],[937,237],[495,721],[-9,1238],[639,669],[463,-66],[337,436],[792,326]],[[69317,75715],[1122,-3348],[-678,-2748],[1565,-187],[928,-440],[1986,0],[109,823],[1965,427],[1190,1719],[1014,104]],[[27627,71318],[102,-20]],[[18041,63024],[948,589],[-351,961],[319,776],[-836,511],[-632,1038],[384,467],[-850,94],[-173,667],[952,809],[-2302,1628],[474,246],[280,682],[407,0],[461,669],[-76,822],[-437,532],[-639,317],[-898,932]],[[15072,74764],[485,1083],[690,145],[737,-804],[456,140],[1216,-452],[1098,247],[1846,9],[1349,555],[1012,887]],[[23961,76574],[1130,225],[1115,-346],[-829,-1233],[-895,-591],[-477,-20],[-616,-508],[-225,-556],[-460,372],[-405,-459],[-1853,-159],[-33,-229],[951,-260],[2025,163],[-783,-556],[2,-466]],[[89973,76391],[147,-340],[951,405],[-44,-415],[-1109,-592],[-314,-655],[-2553,-1098],[-433,-736],[261,-313],[836,93],[866,628],[1284,77],[-1190,-632],[-264,-793],[1223,554],[955,113],[-275,-409],[223,-799],[463,-184],[-585,-615],[804,-266],[625,202],[427,-459],[444,296],[974,-269],[263,-2429],[-229,-1413]],[[78518,72065],[886,639],[292,641],[-87,848],[-775,77],[-588,799]],[[78246,75069],[1537,507]],[[79783,75576],[1245,252],[1341,-266],[552,-643],[1910,906],[930,-104],[1054,849],[787,146]],[[87602,76716],[1281,320],[527,-53],[563,-592]],[[52165,77093],[1148,-2547],[859,-212],[1314,-733],[470,24],[1979,-636]],[[61057,70523],[500,-448],[646,-144]],[[48365,74008],[140,1055],[366,249],[779,1231],[1890,706]],[[51540,77249],[625,-156]],[[69317,75715],[1466,748],[948,98]],[[71731,76561],[1372,910],[839,-30],[843,-762],[717,-411],[494,-679],[2250,-520]],[[94435,71187],[121,-1509],[-284,-867],[102,-1309],[-170,-1298]],[[89973,76391],[-39,572],[1492,433],[1064,465],[1425,-179],[712,-396],[562,-630],[-452,-392],[-776,72],[-682,-1163],[181,-637],[638,-363],[-201,-507],[918,-876]],[[58909,76623],[829,-595],[895,-334],[142,-614],[-187,-893],[-944,-1437],[-351,-96]],[[52165,77093],[1762,43],[584,878],[1065,144]],[[55576,78158],[1775,-589],[676,-569],[882,-377]],[[68146,78011],[687,360],[1229,-264],[1277,26]],[[71339,78133],[397,-804],[-5,-768]],[[58909,76623],[-333,1308],[647,701]],[[59223,78632],[2508,-730],[5724,-248],[691,357]],[[87602,76716],[30,642],[836,595],[754,995],[735,91],[495,345],[366,942],[410,187],[1409,-81],[1622,691]],[[94259,81123],[1997,-624],[145,-409],[-184,-2152],[369,-2076],[453,-284],[-1099,-1287],[266,-570]],[[59223,78632],[-1301,739],[-1592,414]],[[56330,79785],[15,658],[-354,415],[1088,151]],[[57079,81009],[1447,-77],[1706,299],[1994,130]],[[62226,81361],[82,-941],[1088,-130],[786,369],[744,-515],[818,197],[227,567],[588,-43],[-131,-561],[331,-281],[-434,-1390],[198,-426],[709,-41],[161,273],[753,-428]],[[48365,74008],[-1012,662],[-1979,2818],[144,394],[-5,3240],[-616,317],[499,712],[2044,-441],[1487,-1071],[1026,-318],[691,101],[1228,-514],[-332,-2659]],[[75976,82280],[-701,-1006],[226,-325],[-212,-1208],[749,-553],[284,-489],[1308,-25]],[[77630,78674],[-177,-1019],[1409,-1009],[515,143],[406,-1213]],[[71339,78133],[-68,244],[-1391,1471],[818,508],[2213,-120],[-811,1858]],[[72100,82094],[1267,222],[2609,-36]],[[23961,76574],[-1477,-111],[-604,543],[-1457,535],[558,522]],[[20981,78063],[1318,187],[991,-503],[239,140],[-477,640],[1006,-627],[1328,-189],[1643,191],[18,772],[-350,153],[217,830],[-625,140],[203,806],[339,-160],[410,410],[789,-1545],[1092,244],[683,-584],[-14,-489],[469,-36],[534,680],[633,-316],[1578,-64],[565,1051],[-130,919],[-634,152],[313,816],[1130,703],[268,-264],[-298,-961],[1062,130],[79,645],[909,832]],[[36269,82766],[132,-379],[-496,-482],[-23,-777],[-1171,-1032],[541,-810],[-641,-734],[-725,45],[-164,-1062],[586,-277],[-201,-825],[263,-272],[-318,-670],[-970,-7],[95,-821],[577,-612],[1422,-346],[751,3],[1059,1016]],[[77630,78674],[544,146],[789,-357],[1046,846],[811,20],[156,534],[1871,1415],[-1138,975],[-339,492],[566,51],[1120,-696],[756,-864],[1044,292],[1267,-273],[1692,41],[843,175],[222,1522],[282,557],[694,95],[582,1509],[586,307]],[[91024,85461],[2582,-782],[582,-286],[1065,-972],[-126,-795],[-433,-475],[-96,-706],[-339,-322]],[[73852,86149],[1411,-389],[-41,-150],[2513,-784]],[[77735,84826],[976,-257],[55,-726]],[[78766,83843],[-1989,73],[-801,-1636]],[[72100,82094],[-703,1942],[-857,311],[419,399],[-623,642],[1301,1413]],[[71637,86801],[1082,-442],[1133,-210]],[[68226,86965],[811,-257],[269,-446],[-608,-438]],[[68698,85824],[-522,-207],[-1924,-39],[-550,579],[-1292,262],[239,231],[542,169],[356,2],[231,-233],[580,-143],[-385,208],[506,323],[582,33]],[[67061,87009],[174,618],[341,-633],[650,-29]],[[89259,86387],[291,-353],[1003,-116],[471,-457]],[[78766,83843],[575,5],[1584,384],[298,-248],[1496,1205],[-508,925],[89,945]],[[82300,87059],[675,528],[637,117],[356,556]],[[83968,88260],[1807,-1251],[829,55],[1372,-695],[1283,18]],[[69807,87668],[791,-177],[121,-309],[879,-85],[39,-296]],[[62226,81361],[1482,21],[2038,-114],[655,505],[653,1002],[724,634],[4,1254],[916,1161]],[[68226,86965],[491,984],[-18,967]],[[68699,88916],[426,-238],[4,-798],[678,-212]],[[53208,87142],[1127,199],[-140,-638],[921,-377],[473,628],[903,-59],[240,-575],[628,135],[367,-534],[723,-331],[546,-940],[-57,-530],[382,-214],[245,-835],[-776,-236],[-860,-1328],[-851,-498]],[[56330,79785],[-434,-886],[81,-475],[-401,-266]],[[36269,82766],[1525,1185],[1913,1922],[4150,3439]],[[43857,89312],[864,-248],[1784,-897],[706,-20],[1038,-467],[986,116],[269,418],[1303,-30],[898,-621],[554,47],[949,-468]],[[69807,87668],[1161,1447]],[[70968,89115],[1636,561],[-314,-342],[760,-250],[990,602]],[[74040,89686],[161,-1329],[-349,-2208]],[[74040,89686],[717,-647],[144,-560],[1056,436],[672,-114],[863,377],[841,619]],[[78333,89797],[30,-436],[576,-783],[-290,-358],[6,-795],[-920,-2599]],[[78333,89797],[444,92]],[[78777,89889],[1191,-1173],[525,-164],[385,-897],[1175,-323],[247,-273]],[[82581,89916],[988,-602],[399,-1054]],[[78777,89889],[1210,401],[1351,-10],[778,-522],[465,158]],[[57131,89854],[335,-1206],[1186,-902],[2266,-286],[1324,-734],[18,-407],[1035,564],[1958,22],[316,-83],[225,-229],[742,418],[99,307]],[[66635,87318],[426,-309]],[[53208,87142],[-213,300],[625,518],[13,1109],[500,-54],[1081,872],[602,-167],[120,775],[377,290],[546,-359],[272,-572]],[[20981,78063],[-226,1910],[646,1133],[-372,528],[468,743],[-73,554],[350,580],[-682,735],[-225,-196],[488,1665],[110,1197]],[[21465,86912],[485,-314],[571,874],[1727,704],[1869,-87],[1901,-1118],[204,739],[797,1424],[2149,-955],[625,238],[201,429],[782,319],[664,765],[1441,355],[975,-767],[688,-883],[590,474],[1574,502],[1613,1413],[424,982],[520,-386],[1845,-235],[234,-1454],[513,-619]],[[64734,94228],[1152,-1014],[-371,-845],[391,-385],[218,-739],[518,-593],[-65,-2166],[-178,-540],[236,-628]],[[57131,89854],[765,522],[1411,1370],[401,-110],[1691,100],[1603,1233],[1202,631],[-790,314],[859,355],[461,-41]],[[96655,94180],[384,-489],[-64,-653],[639,4],[1238,-546],[1147,-1022],[-335,-733],[-489,-6],[-117,-818],[52,-1727],[607,-497],[-1056,201],[-543,-549],[-762,-243],[-1157,59],[-767,746],[-898,34],[-951,1103],[-181,470],[-1014,27],[-624,-249],[-1088,113]],[[90676,89405],[-574,78],[-566,527],[-1650,130],[-378,330],[-196,958],[572,98],[621,494],[-1120,236],[-105,510],[1049,691],[167,686]],[[88496,94143],[1789,-261],[375,95],[2770,-208],[2061,577],[1164,-166]],[[70968,89115],[-93,529],[1284,499],[500,693],[1690,649],[181,1427],[814,279],[749,846],[-915,432],[1185,1187],[-115,612]],[[76248,96268],[786,444]],[[77034,96712],[1188,405],[216,-252],[816,163],[872,-291],[-96,-281],[1269,-207],[1049,-336],[-19,-695],[-2084,-547],[-46,-668],[1498,-124],[532,-566],[2087,-418],[-289,-752],[838,-459],[-132,-487],[-386,321],[-1664,-174],[-301,-413],[346,-253],[-147,-762]],[[68699,88916],[84,822],[639,-114],[470,601],[144,1584],[294,804],[-275,1050],[-681,1031],[612,699],[-559,642],[715,1102]],[[70142,97137],[1379,-795],[-351,-350],[327,-485],[-181,-716],[369,-143],[765,816],[2300,828],[667,575],[130,-755],[701,156]],[[64734,94228],[925,90],[288,313],[113,938],[1010,-861],[637,592],[-442,289],[-69,667],[1182,-171],[-845,1059],[513,795],[100,-625],[1038,309],[958,-486]],[[88496,94143],[-749,706],[-1691,642],[-545,402],[58,665],[471,512]],[[86040,97070],[559,41],[-158,-542],[850,-43],[430,-477],[337,293],[197,-549],[825,100],[518,806],[1710,418],[209,420],[786,20],[1294,-673],[840,709],[-231,618],[909,170],[129,970],[685,-205],[9,391],[644,-1311],[-466,-40],[-496,-709],[32,-703],[-617,21],[522,-1381],[1098,-1234]],[[90676,89405],[-417,-590],[191,-1982],[-1130,-67],[-61,-379]],[[77034,96712],[552,608],[-1216,314],[-65,519],[1423,19],[153,430],[960,656],[916,-155],[633,253],[322,584],[507,59],[13,-682],[360,-419],[779,-100],[371,-572],[715,172],[1124,-638],[1141,-294],[318,-396]],[[15072,74764],[-1090,1361],[-1230,650],[-575,513],[-537,919],[-1410,416],[-108,543],[-527,571],[-1047,470],[-1782,1068],[-148,273],[153,1092],[-192,984],[-296,237],[596,992],[330,-28],[251,735],[642,30],[873,-295],[247,250],[937,116],[1211,588],[782,848],[623,217],[1809,41],[163,-493],[3129,-731],[2,-337],[2920,-224],[-123,609],[790,733]]],"transform":{"scale":[5.634256342563504e-06,6.9947699476994754e-06],"translate":[77.16586,9.51923]},"objects":{"villages":{"type":"GeometryCollection","geometries":[{"arcs":[[0,1,2,3,4]],"type":"Polygon","properties":{"n":"Melagudalur RF","c":641144,"d":"Theni","s":"TAMIL NADU"}},{"arcs":[[5,6]],"type":"Polygon","properties":{"n":"Gudalur (M)","c":803784,"d":"Theni","s":"TAMIL NADU"}},{"arcs":[[7,8,-1,9,-6,10,11]],"type":"Polygon","properties":{"n":" ","c":641134,"d":"Theni","s":"TAMIL NADU"}},{"arcs":[[-11,-7,-10,-5,12,13]],"type":"Polygon","properties":{"n":" ","c":0,"d":"Theni","s":"TAMIL NADU"}},{"arcs":[[14,15,16,17,-2,-9,18,19]],"type":"Polygon","properties":{"n":"Suruli RF","c":641141,"d":"Theni","s":"TAMIL NADU"}},{"arcs":[[-19,-8,20,21,22]],"type":"Polygon","properties":{"n":"Narayanathevanpatti","c":641135,"d":"Theni","s":"TAMIL NADU"}},{"arcs":[[23,24,-21,-12,-14,25,26]],"type":"Polygon","properties":{"n":"Kambam (M)","c":803783,"d":"Theni","s":"TAMIL NADU"}},{"arcs":[[27,-26,-13,-4,28,29]],"type":"Polygon","properties":{"n":"Suranganur   RF","c":641139,"d":"Theni","s":"TAMIL NADU"}},{"arcs":[[-24,30]],"type":"Polygon","properties":{"n":"Kambam (M)","c":803783,"d":"Theni","s":"TAMIL NADU"}},{"arcs":[[31,32,-20,-23,33,34]],"type":"Polygon","properties":{"n":"Kamayagoundanpatti (TP)","c":803782,"d":"Theni","s":"TAMIL NADU"}},{"arcs":[[-34,-22,-25,-31,-27,-28,35,36]],"type":"Polygon","properties":{"n":" ","c":0,"d":"Theni","s":"TAMIL NADU"}},{"arcs":[[37,-16,38,39,40,41,42]],"type":"Polygon","properties":{"n":"Erasakkanayackanur Hills","c":641133,"d":"Theni","s":"TAMIL NADU"}},{"arcs":[[-39,-15,-33,43,44]],"type":"Polygon","properties":{"n":"Royappanpatti","c":641129,"d":"Theni","s":"TAMIL NADU"}},{"arcs":[[45,-35,-37,46,47]],"type":"Polygon","properties":{"n":"Pudupatti (TP)","c":803781,"d":"Theni","s":"TAMIL NADU"}},{"arcs":[[48,-41,49,50]],"type":"Polygon","properties":{"n":"Chinnaovalapuram","c":641130,"d":"Theni","s":"TAMIL NADU"}},{"arcs":[[51,-48,52,53,54]],"type":"Polygon","properties":{"n":"Hanumanthampatti (TP)","c":803780,"d":"Theni","s":"TAMIL NADU"}},{"arcs":[[-50,-40,-45,55,56,57]],"type":"Polygon","properties":{"n":"Mallingapuram","c":641127,"d":"Theni","s":"TAMIL NADU"}},{"arcs":[[-56,-44,-32,-46,-52,58]],"type":"Polygon","properties":{"n":"Gokilapuram","c":641128,"d":"Theni","s":"TAMIL NADU"}},{"arcs":[[59,-43,60,61]],"type":"Polygon","properties":{"n":"Kanniservaipatti","c":641132,"d":"Theni","s":"TAMIL NADU"}},{"arcs":[[-61,-42,-49,62,63]],"type":"Polygon","properties":{"n":"Erasakkanayackanur","c":641131,"d":"Theni","s":"TAMIL NADU"}},{"arcs":[[-63,-51,-58,64,65,66]],"type":"Polygon","properties":{"n":"Muthulapuram","c":641126,"d":"Theni","s":"TAMIL NADU"}},{"arcs":[[67,-65,-57,-59,-55,68,69]],"type":"Polygon","properties":{"n":"Uthamapalayam (TP)","c":803779,"d":"Theni","s":"TAMIL NADU"}},{"arcs":[[70,-62,-64,-67,71,72]],"type":"Polygon","properties":{"n":"Alagapuri","c":641125,"d":"Theni","s":"TAMIL NADU"}},{"arcs":[[73,-70,74,75]],"type":"Polygon","properties":{"n":"Uthamapalayam","c":641124,"d":"Theni","s":"TAMIL NADU"}},{"arcs":[[76,77,78,79,80,81]],"type":"Polygon","properties":{"n":" ","c":641166,"d":"Theni","s":"TAMIL NADU"}},{"arcs":[[82,-73,83,84]],"type":"Polygon","properties":{"n":"Odaipatti (TP)","c":803778,"d":"Theni","s":"TAMIL NADU"}},{"arcs":[[85,86,-81,87]],"type":"Polygon","properties":{"n":" ","c":0,"d":"Theni","s":"TAMIL NADU"}},{"arcs":[[88,-75,-69,-54,89,90,91,92]],"type":"Polygon","properties":{"n":"Kombai (TP)","c":803776,"d":"Theni","s":"TAMIL NADU"}},{"arcs":[[-77,-82,-87,93,-17,-38,-60,-71,-83,94,95]],"type":"Polygon","properties":{"n":" ","c":641167,"d":"Theni","s":"TAMIL NADU"}},{"arcs":[[96,97,98]],"type":"Polygon","properties":{"n":"Markeyankottai","c":641120,"d":"Theni","s":"TAMIL NADU"}},{"arcs":[[99,100,101]],"type":"Polygon","properties":{"n":"Pulanandapuram","c":641119,"d":"Theni","s":"TAMIL NADU"}},{"arcs":[[102,103,-84,-72,-66,-68,-74,104,-100,105]],"type":"Polygon","properties":{"n":"Chinnamanur (M)","c":803777,"d":"Theni","s":"TAMIL NADU"}},{"arcs":[[-105,-76,-89,106,-97,107]],"type":"Polygon","properties":{"n":"Markayankottai (TP)","c":803774,"d":"Theni","s":"TAMIL NADU"}},{"arcs":[[108,109,-90,-53,-47,-36,-30,110,111]],"type":"Polygon","properties":{"n":"Kombai RF","c":641137,"d":"Theni","s":"TAMIL NADU"}},{"arcs":[[112,-91,-110,113]],"type":"Polygon","properties":{"n":"Pannaipuram (TP)","c":803775,"d":"Theni","s":"TAMIL NADU"}},{"arcs":[[114,-92,-113,115]],"type":"Polygon","properties":{"n":"Pannaipuram","c":641123,"d":"Theni","s":"TAMIL NADU"}},{"arcs":[[116,-79,-78,-96,117,118,119]],"type":"Polygon","properties":{"n":" ","c":641165,"d":"Theni","s":"TAMIL NADU"}},{"arcs":[[120,-118,-95,-85,-104,121,122]],"type":"Polygon","properties":{"n":"Seepalakottai","c":641118,"d":"Theni","s":"TAMIL NADU"}},{"arcs":[[-98,-107,-93,-115,123,124]],"type":"Polygon","properties":{"n":"Pulikkuthi","c":641121,"d":"Theni","s":"TAMIL NADU"}},{"arcs":[[125,-122,-103,126]],"type":"Polygon","properties":{"n":"Veppampatti","c":641117,"d":"Theni","s":"TAMIL NADU"}},{"arcs":[[-124,-116,-114,-109,127,128,129,130]],"type":"Polygon","properties":{"n":"T. Meenakshipuram","c":641122,"d":"Theni","s":"TAMIL NADU"}},{"arcs":[[131,132,133,134]],"type":"Polygon","properties":{"n":"Vallalnathi","c":641164,"d":"Theni","s":"TAMIL NADU"}},{"arcs":[[135,-127,-106,-102,136,137]],"type":"Polygon","properties":{"n":"Seelayampatty","c":641107,"d":"Theni","s":"TAMIL NADU"}},{"arcs":[[138,139,-133,140,141,142,143]],"type":"Polygon","properties":{"n":"Theppanpatti","c":641161,"d":"Theni","s":"TAMIL NADU"}},{"arcs":[[144,145,-130,146]],"type":"Polygon","properties":{"n":"Thevaram","c":641115,"d":"Theni","s":"TAMIL NADU"}},{"arcs":[[147,-137,-101,-108,-99,-125,148,149,150]],"type":"Polygon","properties":{"n":"Kuchanur (TP)","c":803773,"d":"Theni","s":"TAMIL NADU"}},{"arcs":[[151,-141,-132,152]],"type":"Polygon","properties":{"n":" ","c":0,"d":"Theni","s":"TAMIL NADU"}},{"arcs":[[153,-149,-131,-146,154]],"type":"Polygon","properties":{"n":"Sankarapuram","c":641116,"d":"Theni","s":"TAMIL NADU"}},{"arcs":[[155,-144,156,157]],"type":"Polygon","properties":{"n":"Ramakrishnapuram","c":641162,"d":"Theni","s":"TAMIL NADU"}},{"arcs":[[-139,-156,158,159]],"type":"Polygon","properties":{"n":"Palakombai","c":641163,"d":"Theni","s":"TAMIL NADU"}},{"arcs":[[160,161,-119,-121,162,163]],"type":"Polygon","properties":{"n":"Jangalpatty","c":641109,"d":"Theni","s":"TAMIL NADU"}},{"arcs":[[164,-142,-152,165,166]],"type":"Polygon","properties":{"n":"Chittarpatti","c":641160,"d":"Theni","s":"TAMIL NADU"}},{"arcs":[[167,168,-151,169,170]],"type":"Polygon","properties":{"n":"Kulaiyanur","c":641082,"d":"Theni","s":"TAMIL NADU"}},{"arcs":[[-163,-123,-126,-136,171,172]],"type":"Polygon","properties":{"n":"Poomalaikundu","c":641108,"d":"Theni","s":"TAMIL NADU"}},{"arcs":[[-159,-158,173,174]],"type":"Polygon","properties":{"n":"Palayakottai","c":641158,"d":"Theni","s":"TAMIL NADU"}},{"arcs":[[-147,-129,175,176]],"type":"Polygon","properties":{"n":"Thevaram (TP)","c":803772,"d":"Theni","s":"TAMIL NADU"}},{"arcs":[[-172,-138,-148,-169,177]],"type":"Polygon","properties":{"n":"Kottur","c":641106,"d":"Theni","s":"TAMIL NADU"}},{"arcs":[[178,-174,-157,-143,-165,179,180]],"type":"Polygon","properties":{"n":"Rajadhani","c":641159,"d":"Theni","s":"TAMIL NADU"}},{"arcs":[[181,182,-161,183,184,185]],"type":"Polygon","properties":{"n":"Govindanagaram","c":641102,"d":"Theni","s":"TAMIL NADU"}},{"arcs":[[186,-184,-164,-173,187,188]],"type":"Polygon","properties":{"n":"Thappukundu","c":641104,"d":"Theni","s":"TAMIL NADU"}},{"arcs":[[189,190,-88,-80,-117,191,-134,-140,-160,-175,-179,192,193]],"type":"Polygon","properties":{"n":" ","c":0,"d":"Theni","s":"TAMIL NADU"}},{"arcs":[[194,-166,-153,-135,-192,-120,-162,-183,195,196]],"type":"Polygon","properties":{"n":" ","c":0,"d":"Theni","s":"TAMIL NADU"}},{"arcs":[[-195,197,198,199]],"type":"Polygon","properties":{"n":"G. Usilampatti","c":641153,"d":"Theni","s":"TAMIL NADU"}},{"arcs":[[-198,-197,200,201]],"type":"Polygon","properties":{"n":"Tekkampatti","c":641152,"d":"Theni","s":"TAMIL NADU"}},{"arcs":[[202,-155,-145,-177,203,204]],"type":"Polygon","properties":{"n":"Pottipuram","c":641114,"d":"Theni","s":"TAMIL NADU"}},{"arcs":[[-193,-181,205,206,207]],"type":"Polygon","properties":{"n":"Kottapatti","c":641155,"d":"Theni","s":"TAMIL NADU"}},{"arcs":[[-204,-176,-128,-112,208,209]],"type":"Polygon","properties":{"n":"Thevaram Hills","c":641136,"d":"Theni","s":"TAMIL NADU"}},{"arcs":[[-185,-187,210,211]],"type":"Polygon","properties":{"n":"Thadicheri","c":641103,"d":"Theni","s":"TAMIL NADU"}},{"arcs":[[-188,-178,-168,212,213]],"type":"Polygon","properties":{"n":"Upparpatty","c":641105,"d":"Theni","s":"TAMIL NADU"}},{"arcs":[[214,215,216,-170,-150,-154,-203,217,218]],"type":"Polygon","properties":{"n":"Rasingapuram","c":641083,"d":"Theni","s":"TAMIL NADU"}},{"arcs":[[219,220,-194,-208,221]],"type":"Polygon","properties":{"n":"Kodaluthu","c":641156,"d":"Theni","s":"TAMIL NADU"}},{"arcs":[[222,-199,-202,223,224]],"type":"Polygon","properties":{"n":"Marikkundu","c":641151,"d":"Theni","s":"TAMIL NADU"}},{"arcs":[[225,226,-213,-171,-217,227]],"type":"Polygon","properties":{"n":"Uppukottai","c":641081,"d":"Theni","s":"TAMIL NADU"}},{"arcs":[[-206,-180,-167,-200,-223,228,229]],"type":"Polygon","properties":{"n":"Mottanuthu","c":641154,"d":"Theni","s":"TAMIL NADU"}},{"arcs":[[-228,-216,230,231,232]],"type":"Polygon","properties":{"n":"Dombucheri","c":641080,"d":"Theni","s":"TAMIL NADU"}},{"arcs":[[-231,-215,233,234,235]],"type":"Polygon","properties":{"n":"Ammapatti (Bodi)","c":641079,"d":"Theni","s":"TAMIL NADU"}},{"arcs":[[236,237,-190,-221,238,239]],"type":"Polygon","properties":{"n":"Andipatti Southern Block RF","c":641169,"d":"Theni","s":"TAMIL NADU"}},{"arcs":[[-234,-219,240,241]],"type":"Polygon","properties":{"n":"Silamalai","c":641078,"d":"Theni","s":"TAMIL NADU"}},{"arcs":[[242,243]],"type":"Polygon","properties":{"n":"Perumalkoilkarudu RF","c":641112,"d":"Theni","s":"TAMIL NADU"}},{"arcs":[[244,-186,-212,245,-244,246,247]],"type":"Polygon","properties":{"n":"Koduvilarpatty","c":641101,"d":"Theni","s":"TAMIL NADU"}},{"arcs":[[-239,-220,248,249]],"type":"Polygon","properties":{"n":"Andipatti","c":641157,"d":"Theni","s":"TAMIL NADU"}},{"arcs":[[-249,-222,-207,-230,250,251]],"type":"Polygon","properties":{"n":"Andipatti Jakkampatti (TP)","c":803786,"d":"Theni","s":"TAMIL NADU"}},{"arcs":[[-247,-243,-246,-211,-189,-214,-227,252,253,254]],"type":"Polygon","properties":{"n":"Veerapandi (TP)","c":803771,"d":"Theni","s":"TAMIL NADU"}},{"arcs":[[-224,-201,-196,-182,-245,255,256,257]],"type":"Polygon","properties":{"n":"Kunnur","c":641150,"d":"Theni","s":"TAMIL NADU"}},{"arcs":[[258,259,-235,-242,260,261,262]],"type":"Polygon","properties":{"n":"Melachokkanathapuram (TP)","c":803761,"d":"Theni","s":"TAMIL NADU"}},{"arcs":[[-253,-226,-233,263,264,265]],"type":"Polygon","properties":{"n":"Kodangipatti","c":641075,"d":"Theni","s":"TAMIL NADU"}},{"arcs":[[266,267]],"type":"Polygon","properties":{"n":" ","c":0,"d":"Theni","s":"TAMIL NADU"}},{"arcs":[[268,269,270]],"type":"Polygon","properties":{"n":"Valkaradu RF","c":641111,"d":"Theni","s":"TAMIL NADU"}},{"arcs":[[-263,271]],"type":"Polygon","properties":{"n":"Bodinayakanur (M)","c":803760,"d":"Theni","s":"TAMIL NADU"}},{"arcs":[[272,273,274]],"type":"Polygon","properties":{"n":" ","c":0,"d":"Theni","s":"TAMIL NADU"}},{"arcs":[[-264,-232,-236,-260,275,276,277]],"type":"Polygon","properties":{"n":"B. Meenakshipuram (TP)","c":803762,"d":"Theni","s":"TAMIL NADU"}},{"arcs":[[278,-254,-266,279]],"type":"Polygon","properties":{"n":"Boothipuram (TP)","c":803759,"d":"Theni","s":"TAMIL NADU"}},{"arcs":[[-277,280,281]],"type":"Polygon","properties":{"n":"Bodinayackanur","c":641077,"d":"Theni","s":"TAMIL NADU"}},{"arcs":[[282,-251,-229,-225,-258,283,284]],"type":"Polygon","properties":{"n":"Shanmugasundarapuram","c":641149,"d":"Theni","s":"TAMIL NADU"}},{"arcs":[[-267,285,-261,-241,-218,-205,-210,286,287,288]],"type":"Polygon","properties":{"n":" ","c":0,"d":"Theni","s":"TAMIL NADU"}},{"arcs":[[289,-240,-250,-252,-283,290,291,292,293]],"type":"Polygon","properties":{"n":"Timmarasanayakkanur","c":641147,"d":"Theni","s":"TAMIL NADU"}},{"arcs":[[294,-270,295,-256,-248,-255,-279,296,297]],"type":"Polygon","properties":{"n":"Theni Allinagaram (M)","c":803769,"d":"Theni","s":"TAMIL NADU"}},{"arcs":[[-291,-285,298,299]],"type":"Polygon","properties":{"n":"Kovilpatti","c":641148,"d":"Theni","s":"TAMIL NADU"}},{"arcs":[[-274,300,-237,-290,301]],"type":"Polygon","properties":{"n":"Andipatti Notheren Block RF","c":641168,"d":"Theni","s":"TAMIL NADU"}},{"arcs":[[302,-271,-295,303,304]],"type":"Polygon","properties":{"n":"Unjampatty","c":641100,"d":"Theni","s":"TAMIL NADU"}},{"arcs":[[305,306,-299,-284,-257,-296,-269,-303,307,308]],"type":"Polygon","properties":{"n":"Vadaveeranaickenpatty","c":641096,"d":"Theni","s":"TAMIL NADU"}},{"arcs":[[-275,-302,-294,309,310]],"type":"Polygon","properties":{"n":"Pulimancombai","c":641146,"d":"Theni","s":"TAMIL NADU"}},{"arcs":[[-309,311,312,313,314]],"type":"Polygon","properties":{"n":"Thamarai Kulam","c":641092,"d":"Theni","s":"TAMIL NADU"}},{"arcs":[[-297,315]],"type":"Polygon","properties":{"n":"Koduvilarpatty RF","c":641110,"d":"Theni","s":"TAMIL NADU"}},{"arcs":[[316,317,-292,-300,-307,318,319]],"type":"Polygon","properties":{"n":"Melmangalam","c":641093,"d":"Theni","s":"TAMIL NADU"}},{"arcs":[[-281,-276,-259,-272,-262,-286,-268,-289,320,321,322]],"type":"Polygon","properties":{"n":"Meenakshipuram (Bodi)","c":641076,"d":"Theni","s":"TAMIL NADU"}},{"arcs":[[-310,-293,-318,323,324]],"type":"Polygon","properties":{"n":"Gullapuram","c":641095,"d":"Theni","s":"TAMIL NADU"}},{"arcs":[[325,326,327,-320,328,329]],"type":"Polygon","properties":{"n":"Vadugapatti (TP)","c":803765,"d":"Theni","s":"TAMIL NADU"}},{"arcs":[[330,331,332]],"type":"Polygon","properties":{"n":"Thenkarai (TP)","c":803768,"d":"Theni","s":"TAMIL NADU"}},{"arcs":[[333,-324,-317,-328,334,335,336]],"type":"Polygon","properties":{"n":"Jeyamangalam","c":641094,"d":"Theni","s":"TAMIL NADU"}},{"arcs":[[337,-329,-319,-306,-315,338,-331,339,340]],"type":"Polygon","properties":{"n":"Thamaraikulam (TP)","c":803766,"d":"Theni","s":"TAMIL NADU"}},{"arcs":[[341,-313,342,-304,-298,-316,-280,-265,-278,-282,-323,343,344]],"type":"Polygon","properties":{"n":"Ahamalai","c":641074,"d":"Theni","s":"TAMIL NADU"}},{"arcs":[[-330,-338,345,346,347]],"type":"Polygon","properties":{"n":"Endapuli","c":641091,"d":"Theni","s":"TAMIL NADU"}},{"arcs":[[-326,-348,348,349]],"type":"Polygon","properties":{"n":"Kamatchipuram","c":641090,"d":"Theni","s":"TAMIL NADU"}},{"arcs":[[-335,-327,-350,350,351]],"type":"Polygon","properties":{"n":"Silvarpatty","c":641089,"d":"Theni","s":"TAMIL NADU"}},{"arcs":[[352,-336,-352,353]],"type":"Polygon","properties":{"n":"D.Vadipatty","c":641088,"d":"Theni","s":"TAMIL NADU"}},{"arcs":[[354,355,-332,-339,-314,-342,356]],"type":"Polygon","properties":{"n":"Thenkarai (TP)","c":803768,"d":"Theni","s":"TAMIL NADU"}},{"arcs":[[357,358,-344,-322]],"type":"Polygon","properties":{"n":"Bodi Hill North","c":641073,"d":"Theni","s":"TAMIL NADU"}},{"arcs":[[359,-355,360]],"type":"Polygon","properties":{"n":"Vadagarai","c":641084,"d":"Theni","s":"TAMIL NADU"}},{"arcs":[[361,362,363]],"type":"Polygon","properties":{"n":"Ganguvarpatti (TP)","c":803763,"d":"Theni","s":"TAMIL NADU"}},{"arcs":[[-354,-351,-349,-347,364,365,366]],"type":"Polygon","properties":{"n":"Murugamalai RF","c":641097,"d":"Theni","s":"TAMIL NADU"}},{"arcs":[[-365,-346,-341,367,368]],"type":"Polygon","properties":{"n":"E.Pudukottai","c":641086,"d":"Theni","s":"TAMIL NADU"}},{"arcs":[[-368,-340,-333,-356,-360,369]],"type":"Polygon","properties":{"n":"Keelavadagarai","c":641085,"d":"Theni","s":"TAMIL NADU"}},{"arcs":[[-364,370,371]],"type":"Polygon","properties":{"n":"Genguvarpatty","c":641087,"d":"Theni","s":"TAMIL NADU"}},{"arcs":[[-371,-363,372,-337,-353,-367,373]],"type":"Polygon","properties":{"n":"Devadanapatti (TP)","c":803764,"d":"Theni","s":"TAMIL NADU"}},{"arcs":[[-308,-305,-343,-312]],"type":"Polygon","properties":{"n":" ","c":0,"d":"Theni","s":"TAMIL NADU"}},{"arcs":[[-358,-321,-288,374]],"type":"Polygon","properties":{"n":"Kottagudi","c":641072,"d":"Theni","s":"TAMIL NADU"}}]}}}