{"type":"Topology","arcs":[[[40166,99999],[28068,-9745],[-5911,-3543],[-795,-10222],[-8365,-13404],[9264,-6536],[23332,-3282],[14241,-4048],[-968,-8864],[-28379,-8155],[-10681,2429],[-22260,-2082],[-3699,4671],[-13930,-4468],[15900,-4164],[-4148,-2993],[-18458,-1186],[3457,7866],[-13308,708],[-3526,14835],[14276,6261],[3111,5350],[14863,-1605],[14138,1966],[5461,11625],[-4943,7982],[-19668,6622],[-11545,8184],[24473,5798]],[[60629,15876],[-6844,-3542],[-2143,-8792],[-18597,-3542],[-8641,6405],[-16903,6203],[14483,5090],[4183,4641],[17421,0],[17041,-6463]]],"transform":{"scale":[2.8930000000002565e-07,6.916069160691618e-07],"translate":[75.52669,11.69356]},"objects":{"villages":{"type":"GeometryCollection","geometries":[{"arcs":[[0]],"type":"Polygon","properties":{"n":"Mahe (M)","c":804039,"d":"Mahe","s":"PUDUCHERRY"}},{"arcs":[[1]],"type":"Polygon","properties":{"n":"Mahe (M)","c":804039,"d":"Mahe","s":"PUDUCHERRY"}}]}}}