{"type":"Topology","arcs":[[[51699,13019],[37,1251],[-483,709]],[[51253,14979],[503,-218],[1150,686],[129,-1625],[-1336,-803]],[[79964,13716],[-766,-70],[-1085,1232]],[[78113,14878],[97,2284],[447,4058]],[[78657,21220],[1123,-846],[312,-1590],[-396,-2366],[268,-2702]],[[78113,14878],[-834,109],[-314,1056],[-1196,117],[-430,-534],[-966,523],[-302,-815],[-540,522],[-460,-697],[-676,740]],[[72395,15899],[342,2245]],[[72737,18144],[1773,-46],[1170,1504],[391,1489],[595,452],[1143,71],[848,-394]],[[53618,22950],[-328,-1325],[-1075,-284],[-707,-1255],[-481,-2483]],[[51027,17603],[-451,662],[-777,-924],[760,3395],[-266,1263]],[[50293,21999],[1110,534]],[[51403,22533],[874,-206],[514,877],[827,-254]],[[70193,20850],[218,-1669],[720,24],[1695,990]],[[72826,20195],[-89,-2051]],[[72395,15899],[-412,-1161],[-1509,1142],[-950,-47],[-392,-3570],[-514,-1345],[-702,631],[-1243,-1972]],[[66673,9577],[-462,2962],[772,1205],[22,1224],[-704,3091],[431,5040],[804,-2058],[1195,962],[1462,-1153]],[[90705,18834],[-1648,1793],[-2695,-1040]],[[86362,19587],[-206,1111],[-959,-32],[-29,741],[2706,2346],[929,523]],[[88803,24276],[728,-682],[-49,-2195],[304,-1337],[919,-1228]],[[73788,25543],[-523,-2211],[-439,-3137]],[[70193,20850],[993,3005],[1632,2479]],[[72818,26334],[970,-791]],[[54500,25055],[-705,-1150],[-177,-955]],[[51403,22533],[634,1587],[237,1364],[457,-935],[846,2178]],[[53577,26727],[923,-1672]],[[6177,25161],[-86,-507],[-1560,-1458],[-397,374],[-203,3497]],[[3931,27067],[356,389]],[[4287,27456],[701,-771],[536,-1333],[653,-191]],[[63679,27663],[5,-1922],[649,-218]],[[64333,25523],[-301,-1692],[-252,990],[-603,152],[-227,-1364],[-460,-627],[-330,627],[517,3843]],[[62677,27452],[135,671],[867,-460]],[[72818,26334],[694,729],[369,1305],[504,-27],[562,-1138],[1768,203],[323,-215],[-710,-3395],[-751,328],[-1303,1742],[-486,-323]],[[56428,27164],[305,-2479],[-802,90],[-137,-710],[-617,152],[-215,-1528],[-577,464],[-533,-756],[-234,553]],[[54500,25055],[636,2994]],[[55136,28049],[577,924],[346,-1782],[369,-27]],[[3054,27562],[-90,-3041],[-341,-779],[-439,608],[-586,-507],[-428,518],[561,2480],[73,1816],[1095,682]],[[2899,29339],[155,-1777]],[[50293,21999],[372,3602],[29,1859],[416,1953]],[[51110,29413],[3566,464]],[[54676,29877],[-1099,-3150]],[[54676,29877],[219,433]],[[54895,30310],[290,-347],[-49,-1914]],[[6090,30380],[300,-55]],[[6390,30325],[-8,-3216],[-205,-1948]],[[4287,27456],[220,2452]],[[4507,29908],[910,-238],[673,710]],[[61053,31101],[-509,-3270],[-689,-1501],[-817,-289],[65,944],[-767,1707],[180,1060]],[[58516,29752],[840,-1243],[789,2834],[308,323]],[[60453,31666],[600,-565]],[[59932,34274],[521,-2608]],[[58516,29752],[-515,-553],[-1701,-82],[128,-1953]],[[54895,30310],[-304,1196]],[[54591,31506],[153,191]],[[54744,31697],[1268,-1551],[1726,577],[-129,1173],[-1583,-207],[896,1910]],[[56922,33599],[624,-284],[312,955],[1286,-374],[788,378]],[[5774,34137],[316,-3757]],[[4507,29908],[266,1961],[-196,1095]],[[4577,32964],[851,1446],[346,-273]],[[54744,31697],[342,2370],[1836,-468]],[[3931,27067],[-877,495]],[[2899,29339],[238,1162],[-124,3465]],[[3013,33966],[1445,425],[119,-1427]],[[7720,30594],[-1330,-269]],[[5774,34137],[938,1146]],[[6712,35283],[858,-1298],[460,-113],[-310,-3278]],[[64900,33517],[-622,-5265],[-599,-589]],[[62677,27452],[-605,1061],[878,1157],[-70,686],[-848,1041]],[[62032,31397],[745,2280],[1026,-230]],[[63803,33447],[49,1961],[523,238],[-21,-1002],[546,-1127]],[[66403,30228],[359,-620],[-1045,257],[-1439,-3247],[55,-1095]],[[64900,33517],[109,1259],[492,-237],[603,1270],[572,71]],[[66676,35880],[36,23]],[[66712,35903],[822,-608],[200,-1797],[-533,978],[-710,-97],[-15,-2117],[-357,507],[-52,-1563],[336,-978]],[[51110,29413],[387,3664],[-80,990]],[[51417,34067],[407,-522],[492,1228],[10,1687]],[[52326,36460],[1601,-1422],[664,-3532]],[[69277,34796],[-919,-522],[454,-1267],[-546,-612],[-1185,-351],[722,-1095],[-1010,-86],[-390,-635]],[[66712,35903],[980,1536]],[[67692,37439],[767,-222],[779,-858],[39,-1563]],[[37062,33814],[-489,-195],[-413,1590],[-775,663],[-361,-409]],[[35024,35463],[689,1750],[1297,842]],[[37010,38055],[52,-4241]],[[51417,34067],[189,1926],[-226,923],[392,1220]],[[51772,38136],[166,32]],[[51938,38168],[13,-1248],[375,-460]],[[9886,38308],[-98,-1848],[568,-697],[819,54],[-1585,-2272],[-388,-2015],[-1097,-1049]],[[8105,30481],[-385,113]],[[6712,35283],[119,476]],[[6831,35759],[1414,265],[29,549],[1097,1766],[515,-31]],[[88988,31619],[-1651,-635],[-1069,-912]],[[86268,30072],[-813,2366],[103,3262],[1726,663]],[[87284,36363],[666,1185],[2004,877]],[[89954,38425],[-966,-6806]],[[61885,38737],[337,-1466],[559,-779],[257,-1743],[765,-1302]],[[62032,31397],[-979,-296]],[[59932,34274],[-10,46]],[[59922,34320],[522,850],[-693,2284],[556,406],[-196,814],[804,-452],[970,515]],[[92279,38518],[-74,-943]],[[92205,37575],[-1252,-6170]],[[90953,31405],[-1965,214]],[[89954,38425],[1095,998],[1230,-905]],[[58897,39871],[4,-27]],[[58901,39844],[1021,-5524]],[[51938,38168],[3403,627],[3556,1076]],[[67692,37439],[-237,1785],[300,444]],[[67755,39668],[361,-358],[894,413]],[[69010,39723],[286,160]],[[69296,39883],[632,-1119],[1369,312],[910,756],[-88,-760],[-1245,-2117],[-769,-2315],[-359,741],[-469,-585]],[[96771,27671],[-872,4159],[-93,2744],[247,2050]],[[96053,36624],[203,530],[561,-1742],[689,2264],[1671,2218]],[[99177,39894],[-483,-2362],[122,-1613],[604,-2628],[348,-354],[231,-1680],[-1134,-156],[-2094,-3430]],[[3013,33966],[772,1391],[270,1267]],[[4055,36624],[222,-444],[1884,4256]],[[6161,40436],[520,-370],[520,-1501],[-39,-1508],[-331,-1298]],[[96771,27671],[-583,-628],[-754,-2198],[-471,-694],[-316,-1481],[-920,-343],[-541,-1010],[-240,-3180],[-961,467],[-881,-627],[-399,857]],[[88803,24276],[158,1804],[1189,2148],[803,3177]],[[92205,37575],[1027,-569]],[[93232,37006],[413,-1064],[1069,850],[307,2354],[-351,1158]],[[94670,40304],[1105,-406],[-128,-2241],[406,-1033]],[[94657,40300],[13,4]],[[93232,37006],[278,2105],[-374,1391]],[[93136,40502],[1521,-202]],[[92279,38518],[394,2187]],[[92673,40705],[463,-203]],[[64676,40873],[684,-2125],[863,-518],[37,-1247],[416,-1103]],[[61885,38737],[862,799]],[[62747,39536],[997,121],[54,1379],[878,-163]],[[58901,39844],[3514,1598]],[[62415,41442],[332,-1906]],[[87227,41742],[-319,-780],[1079,-288],[545,1021],[240,-1656],[-491,-1638],[-874,-584],[-123,-1454]],[[86268,30072],[-291,-320],[-1352,565],[-780,1045],[-972,5944]],[[82873,37306],[889,565],[271,-1621],[788,947],[-81,885],[-624,226],[652,2764],[526,-98],[688,1189]],[[85982,42163],[1245,-421]],[[27076,37563],[-820,-580],[-1012,413],[-532,1617]],[[24712,39013],[447,421]],[[25159,39434],[1715,238],[652,842],[313,1271]],[[27839,41785],[325,783]],[[28164,42568],[72,-1567],[-289,-1524],[-871,-1914]],[[26401,43118],[1133,-105],[305,-1228]],[[25159,39434],[114,2608],[460,1091]],[[25733,43133],[668,-15]],[[90805,43040],[2064,-1017]],[[92869,42023],[-196,-1318]],[[89954,38425],[140,569],[245,4502]],[[90339,43496],[466,-456]],[[98897,43519],[280,-3625]],[[94657,40300],[135,1723]],[[94792,42023],[708,-59],[274,1041],[1262,-156],[1861,670]],[[62127,43500],[2,-16]],[[62129,43484],[286,-2042]],[[58897,39871],[-264,2892]],[[58633,42763],[644,756]],[[59277,43519],[510,-845],[546,966],[504,-1255],[577,1130],[713,-15]],[[33380,41247],[-1401,-109],[-1258,-562],[-403,-569],[-1435,-3527],[-18,818]],[[28865,37298],[1150,3871],[592,1497]],[[30607,42666],[2714,1040]],[[33321,43706],[59,-2459]],[[69797,43936],[564,-919],[-166,-1731],[-899,-1403]],[[69010,39723],[-320,3956],[1107,257]],[[30693,43722],[-86,-1056]],[[28865,37298],[-177,1201],[440,5761]],[[29128,44260],[1565,-538]],[[33380,41247],[591,1037],[1193,970],[1178,113],[1023,-382]],[[37365,42985],[316,-2646],[-247,-1723]],[[37434,38616],[-1360,873],[-1212,-421],[-2591,-1910],[-1295,-1313],[-1971,-628],[-590,339],[-1339,2007]],[[28164,42568],[530,1598],[434,94]],[[21628,42853],[886,1212],[1157,-331]],[[23671,43734],[416,-2156]],[[24087,41578],[-1653,-1087],[-1123,300],[-1037,-522],[-1638,1305],[-991,1368]],[[17645,42942],[165,1224]],[[17810,44166],[522,-752],[1006,-300],[642,-1345],[1313,480],[335,604]],[[24712,39013],[-507,963],[-118,1602]],[[23671,43734],[313,557]],[[23984,44291],[1297,-351],[452,-807]],[[65173,41789],[-497,-916]],[[62129,43484],[463,-70],[452,-1091],[1453,1372],[468,916]],[[64965,44611],[488,-2008],[-280,-814]],[[65173,41789],[258,-234],[818,1282],[206,1057],[712,97],[159,1072]],[[67326,45063],[553,-3173],[-124,-2222]],[[38307,37447],[-840,-3353],[-405,-280]],[[37010,38055],[424,561]],[[37365,42985],[-246,2265]],[[37119,45250],[1364,-581],[373,-920],[-34,-2163],[-386,-900],[-160,-1887],[-348,203],[379,-1555]],[[9070,42564],[1092,593],[429,-230]],[[10591,42927],[208,-1711],[-913,-2908]],[[6161,40436],[-908,1423],[336,3453]],[[5589,45312],[499,-709],[346,-1559],[679,1719],[1494,89],[288,-343],[175,-1945]],[[83004,42385],[-575,-1099],[-1300,-1080],[-564,187],[1061,1879],[-702,593],[-1303,-534],[-689,-874]],[[78932,41457],[-291,1700],[773,-261],[1765,2366]],[[81179,45262],[688,-694],[1596,1056]],[[83463,45624],[-551,-1649],[92,-1590]],[[26401,43118],[2274,1984],[2291,1048]],[[30966,46150],[-273,-2428]],[[56805,45269],[512,-756],[639,1458],[456,-8],[514,-2034],[-632,-951],[339,-215]],[[51772,38136],[-411,1353]],[[51361,39489],[398,1041],[1139,904],[-345,2089],[755,1021]],[[53308,44544],[923,-140],[388,1871],[423,-760],[815,-273],[516,-826],[432,853]],[[82873,37306],[-221,819],[835,3258],[-483,1002]],[[83463,45624],[1050,-19]],[[84513,45605],[1056,284]],[[85569,45889],[866,519]],[[86435,46408],[-569,-2920],[116,-1325]],[[4055,36624],[-2344,1684],[161,2553]],[[1872,40861],[678,2697],[829,2265],[559,-413],[739,1025]],[[4677,46435],[912,-1123]],[[52282,46595],[1260,-296],[251,-1240],[-485,-515]],[[51361,39489],[-993,405]],[[50368,39894],[409,1006],[601,3730],[904,1965]],[[89214,45371],[1125,-1875]],[[87227,41742],[1363,2584],[-79,2323]],[[88511,46649],[703,-1278]],[[86435,46408],[1523,822]],[[87958,47230],[553,-581]],[[33206,46318],[115,-2612]],[[30966,46150],[1216,1053],[1024,-885]],[[98241,47051],[656,-3532]],[[94792,42023],[-26,2880]],[[94766,44903],[398,51],[174,1941],[442,-819],[1396,807],[787,776],[278,-608]],[[52323,46829],[-41,-234]],[[50368,39894],[-810,121],[-2307,2998],[-295,117]],[[46956,43130],[190,3204]],[[47146,46334],[1262,-842],[495,561],[1013,218],[1589,1388],[818,-830]],[[76483,46146],[-25,-658],[837,351],[281,-725],[516,1036],[500,-89]],[[78592,46061],[72,-1037],[-941,-3473],[-516,433],[-1404,-1482],[199,-1087],[863,1267],[2067,775]],[[86362,19587],[-1820,-2086],[-796,-561],[-516,-1119],[-1485,-1680],[-476,406],[-1305,-831]],[[66673,9577],[-926,-378],[-533,-893],[-889,-565],[-1431,-1606],[-2289,-1235],[-431,756],[-445,-3805],[-550,-1216],[-762,-635],[-954,405],[-344,2386],[193,1029],[-468,-74],[29,2405],[369,600],[268,2113],[-1098,300],[-347,873],[-568,-444],[-802,479],[-344,803],[-1588,873],[-348,-709],[-716,1980]],[[51253,14979],[-499,1228],[273,1396]],[[69797,43936],[1004,1244],[879,-269],[673,627]],[[72353,45538],[970,1661],[925,-90],[640,745],[88,-1174],[-518,-1391],[-737,-261],[-861,-1688],[930,499],[-7,-647],[1492,752],[-731,1099],[625,386],[527,1080],[156,-682],[631,319]],[[94020,48088],[166,-2175],[-151,-873],[731,-137]],[[92869,42023],[433,1485],[219,4525],[499,55]],[[78592,46061],[517,1138],[-34,1169]],[[79075,48368],[1004,-1169],[1100,-1937]],[[1872,40861],[-1334,1208],[115,3555]],[[653,45624],[465,639],[746,2281],[2157,-180],[864,616]],[[4885,48980],[161,-432],[-369,-2113]],[[30560,49487],[587,-1099],[-181,-2238]],[[23984,44291],[342,1657]],[[24326,45948],[409,-421],[1052,1115],[1531,2580]],[[27318,49222],[903,-398],[1372,74],[967,589]],[[67830,47897],[-601,-2101],[97,-733]],[[64965,44611],[-211,2908],[331,1227]],[[65085,48746],[842,955],[1485,-990],[418,-814]],[[35024,35463],[-2166,-5508],[-15,-776],[-949,-881],[-211,-888],[-782,-768],[-809,31],[-499,-1232],[-1529,-963],[-423,-1220],[975,-460],[-356,-1021],[-164,-1727],[-1357,-1177],[-435,-4361],[-1756,1337],[-1613,1629],[-2373,1384],[-1872,2058],[-2643,2385],[-1984,2315],[-1557,1419],[-793,1341],[-644,-280],[-796,604],[858,1894],[-975,-316],[-1019,-1196],[-1005,27],[-27,1368]],[[10591,42927],[598,1329],[-195,1407],[633,409],[159,2534],[648,1041],[576,218],[646,-608],[2282,-4198],[1707,-2117]],[[52323,46829],[689,857],[1092,-304],[673,655],[1358,316],[738,1676]],[[56873,50029],[220,-850],[-101,-3204],[-187,-706]],[[70495,47140],[-541,-1520],[1250,273],[783,1197],[91,-643]],[[72078,46447],[275,-909]],[[67830,47897],[811,2522]],[[68641,50419],[803,-905],[1051,-2374]],[[24469,46833],[-143,-885]],[[21628,42853],[93,2611],[427,3251],[63,1933]],[[22211,50648],[610,-2514],[1007,472],[641,-1773]],[[59604,49927],[-327,-6408]],[[56873,50029],[798,-28],[556,714],[309,-1041],[1068,253]],[[62127,43500],[17,2327],[549,1641],[-354,1918]],[[62339,49386],[390,1340]],[[62729,50726],[905,-66],[343,-1177],[721,78],[387,-815]],[[59604,49927],[289,955]],[[59893,50882],[13,94]],[[59906,50976],[1440,-117],[265,-1119],[728,-354]],[[76873,49265],[117,-873],[-507,-2246]],[[72078,46447],[636,175],[1003,1664]],[[73717,48286],[898,667],[-195,705],[615,1337],[1028,121],[186,-1715],[624,-136]],[[42529,50882],[712,-643]],[[43241,50239],[-671,-1052],[429,-994],[-354,-1146]],[[42645,47047],[-522,-1053]],[[42123,45994],[-1064,-935],[-959,2292]],[[40100,47351],[617,1886],[231,1871]],[[40948,51108],[517,-389],[1064,163]],[[35010,51323],[588,-655],[1180,-327]],[[36778,50341],[159,-1388],[-115,-2304],[287,-1344]],[[37109,45305],[-1049,-250],[-2739,-1349]],[[33206,46318],[219,1871],[991,327],[-669,1446]],[[33747,49962],[226,445]],[[33973,50407],[738,70],[299,846]],[[84740,50539],[-671,-2518],[-632,-1208],[26,-1189]],[[79075,48368],[-94,1680]],[[78981,50048],[498,546],[1887,881],[1001,125],[2373,-1061]],[[79831,51541],[-850,-1493]],[[76873,49265],[188,1454]],[[77061,50719],[1317,245]],[[78378,50964],[1453,577]],[[47450,49284],[-304,-2950]],[[46956,43130],[-1475,892],[-803,1064],[-793,1953],[-886,374],[-354,-366]],[[43241,50239],[710,105],[1223,1376]],[[45174,51720],[533,-982],[1743,-1454]],[[38462,51736],[420,-2845],[745,639],[473,-2179]],[[42123,45994],[36,-1251],[-522,-545],[-1118,-3064],[-179,-2144],[-504,557],[-448,-1531],[-460,1851],[-621,-2420]],[[37119,45250],[-10,55]],[[36778,50341],[325,366]],[[37103,50707],[221,1193],[1138,-164]],[[30560,49487],[-161,1325],[-531,675]],[[29868,51487],[34,15]],[[29902,51502],[1930,-160],[412,577],[695,-1933],[808,-24]],[[14007,51331],[1003,-2082],[1000,-740]],[[16010,48509],[872,-920],[949,-378],[-69,-1751]],[[17762,45460],[48,-1294]],[[9070,42564],[757,2756],[-9,1177],[567,390],[278,1224]],[[10663,48111],[975,1466],[-468,1917],[385,745],[787,-1127],[567,612]],[[12909,51724],[822,519],[276,-912]],[[94020,48088],[847,4537]],[[94867,52625],[1787,11],[1197,277]],[[97851,52913],[89,-4564],[301,-1298]],[[12787,52617],[122,-893]],[[10663,48111],[60,3835]],[[10723,51946],[772,1209],[1292,-538]],[[66813,52258],[1814,-117],[500,-350]],[[69127,51791],[-364,62],[-122,-1434]],[[62729,50726],[473,2542]],[[63202,53268],[383,-1123],[1440,788],[1788,-675]],[[39651,53291],[88,-2198],[717,655],[492,-640]],[[38462,51736],[341,1462],[848,93]],[[33514,53626],[150,-908]],[[33664,52718],[-208,-1333],[517,-978]],[[29902,51502],[320,1785],[2057,410],[1235,-71]],[[90805,43040],[332,1820],[-250,2089],[230,6447]],[[91117,53396],[1305,-1278],[1255,-179],[1016,1797],[417,148]],[[95110,53884],[-243,-1259]],[[17762,45460],[1257,2986],[556,1945]],[[19575,50391],[1227,160],[226,-456],[691,967],[655,2826]],[[22374,53888],[-163,-3240]],[[47387,52328],[76,-526]],[[47463,51802],[9,-2381]],[[47472,49421],[-22,-137]],[[45174,51720],[-282,2230]],[[44892,53950],[1773,-343],[18,-1154],[704,-125]],[[42529,50882],[65,1244]],[[42594,52126],[779,596],[156,-592],[994,1220]],[[44523,53350],[369,600]],[[5589,45312],[436,2136],[359,-534],[778,1513],[658,421],[98,2455],[1141,3041]],[[9059,54344],[1568,-1092],[96,-1306]],[[35411,54461],[-401,-3138]],[[33664,52718],[652,819],[213,1009]],[[34529,54546],[882,-85]],[[21043,54659],[1454,-117]],[[22497,54542],[-123,-654]],[[19575,50391],[639,2569],[829,1699]],[[72769,53104],[1073,-2397],[-125,-2421]],[[70495,47140],[511,3197],[500,2159],[571,1470],[-259,713]],[[71818,54679],[951,-1575]],[[17399,54519],[-1248,-3477],[-141,-2533]],[[14007,51331],[693,3266]],[[14700,54597],[1313,16],[1136,537],[250,-631]],[[19575,50391],[-216,1474],[-837,1169],[-66,1064]],[[18456,54098],[708,495]],[[19164,54593],[244,-397],[1456,974],[179,-511]],[[81231,53529],[-1400,-1988]],[[78378,50964],[356,1431],[867,908],[-16,799],[618,199],[339,943]],[[80542,55244],[52,-850],[637,-865]],[[17898,55256],[558,-1158]],[[17399,54519],[499,737]],[[72769,53104],[801,2070]],[[73570,55174],[525,-936],[1203,784],[626,-94],[551,-1235],[-96,-947],[682,-2027]],[[39767,54542],[-116,-1251]],[[38462,51736],[-537,1084],[-261,1886]],[[37664,54706],[897,20],[317,756],[889,-940]],[[25925,51966],[143,-2701],[-354,-1279],[-1245,-1153]],[[22497,54542],[1637,1135]],[[24134,55677],[878,-2503],[34,-842],[879,-366]],[[35411,54461],[1146,152],[248,767],[4,-3788],[294,-885]],[[4887,48980],[-200,1532],[28,5309]],[[4715,55821],[705,47]],[[5420,55868],[-49,-4479],[-484,-2409]],[[47472,49421],[1331,662],[2111,2156]],[[50914,52239],[902,744],[2637,2850]],[[54453,55833],[972,58],[660,-1165],[2187,-1181],[1491,-164],[-107,-1844],[237,-655]],[[4887,48980],[-2,0]],[[653,45624],[38,729],[-606,1949],[128,2226],[-213,2260],[174,3364]],[[174,56152],[1246,66],[2677,-588],[618,191]],[[5420,55868],[2023,11],[803,417]],[[8246,56296],[813,-1952]],[[63298,54620],[-96,-1352]],[[59906,50976],[99,1111],[811,2970],[561,1271]],[[61377,56328],[82,0]],[[61459,56328],[810,-1353],[6,-592],[1023,237]],[[49809,56285],[666,-916],[377,-1345],[62,-1785]],[[47463,51802],[251,1450],[673,464],[255,1232],[816,1469]],[[49458,56417],[351,-132]],[[44657,55458],[-288,-1009],[154,-1099]],[[42594,52126],[-161,4120]],[[42433,56246],[664,456]],[[43097,56702],[1560,-1244]],[[69660,56776],[757,-448],[1401,-1649]],[[69127,51791],[709,2716],[-191,2277]],[[69645,56784],[15,-8]],[[31893,56795],[1181,-386],[440,-2783]],[[29868,51487],[-561,526],[-354,1738],[747,3185]],[[29700,56936],[2193,-141]],[[66957,56819],[-48,-1610],[-343,-1828],[247,-1123]],[[63298,54620],[1023,1127],[584,70]],[[64905,55817],[1409,1185],[643,-183]],[[27318,49222],[-330,1333],[388,2767],[1198,3953]],[[28574,57275],[1126,-339]],[[87958,47230],[569,2935],[309,616],[612,3668],[678,2744],[575,144]],[[90701,57337],[-333,-795],[-915,-4611],[99,-1512],[-286,-2164],[-52,-2884]],[[90708,57318],[-374,-2608],[252,-3703],[-288,-5200],[41,-2311]],[[90701,57337],[5,8]],[[90706,57345],[2,-27]],[[90708,57318],[1063,89]],[[91771,57407],[-247,-2475],[-407,-1536]],[[88405,55879],[-393,-3851],[-795,-3278],[-782,-2342]],[[85569,45889],[349,1318],[17,1781],[947,5784],[98,1419],[733,1255]],[[87713,57446],[692,-1567]],[[84690,55314],[50,-4775]],[[81231,53529],[1546,3937]],[[82777,57466],[1268,-1731],[645,-421]],[[39767,54542],[105,1840],[-694,242],[-44,916]],[[39134,57540],[998,-12],[361,-627],[775,74],[1165,-729]],[[47387,52328],[114,4623]],[[47501,56951],[23,776]],[[47524,57727],[1340,218],[594,-1528]],[[44657,55458],[335,2331],[645,386]],[[45637,58175],[247,-1422],[1617,198]],[[37664,54706],[-670,2787]],[[36994,57493],[798,745],[1342,-698]],[[82785,57524],[-8,-58]],[[80542,55244],[-27,2935]],[[80515,58179],[674,312],[1044,-300],[552,-667]],[[32153,58378],[-74,-776]],[[32079,57602],[-186,-807]],[[29700,56936],[5,1571]],[[29705,58507],[808,241],[1640,-370]],[[35193,58838],[-105,-1310]],[[35088,57528],[-954,-117],[-324,523]],[[33810,57934],[-274,834]],[[33536,58768],[1657,70]],[[33810,57934],[69,-1641],[440,-172],[210,-1575]],[[32079,57602],[382,-105],[558,1450],[517,-179]],[[61459,56328],[594,1500],[326,-861],[636,854],[786,-425]],[[63801,57396],[420,-8],[989,1438],[64,-1590],[-459,-550],[90,-869]],[[66957,56819],[486,1103]],[[67443,57922],[637,1306]],[[68080,59228],[529,-1587],[1036,-857]],[[37044,58023],[-50,-530]],[[35088,57528],[1384,191],[-196,1575]],[[36276,59294],[768,-1271]],[[22580,59660],[403,-351]],[[22983,59309],[832,-596]],[[23815,58713],[-71,-791],[390,-2245]],[[19164,54593],[743,1875],[663,561],[229,1594],[179,-795],[609,125],[255,1173],[738,534]],[[97740,56519],[111,-3606]],[[95110,53884],[-919,3905],[372,1372]],[[94563,59161],[187,710]],[[94750,59871],[741,-733],[372,-1583],[1877,-1036]],[[91771,57407],[1443,2553],[687,-791],[662,-8]],[[84513,45605],[1381,10321],[128,2222],[481,2089]],[[86503,60237],[1112,-1703],[98,-1088]],[[12787,52617],[49,1703],[-662,1914],[1362,4046]],[[13536,60280],[881,-709],[738,900]],[[15155,60471],[-177,-1586],[-412,-1006],[134,-3282]],[[17898,55256],[798,2296]],[[18696,57552],[415,2638],[515,156]],[[19626,60346],[2346,363],[608,-1049]],[[80515,58179],[-897,-760],[-189,600],[-637,-931],[-317,-1618],[-405,-218],[-422,-2132],[531,-289],[-804,-982],[247,2553],[-598,1033],[-738,203],[84,2865],[394,136],[708,1976]],[[77472,60615],[285,-2288],[1131,924],[361,1282]],[[79249,60533],[455,-966],[648,1177]],[[80352,60744],[163,-2565]],[[55448,60261],[328,-3029],[-1323,-1399]],[[49809,56285],[71,577],[842,327],[-141,889],[1374,1337],[353,869],[1570,612],[1570,-635]],[[291,57060],[344,2008],[677,479],[3575,1641]],[[4887,61188],[518,-468],[740,-1991],[-702,-854],[-3613,-335],[-1539,-480]],[[84690,55314],[192,2152],[1053,3831]],[[85935,61297],[568,-1060]],[[35193,58838],[-18,2487]],[[35175,61325],[1101,-2031]],[[15155,60471],[830,854]],[[15985,61325],[1128,347],[806,-456],[12,-1439],[765,-2225]],[[61723,61668],[-346,-5340]],[[55448,60261],[301,561]],[[55749,60822],[918,74],[1170,-1017],[918,721],[1279,82],[1648,1005]],[[61682,61687],[41,-19]],[[47524,57727],[1,2744]],[[47525,60471],[1323,-655],[1427,-109],[1520,483],[4007,1864]],[[55802,62054],[-53,-1232]],[[97992,59419],[-252,-2900]],[[94750,59871],[492,1224]],[[95242,61095],[247,1266]],[[95489,62361],[2503,-2942]],[[66213,60323],[744,-3504]],[[63801,57396],[-198,1360],[1177,1508],[-260,1521],[-1769,-998],[-719,791]],[[62032,61578],[4,35]],[[62036,61613],[1801,846],[1674,-1150],[702,-986]],[[47525,60845],[0,-374]],[[45637,58175],[-623,1419],[356,1169],[109,1727]],[[45479,62490],[2046,-1645]],[[19626,60346],[-221,1750]],[[19405,62096],[2628,359]],[[22033,62455],[1153,43]],[[23186,62498],[78,-1450],[-281,-1739]],[[28574,57275],[681,5352]],[[29255,62627],[234,-28],[216,-4092]],[[90672,62541],[385,-1025]],[[91057,61516],[-351,-4171]],[[88405,55879],[145,4779]],[[88550,60658],[640,370],[249,1220],[1233,293]],[[37564,62116],[44,-1462]],[[37608,60654],[-373,-799],[118,-1220],[-309,-612]],[[35175,61325],[709,1489],[1680,-698]],[[55802,62054],[488,522]],[[56290,62576],[1448,226],[798,-663],[1430,858],[788,117],[86,-854],[842,-573]],[[32153,58378],[884,1801],[591,3021]],[[33628,63200],[504,-110],[1043,-1765]],[[16169,62864],[-184,-1539]],[[13536,60280],[665,2853]],[[14201,63133],[1968,-269]],[[56342,62973],[-52,-397]],[[47525,60845],[124,1228]],[[47649,62073],[1498,300]],[[49147,62373],[1008,-70]],[[50155,62303],[661,-362],[458,545],[966,-97],[1115,892],[91,-760],[1701,94],[1195,358]],[[24786,62369],[-971,-3656]],[[23186,62498],[1500,904]],[[24686,63402],[100,-1033]],[[79249,60533],[295,2600],[394,620],[959,8]],[[80897,63761],[21,-2682],[-566,-335]],[[24134,55677],[1242,1243],[590,1006],[425,1555],[405,2912]],[[26796,62393],[1606,1450]],[[28402,63843],[-546,-2429],[-631,-4634],[-605,-2951],[-695,-1863]],[[91057,61516],[571,-367],[437,2651],[634,288]],[[92699,64088],[2543,-2993]],[[49147,62373],[177,1298],[1057,616],[-226,-1984]],[[24786,62369],[245,-990],[595,261],[702,1563],[257,1217]],[[26585,64420],[898,11]],[[27483,64431],[-687,-2038]],[[75387,63281],[-161,-3562],[-486,-1754],[-507,-31]],[[74233,57934],[-533,140],[30,1828]],[[73730,59902],[372,912],[764,3516],[521,-1049]],[[16169,62864],[908,534]],[[17077,63398],[1668,1131]],[[18745,64529],[161,-1984],[499,-449]],[[80897,63761],[538,401],[2099,452]],[[83534,64614],[-234,-1968],[-63,-3071],[-452,-2051]],[[42902,64006],[1566,-2069],[-94,-979],[-1043,-1126],[-234,-3130]],[[37608,60654],[420,-927],[824,947],[437,-1146],[751,245],[1259,1057],[101,1263],[1302,2673]],[[42702,64766],[200,-760]],[[61723,61668],[11,-39]],[[61734,61629],[298,-51]],[[24686,63402],[927,1700]],[[25613,65102],[-91,-1443],[1063,761]],[[14310,65141],[-109,-2008]],[[8246,56296],[2477,1914],[1524,2448],[962,2814],[1003,1758]],[[14212,65230],[98,-89]],[[28402,63843],[425,1407]],[[28827,65250],[446,-1598],[-18,-1025]],[[14084,65355],[128,-125]],[[174,56152],[117,908]],[[4887,61188],[1812,1189],[1877,2288],[1409,803],[1780,-674],[2319,561]],[[29109,65628],[1022,-1134]],[[30131,64494],[195,-1832],[515,-371]],[[30841,62291],[2075,534],[486,909]],[[33402,63734],[226,-534]],[[28827,65250],[282,378]],[[27483,64431],[36,503]],[[27519,64934],[1575,784]],[[29094,65718],[15,-90]],[[30131,64494],[128,978]],[[30259,65472],[930,281]],[[31189,65753],[-348,-3462]],[[42580,65203],[122,-437]],[[37564,62116],[293,733],[827,374],[-166,928]],[[38518,64151],[1682,467],[1148,1189]],[[41348,65807],[1232,-604]],[[32669,65772],[1014,-417]],[[33683,65355],[-281,-1621]],[[31189,65753],[1480,19]],[[16513,66298],[-297,-1329],[907,-655],[-46,-916]],[[14310,65141],[582,631],[1621,526]],[[73570,55174],[663,2760]],[[75387,63281],[834,3520]],[[76221,66801],[741,-947],[491,-1282],[153,-2249],[-134,-1708]],[[16513,66298],[2232,624]],[[18745,66922],[0,-2393]],[[27519,64934],[-284,745]],[[27235,65679],[1640,1321]],[[28875,67000],[219,-1282]],[[42902,64006],[911,3084]],[[43813,67090],[769,-2639],[897,-1961]],[[48222,66349],[-320,-842],[120,-1703]],[[48022,63804],[-700,1419],[-582,-215],[-297,1820]],[[46443,66828],[595,265]],[[47038,67093],[1192,-136],[-8,-608]],[[48022,63804],[-373,-1731]],[[43813,67090],[1237,-1002],[1393,740]],[[66213,60323],[-15,826],[-830,3204],[132,2027],[830,901]],[[66330,67281],[353,-1930],[242,-4997],[518,-2432]],[[95489,62361],[356,1466]],[[95845,63827],[289,2725],[642,838],[889,-2772],[845,176],[-73,-3068],[-445,-2307]],[[72543,67132],[20,-2588],[419,-1645],[76,-1481],[672,-1516]],[[71818,54679],[52,7047],[-131,4257],[279,1563]],[[72018,67546],[525,-414]],[[42580,65203],[76,1458],[1024,924]],[[43680,67585],[133,-495]],[[26970,66587],[265,-908]],[[25613,65102],[-39,1617]],[[25574,66719],[1089,951]],[[26663,67670],[307,-1083]],[[18745,66922],[1732,772],[350,421]],[[20827,68115],[338,-675],[-363,-1337],[914,-1707],[317,-1941]],[[34267,67690],[-584,-2335]],[[32669,65772],[-96,2409]],[[32573,68181],[1694,-491]],[[20827,68115],[1865,-764],[1552,210],[1330,-842]],[[79863,68360],[351,-1781]],[[80214,66579],[2,0]],[[80216,66579],[3318,-1929]],[[83534,64650],[0,-36]],[[77472,60615],[273,1571],[389,35],[-28,1244],[576,1087],[-44,1119],[742,2600]],[[79380,68271],[483,89]],[[26970,66587],[1625,1941]],[[28595,68528],[280,-1528]],[[65982,68158],[473,-51]],[[66455,68107],[-125,-826]],[[62036,61613],[150,815],[842,1142],[380,-129],[-242,1283],[609,1149]],[[63775,65873],[972,2538],[1235,-253]],[[92699,64088],[-668,-136],[-59,846],[736,3800]],[[92708,68598],[311,-939],[2826,-3832]],[[31189,65753],[302,3017]],[[31491,68770],[1082,-589]],[[89848,69222],[-634,-4003],[-312,-1178],[-352,-3383]],[[85935,61297],[-205,2113],[918,5874]],[[86648,69284],[1749,-1329],[1451,1267]],[[66455,68107],[777,1216]],[[67232,69323],[1182,479]],[[68414,69802],[32,-3886],[-538,-2202],[444,-2904],[-272,-1582]],[[83534,64650],[155,1414],[798,1571],[-213,1489],[196,815]],[[84470,69939],[2178,-655]],[[26663,67670],[1487,2417]],[[28150,70087],[445,-1559]],[[76221,66801],[388,2140]],[[76609,68941],[1172,1173]],[[77781,70114],[883,-1762],[716,-81]],[[90672,62541],[376,4416],[305,2304],[1263,865]],[[92616,70126],[92,-1528]],[[37311,70227],[2124,-440]],[[39435,69787],[330,-2093],[483,-1080],[1100,-807]],[[38518,64151],[-360,-495],[-680,1165],[-504,-628],[-651,651],[45,1404],[350,838],[456,-215],[403,955],[761,698],[-700,616],[-152,-515],[-846,273],[367,1649]],[[37007,70547],[304,-320]],[[46401,70539],[2432,-624]],[[48833,69915],[-355,-2950],[-256,-616]],[[47038,67093],[-678,1602],[-21,1860]],[[46339,70555],[62,-16]],[[39435,69787],[154,436]],[[39589,70223],[1028,-424],[763,767],[2188,-11],[-150,-1949],[262,-1021]],[[89848,69222],[2604,2042],[164,-1138]],[[35331,70968],[1676,-421]],[[34267,67690],[424,3555]],[[34691,71245],[640,-277]],[[28150,70087],[546,1477]],[[28696,71564],[866,-2720],[676,-1439],[21,-1933]],[[70492,70941],[-601,-2355],[515,-760],[-507,-1083],[527,-1482],[71,-2529],[564,-881],[-88,-1883],[-988,-421],[72,-1224],[-397,-1547]],[[68414,69802],[635,1638],[961,81],[482,-580]],[[43680,67585],[1037,3079],[192,1173]],[[44909,71837],[63,-503],[1367,-779]],[[65982,68158],[-1121,2303]],[[64861,70461],[1765,768],[886,893]],[[67512,72122],[-462,-1150],[182,-1649]],[[31491,68770],[77,810]],[[31568,69580],[266,2542]],[[31834,72122],[460,-1801],[279,-2140]],[[80214,66579],[86,1434],[571,733],[-17,1283],[548,2097],[450,105],[200,-1290],[-587,-3056],[-586,-164],[-663,-1142]],[[72018,67546],[199,1703],[555,1333],[316,2257]],[[73088,72839],[-28,-4054],[-517,-1653]],[[30804,70032],[687,-1262]],[[28696,71564],[582,1828]],[[29278,73392],[983,-3114],[543,-246]],[[29278,73392],[495,807]],[[29773,74199],[826,-2658],[205,-1509]],[[35770,74515],[-439,-3547]],[[34691,71245],[-164,670],[343,2425]],[[34870,74340],[639,339]],[[35509,74679],[261,-164]],[[37059,74223],[-182,-1423],[767,-1466],[-333,-1107]],[[35770,74515],[1235,460],[54,-752]],[[29773,74199],[663,850]],[[30436,75049],[1132,-5469]],[[44909,72543],[0,-706]],[[39589,70223],[621,4218]],[[40210,74441],[223,639]],[[40433,75080],[320,-8],[5,-2529],[653,-293],[439,601],[80,-1131],[744,-316],[1038,577],[108,1197],[630,183],[459,-818]],[[76249,74710],[455,-2479],[577,-195],[500,-1922]],[[76609,68941],[-562,2986],[-101,1613],[-434,1712]],[[75512,75252],[737,-542]],[[46056,74936],[57,-565],[2022,-219],[60,-1738],[-1214,273],[-665,-1080],[85,-1068]],[[44909,72543],[243,1496],[553,1279]],[[45705,75318],[351,-382]],[[51944,75248],[1217,-63]],[[53161,75185],[-243,-3395]],[[52918,71790],[-777,-997],[-652,144],[-450,1458],[-519,-258],[-13,1092]],[[50507,73229],[176,1005],[1017,1213],[244,-199]],[[61973,75462],[1394,-2159],[1494,-2842]],[[63775,65873],[-1264,4039],[-1206,4946],[166,694]],[[61471,75552],[502,-90]],[[80710,72180],[-255,-1695],[-592,-2125]],[[76249,74710],[1012,179],[639,725]],[[77900,75614],[1992,-1068],[758,-717],[60,-1649]],[[48900,75408],[133,-2472]],[[49033,72936],[-200,-3021]],[[46056,74936],[486,799]],[[46542,75735],[2358,-327]],[[55032,71853],[-1422,-406],[-692,343]],[[53161,75185],[1882,768]],[[55043,75953],[-11,-4100]],[[31834,72122],[-299,814],[-317,2479]],[[31218,75415],[626,608]],[[31844,76023],[128,-3005],[-138,-896]],[[30436,75049],[701,1087]],[[31137,76136],[81,-721]],[[31844,76023],[170,156]],[[32014,76179],[717,-3703],[-897,-354]],[[32014,76179],[210,137]],[[32224,76316],[559,-2464],[455,-374],[1632,862]],[[55043,75953],[1621,706]],[[56664,76659],[-78,-2206],[162,-4982],[-718,-343],[-759,940],[-239,1785]],[[45695,75357],[10,-39]],[[40433,75080],[247,503],[1237,472],[908,-82],[421,982]],[[43246,76955],[673,-538],[1539,-160],[237,-900]],[[39043,75220],[995,-148],[172,-631]],[[37059,74223],[507,179]],[[37566,74402],[905,705],[333,2117],[-55,-2046],[294,42]],[[20212,75618],[-497,-2623],[291,-1676]],[[20006,71319],[-54,-421],[-1773,662],[-2498,359]],[[15681,71919],[-336,-1154],[-574,-214],[293,3227],[-1081,1388]],[[13983,75166],[1472,631],[914,-163],[6,865],[849,335],[474,826]],[[17698,77660],[-237,-1403],[629,-2034],[58,-1575],[2064,2970]],[[25122,76214],[49,-413],[-915,-1680],[-1473,-927]],[[22783,73194],[-424,4494]],[[22359,77688],[2176,-2210],[587,736]],[[80710,72180],[871,1275],[66,1181],[478,331],[-284,2039]],[[81841,77006],[1097,690],[920,-647],[320,-1115],[42,-2097],[636,-838],[897,1590],[505,335],[286,-1785],[-2082,-2631],[8,-569]],[[60518,76211],[953,-659]],[[61734,61629],[112,920],[-378,1582],[-2311,912],[-2815,-2070]],[[49033,72936],[1474,293]],[[56664,76659],[13,8]],[[56677,76667],[1914,1157]],[[58591,77824],[484,-1649],[-110,-1652],[1553,1688]],[[69753,78074],[850,-1201],[-377,-2522],[569,-1056],[-303,-2354]],[[67512,72122],[1009,3449]],[[68521,75571],[1219,2518]],[[69740,78089],[13,-15]],[[31137,76136],[1736,2257]],[[32873,78393],[-649,-2077]],[[72018,67546],[-453,865],[8,1657],[-468,1157],[1235,2885],[731,2362],[192,1641],[410,452]],[[73673,78565],[78,-2549],[-663,-3177]],[[35509,74679],[-719,970],[-409,2768]],[[34381,78417],[746,405]],[[35127,78822],[526,-2569],[117,-1738]],[[32873,78393],[762,636]],[[33635,79029],[746,-612]],[[35127,78822],[1444,1142]],[[36571,79964],[668,-2822],[327,-2740]],[[74874,79305],[174,-3009],[464,-1044]],[[73673,78565],[577,1617]],[[74250,80182],[91,-849],[533,-28]],[[22783,73194],[173,-1170]],[[22956,72024],[-473,-331],[-1603,288],[-874,-662]],[[20212,75618],[140,1586],[28,3762],[1381,-558],[400,-978],[198,-1742]],[[39272,81223],[-73,-1801],[917,-296]],[[40116,79126],[-193,-1399],[-883,-1965],[3,-542]],[[36571,79964],[977,1158],[1724,101]],[[46899,79142],[527,-495],[-884,-2912]],[[45695,75357],[262,701],[14,2803],[-559,-772],[-770,39],[-390,1216],[-860,445],[91,834],[-533,273]],[[42950,80896],[847,121],[262,-749],[538,873],[848,-19],[1454,-1980]],[[69753,78074],[1022,3211]],[[70775,81285],[1131,-756],[1300,1131],[615,-254],[429,-1224]],[[39272,81223],[691,616]],[[39963,81839],[153,-2713]],[[14084,65355],[395,534],[569,3664],[633,2366]],[[22956,72024],[2356,573],[1057,1099],[149,694],[-270,2261],[649,1485],[3297,3111],[381,1106]],[[30575,82353],[3060,-3324]],[[42320,81847],[-8,-2382],[913,-1836],[21,-674]],[[39963,81839],[733,-90],[764,640],[860,-542]],[[60518,76211],[-173,1980],[573,2432],[-48,1828]],[[60870,82451],[819,-2729],[1110,472],[624,-553],[308,-2900],[-406,-1088],[-1352,-191]],[[42320,81847],[455,733]],[[42775,82580],[175,-1684]],[[78235,78440],[-335,-2826]],[[74874,79305],[399,378],[803,3064],[659,-347],[661,-1419],[257,-2611],[582,70]],[[58591,77824],[-68,3652],[227,1006]],[[58750,82482],[1843,444]],[[60593,82926],[277,-475]],[[25122,76214],[505,1100],[-151,752],[620,2463],[1360,979],[89,1286],[465,359],[884,-379],[390,449],[519,-795],[772,-75]],[[48900,75408],[465,4053]],[[49365,79461],[195,1345],[733,441],[827,1995]],[[51120,83242],[790,-1945],[110,-5418],[-76,-631]],[[56677,76667],[84,1859],[-522,3188]],[[56239,81714],[1120,1493],[923,140]],[[58282,83347],[468,-865]],[[68521,75571],[-735,682],[418,620],[-362,1177],[-1474,261],[-280,-1847],[-400,861],[-1046,-82],[876,4241],[-296,417],[213,1517]],[[65435,83418],[811,-359],[806,-2269],[601,4],[1403,-1134],[684,-1571]],[[64926,83913],[509,-495]],[[60593,82926],[1543,1708]],[[62136,84634],[412,-1080],[1047,-542],[1331,901]],[[47257,82681],[-358,-3539]],[[42775,82580],[1115,1142],[1431,1036]],[[45321,84758],[689,-50],[1247,-2027]],[[78235,78440],[380,581],[-38,4681],[122,1068],[420,-510],[1535,-5586],[876,-1715],[311,47]],[[45321,84758],[2151,624]],[[47472,85382],[-215,-2701]],[[47472,85382],[786,39]],[[48258,85421],[-91,-4545],[636,-1189],[562,-226]],[[58112,86193],[-7,-858]],[[58105,85335],[177,-1988]],[[56239,81714],[-139,2308]],[[56100,84022],[586,1945]],[[56686,85967],[1426,226]],[[51141,85316],[306,-1329]],[[51447,83987],[-327,-745]],[[48258,85421],[1438,1314],[559,-203],[886,-1216]],[[13983,75166],[-544,-242],[-156,869],[477,1497],[467,433],[185,1910],[1138,1520],[1027,2385],[291,2974],[1022,-935],[401,1664],[1444,-2229],[-951,-1290],[-270,-1587],[-886,-2175],[408,-1255],[-338,-1045]],[[51447,83987],[1557,596],[843,620],[1104,2124]],[[54951,87327],[858,-1255],[-21,-1442],[312,-608]],[[61152,86095],[1159,-760]],[[62311,85335],[-175,-701]],[[58105,85335],[395,156],[1069,2062],[373,-1255],[100,-1575],[1110,1372]],[[54936,87343],[15,-16]],[[51141,85316],[527,-43],[1089,756],[110,990]],[[52867,87019],[941,144],[579,597],[549,-417]],[[58112,86193],[-18,2245]],[[58094,88438],[3023,709]],[[61117,89147],[-152,-2311],[187,-741]],[[54936,87343],[353,1738],[739,289],[517,-1244],[141,-2159]],[[64594,89327],[-53,-1072],[674,-955],[-97,-2686],[-192,-701]],[[62311,85335],[406,1314],[273,2070],[403,869],[1201,-261]],[[64594,89327],[236,947]],[[64830,90274],[1182,-838],[2042,-3921],[2721,-4230]],[[60257,91739],[895,-487]],[[61152,91252],[-35,-2105]],[[58094,88438],[294,2849],[-106,569]],[[58282,91856],[975,223],[1000,-340]],[[60650,94082],[931,-1064]],[[61581,93018],[-429,-1766]],[[60257,91739],[58,1486],[335,857]],[[62890,95150],[-1309,-2132]],[[60650,94082],[902,702],[1338,366]],[[59465,95934],[-627,-815],[744,-1037],[-432,-1594],[-538,1575],[-330,-2207]],[[52867,87019],[7,265],[2285,2054],[287,-191],[1079,1723],[610,3621],[1165,2437],[834,413],[331,-1407]],[[59465,95934],[465,-624],[865,569],[1266,1918]],[[62061,97797],[830,-1571],[-1,-1076]],[[62061,97797],[424,920],[1255,1282],[648,-2584],[-97,-3532],[76,-2194],[463,-1415]]],"transform":{"scale":[6.153161531615254e-06,2.5655256552565598e-06],"translate":[91.56082,25.99776]},"objects":{"villages":{"type":"GeometryCollection","geometries":[{"arcs":[[0,1]],"type":"Polygon","properties":{"n":"Aparikola N.C.","c":303493,"d":"Kamrup Metro","s":"ASSAM"}},{"arcs":[[2,3,4]],"type":"Polygon","properties":{"n":"Kalangpur N.C.","c":303498,"d":"Kamrup Metro","s":"ASSAM"}},{"arcs":[[-4,5,6,7]],"type":"Polygon","properties":{"n":"Bandargog N.C.","c":303494,"d":"Kamrup Metro","s":"ASSAM"}},{"arcs":[[8,9,10,11]],"type":"Polygon","properties":{"n":" ","c":303483,"d":"Kamrup Metro","s":"ASSAM"}},{"arcs":[[12,13,-7,14,15]],"type":"Polygon","properties":{"n":"Kakar N.C.","c":303495,"d":"Kamrup Metro","s":"ASSAM"}},{"arcs":[[16,17,18]],"type":"Polygon","properties":{"n":"Uppar Killing N.C.","c":303499,"d":"Kamrup Metro","s":"ASSAM"}},{"arcs":[[19,-13,20,21]],"type":"Polygon","properties":{"n":"Barkacharang N.C.","c":303497,"d":"Kamrup Metro","s":"ASSAM"}},{"arcs":[[22,-12,23,24]],"type":"Polygon","properties":{"n":"Sarutari Gaon","c":303466,"d":"Kamrup Metro","s":"ASSAM"}},{"arcs":[[25,26,27]],"type":"Polygon","properties":{"n":"Jangaliapara","c":303418,"d":"Kamrup Metro","s":"ASSAM"}},{"arcs":[[28,29,30]],"type":"Polygon","properties":{"n":"Lofar Gaon","c":303479,"d":"Kamrup Metro","s":"ASSAM"}},{"arcs":[[-22,31]],"type":"Polygon","properties":{"n":"No.1 Tegheria Gaon","c":303536,"d":"Kamrup Metro","s":"ASSAM"}},{"arcs":[[32,-23,33,34]],"type":"Polygon","properties":{"n":"Moupur N.C.","c":303492,"d":"Kamrup Metro","s":"ASSAM"}},{"arcs":[[35,36]],"type":"Polygon","properties":{"n":"Deurali","c":303417,"d":"Kamrup Metro","s":"ASSAM"}},{"arcs":[[-24,-11,37,38,39]],"type":"Polygon","properties":{"n":"Tamuli Kuchi N.C.","c":303486,"d":"Kamrup Metro","s":"ASSAM"}},{"arcs":[[-34,-25,-40,40,41]],"type":"Polygon","properties":{"n":"Maragdala","c":303465,"d":"Kamrup Metro","s":"ASSAM"}},{"arcs":[[42,43,-28,44,45]],"type":"Polygon","properties":{"n":" ","c":0,"d":"Kamrup Metro","s":"ASSAM"}},{"arcs":[[46,47,48]],"type":"Polygon","properties":{"n":"Dhemai Gaon","c":303480,"d":"Kamrup Metro","s":"ASSAM"}},{"arcs":[[49,-48,50,-35,-42,51,52,53,54]],"type":"Polygon","properties":{"n":"Sonai Gaon","c":303464,"d":"Kamrup Metro","s":"ASSAM"}},{"arcs":[[55,-46,56,57]],"type":"Polygon","properties":{"n":"Matikutni","c":303414,"d":"Kamrup Metro","s":"ASSAM"}},{"arcs":[[-54,58]],"type":"Polygon","properties":{"n":"Maragdola N.C.","c":303472,"d":"Kamrup Metro","s":"ASSAM"}},{"arcs":[[-57,-45,-27,59,-37,60,61]],"type":"Polygon","properties":{"n":"Jangaliapara","c":303418,"d":"Kamrup Metro","s":"ASSAM"}},{"arcs":[[62,-43,-56,63,64]],"type":"Polygon","properties":{"n":"Jabe","c":303412,"d":"Kamrup Metro","s":"ASSAM"}},{"arcs":[[65,-31,66,67,68]],"type":"Polygon","properties":{"n":"Nartap","c":303478,"d":"Kamrup Metro","s":"ASSAM"}},{"arcs":[[69,-29,-66,70,71,72]],"type":"Polygon","properties":{"n":"Luri Gaon","c":303477,"d":"Kamrup Metro","s":"ASSAM"}},{"arcs":[[-52,-41,-39,73,74,75]],"type":"Polygon","properties":{"n":"Tamulikuchi Gaon","c":303467,"d":"Kamrup Metro","s":"ASSAM"}},{"arcs":[[76,-73,77,78]],"type":"Polygon","properties":{"n":"Luri Grant","c":303484,"d":"Kamrup Metro","s":"ASSAM"}},{"arcs":[[79,80,81]],"type":"Polygon","properties":{"n":" ","c":0,"d":"Kamrup Metro","s":"ASSAM"}},{"arcs":[[-75,82,83,84]],"type":"Polygon","properties":{"n":"Ambher Gaon","c":303468,"d":"Kamrup Metro","s":"ASSAM"}},{"arcs":[[85,86,-65,87,88]],"type":"Polygon","properties":{"n":"Patgaon","c":303296,"d":"Kamrup Metro","s":"ASSAM"}},{"arcs":[[89,90,91,92]],"type":"Polygon","properties":{"n":"Talani N.C.","c":303567,"d":"Kamrup Metro","s":"ASSAM"}},{"arcs":[[93,-68,94,-49,-50,95,96]],"type":"Polygon","properties":{"n":"Kamalajari Gaon","c":303463,"d":"Kamrup Metro","s":"ASSAM"}},{"arcs":[[97,98,99,-93,100]],"type":"Polygon","properties":{"n":"Killing N.C.","c":303568,"d":"Kamrup Metro","s":"ASSAM"}},{"arcs":[[101,102,-96,-55,-59,-53,-76,-85,103]],"type":"Polygon","properties":{"n":"Sonai N.C.","c":303471,"d":"Kamrup Metro","s":"ASSAM"}},{"arcs":[[-79,104,105,106,107]],"type":"Polygon","properties":{"n":"Bherakuchi Gaon","c":303572,"d":"Kamrup Metro","s":"ASSAM"}},{"arcs":[[108,109,110]],"type":"Polygon","properties":{"n":"Topatoli N.C.","c":303576,"d":"Kamrup Metro","s":"ASSAM"}},{"arcs":[[-88,-64,-58,-62,111,112,113]],"type":"Polygon","properties":{"n":"Jogipara","c":303413,"d":"Kamrup Metro","s":"ASSAM"}},{"arcs":[[-109,114,-19,115,-99,116,117,118]],"type":"Polygon","properties":{"n":"Nibira N.C.","c":303575,"d":"Kamrup Metro","s":"ASSAM"}},{"arcs":[[119,-118,120,121]],"type":"Polygon","properties":{"n":"Nibira","c":303571,"d":"Kamrup Metro","s":"ASSAM"}},{"arcs":[[-121,-117,-98,122,123]],"type":"Polygon","properties":{"n":"Bherakuchi Pathar","c":303573,"d":"Kamrup Metro","s":"ASSAM"}},{"arcs":[[124,-71,-69,-94,125,126]],"type":"Polygon","properties":{"n":"Loflong","c":303462,"d":"Kamrup Metro","s":"ASSAM"}},{"arcs":[[-126,-97,-103,127,128]],"type":"Polygon","properties":{"n":"Loflong N.C.","c":303469,"d":"Kamrup Metro","s":"ASSAM"}},{"arcs":[[129,-91,130,131,132]],"type":"Polygon","properties":{"n":"Bhogpur N.C.","c":303544,"d":"Kamrup Metro","s":"ASSAM"}},{"arcs":[[133,134,135,136,137]],"type":"Polygon","properties":{"n":"Gog N.C.","c":303402,"d":"Kamrup Metro","s":"ASSAM"}},{"arcs":[[138,-136,139,140]],"type":"Polygon","properties":{"n":"Gog","c":303401,"d":"Kamrup Metro","s":"ASSAM"}},{"arcs":[[141,142,-123,-101,143,144]],"type":"Polygon","properties":{"n":"Dakhin Dimoria","c":303565,"d":"Kamrup Metro","s":"ASSAM"}},{"arcs":[[145,-110,-119,-120,146,147]],"type":"Polygon","properties":{"n":"Topatoli Gaon","c":303570,"d":"Kamrup Metro","s":"ASSAM"}},{"arcs":[[148,149,-128,-102,150,151,152]],"type":"Polygon","properties":{"n":"Karchia N.C.","c":303452,"d":"Kamrup Metro","s":"ASSAM"}},{"arcs":[[153,154,155,156]],"type":"Polygon","properties":{"n":"Lakhara","c":303404,"d":"Kamrup Metro","s":"ASSAM"}},{"arcs":[[157,-107,158]],"type":"Polygon","properties":{"n":"Dikchak","c":303503,"d":"Kamrup Metro","s":"ASSAM"}},{"arcs":[[159,-155,160,161]],"type":"Polygon","properties":{"n":"Lakhara","c":303404,"d":"Kamrup Metro","s":"ASSAM"}},{"arcs":[[-161,-154,162,163,164,-138,165]],"type":"Polygon","properties":{"n":"Garbhanga N.C.","c":303405,"d":"Kamrup Metro","s":"ASSAM"}},{"arcs":[[166,167,168,169,170]],"type":"Polygon","properties":{"n":"Pamehi","c":303398,"d":"Kamrup Metro","s":"ASSAM"}},{"arcs":[[-140,-135,171,-168,172,173]],"type":"Polygon","properties":{"n":" ","c":0,"d":"Kamrup Metro","s":"ASSAM"}},{"arcs":[[174,-127,-129,-150,175,176]],"type":"Polygon","properties":{"n":" ","c":0,"d":"Kamrup Metro","s":"ASSAM"}},{"arcs":[[-105,-78,-72,-125,-175,177,178]],"type":"Polygon","properties":{"n":"Dhamara Pathar","c":303459,"d":"Kamrup Metro","s":"ASSAM"}},{"arcs":[[179,-82,180,-164,181,182]],"type":"Polygon","properties":{"n":" ","c":0,"d":"Kamrup Metro","s":"ASSAM"}},{"arcs":[[183,184,-89,-114,185,186]],"type":"Polygon","properties":{"n":"Kahi Kuchi (CT)","c":303422,"d":"Kamrup Metro","s":"ASSAM"}},{"arcs":[[187,188,189,190]],"type":"Polygon","properties":{"n":" ","c":303538,"d":"Kamrup Metro","s":"ASSAM"}},{"arcs":[[-162,-166,-137,-139,191,192]],"type":"Polygon","properties":{"n":" ","c":0,"d":"Kamrup Metro","s":"ASSAM"}},{"arcs":[[193,-151,-104,-84,194,195,196]],"type":"Polygon","properties":{"n":"Upar Tepechia N.C.","c":303450,"d":"Kamrup Metro","s":"ASSAM"}},{"arcs":[[-132,197,-191,198,199,200,201]],"type":"Polygon","properties":{"n":"Bhogpur","c":303541,"d":"Kamrup Metro","s":"ASSAM"}},{"arcs":[[-186,-113,202,203,204]],"type":"Polygon","properties":{"n":"Barjhar","c":303410,"d":"Kamrup Metro","s":"ASSAM"}},{"arcs":[[205,-196,206,207]],"type":"Polygon","properties":{"n":"Kamarkuchi N.C.","c":303445,"d":"Kamrup Metro","s":"ASSAM"}},{"arcs":[[208,-144,-92,-130,209,210]],"type":"Polygon","properties":{"n":"Dharbam","c":303566,"d":"Kamrup Metro","s":"ASSAM"}},{"arcs":[[-210,-133,-202,211,212]],"type":"Polygon","properties":{"n":"Kendubam Bagicha","c":303548,"d":"Kamrup Metro","s":"ASSAM"}},{"arcs":[[213,-156,-160,-193,214]],"type":"Polygon","properties":{"n":" ","c":0,"d":"Kamrup Metro","s":"ASSAM"}},{"arcs":[[215,-148,216,217]],"type":"Polygon","properties":{"n":"Kahikuchi","c":303569,"d":"Kamrup Metro","s":"ASSAM"}},{"arcs":[[218,-208,219,220,221]],"type":"Polygon","properties":{"n":"Amerigog N.C.","c":303449,"d":"Kamrup Metro","s":"ASSAM"}},{"arcs":[[222,223,-188,-198,-131,-90,-100,-116,-18,224,-5,-8,-14,-20,-32,-21,-16,225,-2,226,-9,-33,-51,-47,-95,-67,-30,-70,-77,-108,-158,227,228]],"type":"Polygon","properties":{"n":"Dhemai N.C.","c":303491,"d":"Kamrup Metro","s":"ASSAM"}},{"arcs":[[229,-217,-147,-122,-124,-143,230]],"type":"Polygon","properties":{"n":"Bherakuchi Gaon","c":303572,"d":"Kamrup Metro","s":"ASSAM"}},{"arcs":[[-189,-224,231,232]],"type":"Polygon","properties":{"n":"No.2 Tegheria Gaon","c":303537,"d":"Kamrup Metro","s":"ASSAM"}},{"arcs":[[-204,233,234,235]],"type":"Polygon","properties":{"n":"Agcia","c":303409,"d":"Kamrup Metro","s":"ASSAM"}},{"arcs":[[236,-192,-141,-174,237,238,239]],"type":"Polygon","properties":{"n":" ","c":0,"d":"Kamrup Metro","s":"ASSAM"}},{"arcs":[[240,-178,-177,241,242]],"type":"Polygon","properties":{"n":"Barua Bari Gaon (CT)","c":303579,"d":"Kamrup Metro","s":"ASSAM"}},{"arcs":[[-169,-172,-134,-165,-181,-81,243,-86,-185,244]],"type":"Polygon","properties":{"n":"Kallapara","c":303339,"d":"Kamrup Metro","s":"ASSAM"}},{"arcs":[[-197,-206,-219,245,246]],"type":"Polygon","properties":{"n":"Kamarkuchi","c":303448,"d":"Kamrup Metro","s":"ASSAM"}},{"arcs":[[247,248,-228,-159,-106,-179,-241,249,250]],"type":"Polygon","properties":{"n":"Sonapur Gaon (CT)","c":303580,"d":"Kamrup Metro","s":"ASSAM"}},{"arcs":[[251,-238,-173,-167,252,253]],"type":"Polygon","properties":{"n":" ","c":0,"d":"Kamrup Metro","s":"ASSAM"}},{"arcs":[[254,-152,-194,-247,255]],"type":"Polygon","properties":{"n":"Tepechia N.C.","c":303451,"d":"Kamrup Metro","s":"ASSAM"}},{"arcs":[[-242,-176,-149,256,257,258]],"type":"Polygon","properties":{"n":"Barkhat Gaon","c":303458,"d":"Kamrup Metro","s":"ASSAM"}},{"arcs":[[-257,-153,-255,259,260,261]],"type":"Polygon","properties":{"n":"Kachia gaon","c":303447,"d":"Kamrup Metro","s":"ASSAM"}},{"arcs":[[262,-229,-249,263,264]],"type":"Polygon","properties":{"n":"Khat Tetelia","c":303529,"d":"Kamrup Metro","s":"ASSAM"}},{"arcs":[[265,266,267,268,269,270]],"type":"Polygon","properties":{"n":" ","c":0,"d":"Kamrup Metro","s":"ASSAM"}},{"arcs":[[271,272,273,-214,274,275,276]],"type":"Polygon","properties":{"n":" ","c":303593,"d":"Kamrup Metro","s":"ASSAM"}},{"arcs":[[277,-190,-233,278,279]],"type":"Polygon","properties":{"n":"No.1 Tegheria Gaon","c":303536,"d":"Kamrup Metro","s":"ASSAM"}},{"arcs":[[280,-279,-232,-223,-263,281,282,283]],"type":"Polygon","properties":{"n":" ","c":0,"d":"Kamrup Metro","s":"ASSAM"}},{"arcs":[[284,-221,285,-267,286,287]],"type":"Polygon","properties":{"n":" ","c":0,"d":"Kamrup Metro","s":"ASSAM"}},{"arcs":[[288,-269,289,-183,290,-273,291,292]],"type":"Polygon","properties":{"n":" ","c":0,"d":"Kamrup Metro","s":"ASSAM"}},{"arcs":[[-275,-215,-237,293,294,295]],"type":"Polygon","properties":{"n":" ","c":303589,"d":"Kamrup Metro","s":"ASSAM"}},{"arcs":[[296,297,298,-170,-245,-184,299,300,301]],"type":"Polygon","properties":{"n":"Mikirpara Chokardoi","c":303406,"d":"Kamrup Metro","s":"ASSAM"}},{"arcs":[[-218,-230,302,303,304]],"type":"Polygon","properties":{"n":"Murkata","c":303554,"d":"Kamrup Metro","s":"ASSAM"}},{"arcs":[[305,-301,306,307]],"type":"Polygon","properties":{"n":" ","c":0,"d":"Kamrup Metro","s":"ASSAM"}},{"arcs":[[308,309,-250,-243,-259,310,311]],"type":"Polygon","properties":{"n":"Sialekhaiti","c":303457,"d":"Kamrup Metro","s":"ASSAM"}},{"arcs":[[312,-270,-289,313]],"type":"Polygon","properties":{"n":" ","c":0,"d":"Kamrup Metro","s":"ASSAM"}},{"arcs":[[314,315,-276,-296,316]],"type":"Polygon","properties":{"n":" ","c":0,"d":"Kamrup Metro","s":"ASSAM"}},{"arcs":[[-303,-231,-142,317,318,319]],"type":"Polygon","properties":{"n":"Niz-Dimoria","c":303561,"d":"Kamrup Metro","s":"ASSAM"}},{"arcs":[[-253,-171,-299,320,321,322]],"type":"Polygon","properties":{"n":" ","c":0,"d":"Kamrup Metro","s":"ASSAM"}},{"arcs":[[323,324,325,-288,326,327]],"type":"Polygon","properties":{"n":" ","c":303460,"d":"Kamrup Metro","s":"ASSAM"}},{"arcs":[[-327,-287,-266,328,329,330]],"type":"Polygon","properties":{"n":" ","c":0,"d":"Kamrup Metro","s":"ASSAM"}},{"arcs":[[-307,-300,-187,331,332]],"type":"Polygon","properties":{"n":"Azara (CT)","c":303419,"d":"Kamrup Metro","s":"ASSAM"}},{"arcs":[[333,-277,-316,334,335]],"type":"Polygon","properties":{"n":" ","c":0,"d":"Kamrup Metro","s":"ASSAM"}},{"arcs":[[336,337,-322,338]],"type":"Polygon","properties":{"n":" ","c":0,"d":"Kamrup Metro","s":"ASSAM"}},{"arcs":[[339,-264,-248,340,341]],"type":"Polygon","properties":{"n":"Chamata Pathar","c":303502,"d":"Kamrup Metro","s":"ASSAM"}},{"arcs":[[342,-297,343,344]],"type":"Polygon","properties":{"n":" ","c":0,"d":"Kamrup Metro","s":"ASSAM"}},{"arcs":[[-339,345,346,347]],"type":"Polygon","properties":{"n":" ","c":0,"d":"Kamrup Metro","s":"ASSAM"}},{"arcs":[[348,-284,349,350]],"type":"Polygon","properties":{"n":"Lomsum Gaon","c":303530,"d":"Kamrup Metro","s":"ASSAM"}},{"arcs":[[351,-346,-321,-298,-343,352]],"type":"Polygon","properties":{"n":"Tetelia Gaon","c":303527,"d":"Kamrup Metro","s":"ASSAM"}},{"arcs":[[-282,-265,-340,353,354]],"type":"Polygon","properties":{"n":"Teteliguri Pathar","c":303525,"d":"Kamrup Metro","s":"ASSAM"}},{"arcs":[[355,-314,356,357]],"type":"Polygon","properties":{"n":" ","c":0,"d":"Kamrup Metro","s":"ASSAM"}},{"arcs":[[358,-254,-323,-338,359,360]],"type":"Polygon","properties":{"n":" ","c":0,"d":"Kamrup Metro","s":"ASSAM"}},{"arcs":[[-292,-272,-334,361]],"type":"Polygon","properties":{"n":" ","c":303591,"d":"Kamrup Metro","s":"ASSAM"}},{"arcs":[[362,363,364]],"type":"Polygon","properties":{"n":"Kendukuchi","c":303408,"d":"Kamrup Metro","s":"ASSAM"}},{"arcs":[[-260,-256,-246,-222,-285,-326,365,366,367]],"type":"Polygon","properties":{"n":"Amseng","c":303439,"d":"Kamrup Metro","s":"ASSAM"}},{"arcs":[[-363,368,-235,369,370]],"type":"Polygon","properties":{"n":"Majir Gaon (CT)","c":303421,"d":"Kamrup Metro","s":"ASSAM"}},{"arcs":[[-332,-205,-236,-369,-365,371,372]],"type":"Polygon","properties":{"n":"Garal (CT)","c":303420,"d":"Kamrup Metro","s":"ASSAM"}},{"arcs":[[373,-311,-258,-262,374,375,376]],"type":"Polygon","properties":{"n":" ","c":0,"d":"Kamrup Metro","s":"ASSAM"}},{"arcs":[[377,-366,-325,378,379]],"type":"Polygon","properties":{"n":"Bozra N.C.","c":303444,"d":"Kamrup Metro","s":"ASSAM"}},{"arcs":[[380,-330,381,382,383]],"type":"Polygon","properties":{"n":" ","c":0,"d":"Kamrup Metro","s":"ASSAM"}},{"arcs":[[384,-341,-251,-310,385,386]],"type":"Polygon","properties":{"n":"Sonapur Pathar","c":303500,"d":"Kamrup Metro","s":"ASSAM"}},{"arcs":[[387,-317,-295,388,389]],"type":"Polygon","properties":{"n":" ","c":0,"d":"Kamrup Metro","s":"ASSAM"}},{"arcs":[[390,-312,-374,391,392]],"type":"Polygon","properties":{"n":"Moirakuchi","c":303456,"d":"Kamrup Metro","s":"ASSAM"}},{"arcs":[[-389,-294,-240,393,394]],"type":"Polygon","properties":{"n":" ","c":0,"d":"Kamrup Metro","s":"ASSAM"}},{"arcs":[[-211,-213,395,396]],"type":"Polygon","properties":{"n":"Sakurabori","c":303549,"d":"Kamrup Metro","s":"ASSAM"}},{"arcs":[[397,-209,-397,398,399]],"type":"Polygon","properties":{"n":"Ullani","c":303562,"d":"Kamrup Metro","s":"ASSAM"}},{"arcs":[[-318,-145,-398,400,401]],"type":"Polygon","properties":{"n":"Tamhalong","c":303563,"d":"Kamrup Metro","s":"ASSAM"}},{"arcs":[[402,-201,403,404]],"type":"Polygon","properties":{"n":" ","c":0,"d":"Kamrup Metro","s":"ASSAM"}},{"arcs":[[405,-280,-281,-349,406,407]],"type":"Polygon","properties":{"n":"Helagog","c":303539,"d":"Kamrup Metro","s":"ASSAM"}},{"arcs":[[-382,-329,-271,-313,-356,408,409]],"type":"Polygon","properties":{"n":" ","c":0,"d":"Kamrup Metro","s":"ASSAM"}},{"arcs":[[-379,-324,410,411,412]],"type":"Polygon","properties":{"n":" ","c":0,"d":"Kamrup Metro","s":"ASSAM"}},{"arcs":[[-411,-328,-331,-381,413,414]],"type":"Polygon","properties":{"n":" ","c":0,"d":"Kamrup Metro","s":"ASSAM"}},{"arcs":[[-409,-358,415,416]],"type":"Polygon","properties":{"n":" ","c":0,"d":"Kamrup Metro","s":"ASSAM"}},{"arcs":[[417,-407,-351,418,419]],"type":"Polygon","properties":{"n":"Lomsum N.C.","c":303533,"d":"Kamrup Metro","s":"ASSAM"}},{"arcs":[[420,421,-390,422,423]],"type":"Polygon","properties":{"n":" ","c":0,"d":"Kamrup Metro","s":"ASSAM"}},{"arcs":[[424,425,426,427]],"type":"Polygon","properties":{"n":" ","c":0,"d":"Kamrup Metro","s":"ASSAM"}},{"arcs":[[-427,428,-335,-315,-388,-422,429]],"type":"Polygon","properties":{"n":" ","c":0,"d":"Kamrup Metro","s":"ASSAM"}},{"arcs":[[-392,-377,430,431]],"type":"Polygon","properties":{"n":"Batakuchi","c":303453,"d":"Kamrup Metro","s":"ASSAM"}},{"arcs":[[-386,-309,-391,432,433,434]],"type":"Polygon","properties":{"n":"Dhangiri","c":303454,"d":"Kamrup Metro","s":"ASSAM"}},{"arcs":[[435,-416,-357,-293,-362,-336,-429,-426,436,437]],"type":"Polygon","properties":{"n":" ","c":0,"d":"Kamrup Metro","s":"ASSAM"}},{"arcs":[[438,439,440,-360,-337,-348,441]],"type":"Polygon","properties":{"n":" ","c":303163,"d":"Kamrup Metro","s":"ASSAM"}},{"arcs":[[442,-304,-320,443,444,445]],"type":"Polygon","properties":{"n":"No.3 Ouzari","c":303555,"d":"Kamrup Metro","s":"ASSAM"}},{"arcs":[[-444,-319,-402,446]],"type":"Polygon","properties":{"n":"Durung","c":303553,"d":"Kamrup Metro","s":"ASSAM"}},{"arcs":[[-404,-200,447,448]],"type":"Polygon","properties":{"n":"Ulubam","c":303545,"d":"Kamrup Metro","s":"ASSAM"}},{"arcs":[[-344,-302,-306,449,450,451]],"type":"Polygon","properties":{"n":" ","c":0,"d":"Kamrup Metro","s":"ASSAM"}},{"arcs":[[-442,-347,-352,452,453,454]],"type":"Polygon","properties":{"n":"Tetelia N.C.","c":303531,"d":"Kamrup Metro","s":"ASSAM"}},{"arcs":[[455,456,457,458]],"type":"Polygon","properties":{"n":"Lomsum N.C.","c":303533,"d":"Kamrup Metro","s":"ASSAM"}},{"arcs":[[459,-367,-378,460]],"type":"Polygon","properties":{"n":" ","c":0,"d":"Kamrup Metro","s":"ASSAM"}},{"arcs":[[461,462]],"type":"Polygon","properties":{"n":" ","c":0,"d":"Kamrup Metro","s":"ASSAM"}},{"arcs":[[-448,-199,-278,-406,463,464]],"type":"Polygon","properties":{"n":"Salana","c":303540,"d":"Kamrup Metro","s":"ASSAM"}},{"arcs":[[-437,-425,465,466]],"type":"Polygon","properties":{"n":" ","c":0,"d":"Kamrup Metro","s":"ASSAM"}},{"arcs":[[-453,-353,-345,-452,467,468]],"type":"Polygon","properties":{"n":" ","c":0,"d":"Kamrup Metro","s":"ASSAM"}},{"arcs":[[469,-375,-261,-368,-460,470,471,472]],"type":"Polygon","properties":{"n":"Bamunkhat N.C","c":303442,"d":"Kamrup Metro","s":"ASSAM"}},{"arcs":[[-471,-461,-380,-413,473,474,475]],"type":"Polygon","properties":{"n":" ","c":0,"d":"Kamrup Metro","s":"ASSAM"}},{"arcs":[[476,-446,477,478,479]],"type":"Polygon","properties":{"n":"No.2 Ouzari","c":303558,"d":"Kamrup Metro","s":"ASSAM"}},{"arcs":[[480,-393,-432,481,482,483]],"type":"Polygon","properties":{"n":"Lomati","c":303455,"d":"Kamrup Metro","s":"ASSAM"}},{"arcs":[[484,-474,-412,-415,485,486]],"type":"Polygon","properties":{"n":" ","c":0,"d":"Kamrup Metro","s":"ASSAM"}},{"arcs":[[-439,-455,487,488,489,490]],"type":"Polygon","properties":{"n":" ","c":0,"d":"Kamrup Metro","s":"ASSAM"}},{"arcs":[[-423,-395,491,492]],"type":"Polygon","properties":{"n":" ","c":0,"d":"Kamrup Metro","s":"ASSAM"}},{"arcs":[[493,494,-399,-396,-212,-403,495,496]],"type":"Polygon","properties":{"n":"Kendubam","c":303547,"d":"Kamrup Metro","s":"ASSAM"}},{"arcs":[[497,498,-438,-467,499]],"type":"Polygon","properties":{"n":" ","c":0,"d":"Kamrup Metro","s":"ASSAM"}},{"arcs":[[-472,-476,500,501]],"type":"Polygon","properties":{"n":" ","c":0,"d":"Kamrup Metro","s":"ASSAM"}},{"arcs":[[-466,-428,-430,-421,502,503]],"type":"Polygon","properties":{"n":" ","c":0,"d":"Kamrup Metro","s":"ASSAM"}},{"arcs":[[504,-468,-451,505,506]],"type":"Polygon","properties":{"n":" ","c":0,"d":"Kamrup Metro","s":"ASSAM"}},{"arcs":[[507,-501,-475,-485,508,509,510,511]],"type":"Polygon","properties":{"n":" ","c":0,"d":"Kamrup Metro","s":"ASSAM"}},{"arcs":[[512,-440,-491,513,514]],"type":"Polygon","properties":{"n":" ","c":0,"d":"Kamrup Metro","s":"ASSAM"}},{"arcs":[[-458,515,516]],"type":"Polygon","properties":{"n":" ","c":303517,"d":"Kamrup Metro","s":"ASSAM"}},{"arcs":[[-361,517,518,519]],"type":"Polygon","properties":{"n":" ","c":0,"d":"Kamrup Metro","s":"ASSAM"}},{"arcs":[[-478,-445,-447,-401,-400,-495,520,521]],"type":"Polygon","properties":{"n":"Niz-Dimoria","c":303561,"d":"Kamrup Metro","s":"ASSAM"}},{"arcs":[[-511,522]],"type":"Polygon","properties":{"n":" ","c":0,"d":"Kamrup Metro","s":"ASSAM"}},{"arcs":[[-518,-441,-513,523,524,525]],"type":"Polygon","properties":{"n":" ","c":0,"d":"Kamrup Metro","s":"ASSAM"}},{"arcs":[[526,527,528]],"type":"Polygon","properties":{"n":"Gomaria Bagicha","c":303518,"d":"Kamrup Metro","s":"ASSAM"}},{"arcs":[[-488,-454,-469,-505,529,530,531]],"type":"Polygon","properties":{"n":" ","c":0,"d":"Kamrup Metro","s":"ASSAM"}},{"arcs":[[-420,-459,-517,532,533]],"type":"Polygon","properties":{"n":"Rewa N.C.","c":303534,"d":"Kamrup Metro","s":"ASSAM"}},{"arcs":[[534,-383,-410,-417,-436,-499,535,536]],"type":"Polygon","properties":{"n":" ","c":0,"d":"Kamrup Metro","s":"ASSAM"}},{"arcs":[[537,538,-482,-431,-376,-470]],"type":"Polygon","properties":{"n":"Bamunkhat N.C","c":303442,"d":"Kamrup Metro","s":"ASSAM"}},{"arcs":[[-524,-515,539,540]],"type":"Polygon","properties":{"n":" ","c":0,"d":"Kamrup Metro","s":"ASSAM"}},{"arcs":[[541,-506,-450,-308,-333,-373,542,543]],"type":"Polygon","properties":{"n":"Dharapur (CT)","c":303423,"d":"Kamrup Metro","s":"ASSAM"}},{"arcs":[[-492,-394,-239,-252,-359,-520,544,545]],"type":"Polygon","properties":{"n":" ","c":0,"d":"Kamrup Metro","s":"ASSAM"}},{"arcs":[[546,-543,-372,-364,-371,547,-463,548]],"type":"Polygon","properties":{"n":" ","c":0,"d":"Kamrup Metro","s":"ASSAM"}},{"arcs":[[549,550,551,552,-503,-424,-493,-546,553]],"type":"Polygon","properties":{"n":" ","c":0,"d":"Kamrup Metro","s":"ASSAM"}},{"arcs":[[-554,-545,-519,-526,554,555,556]],"type":"Polygon","properties":{"n":" ","c":0,"d":"Kamrup Metro","s":"ASSAM"}},{"arcs":[[-551,557,558,559]],"type":"Polygon","properties":{"n":" ","c":0,"d":"Kamrup Metro","s":"ASSAM"}},{"arcs":[[560,-536,-498,561,562,563]],"type":"Polygon","properties":{"n":" ","c":0,"d":"Kamrup Metro","s":"ASSAM"}},{"arcs":[[564,565,-552,-560,566]],"type":"Polygon","properties":{"n":" ","c":0,"d":"Kamrup Metro","s":"ASSAM"}},{"arcs":[[567,-530,-507,-542,568]],"type":"Polygon","properties":{"n":" ","c":0,"d":"Kamrup Metro","s":"ASSAM"}},{"arcs":[[-456,-419,-350,-283,-355,569,-527,570,571]],"type":"Polygon","properties":{"n":"Teteliguri N.C.","c":303532,"d":"Kamrup Metro","s":"ASSAM"}},{"arcs":[[-531,-568,572,573]],"type":"Polygon","properties":{"n":" ","c":0,"d":"Kamrup Metro","s":"ASSAM"}},{"arcs":[[-556,574,575,576]],"type":"Polygon","properties":{"n":" ","c":0,"d":"Kamrup Metro","s":"ASSAM"}},{"arcs":[[-486,-414,-384,-535,577,578]],"type":"Polygon","properties":{"n":"Satgaon","c":303371,"d":"Kamrup Metro","s":"ASSAM"}},{"arcs":[[579,580,581,582]],"type":"Polygon","properties":{"n":"Kalitakuchi N.C.","c":303430,"d":"Kamrup Metro","s":"ASSAM"}},{"arcs":[[-581,583,-509,-487,-579,584]],"type":"Polygon","properties":{"n":" ","c":0,"d":"Kamrup Metro","s":"ASSAM"}},{"arcs":[[-433,-481,585,586]],"type":"Polygon","properties":{"n":"Lomati","c":303455,"d":"Kamrup Metro","s":"ASSAM"}},{"arcs":[[-480,587,588]],"type":"Polygon","properties":{"n":"No.1 Ouzari","c":303559,"d":"Kamrup Metro","s":"ASSAM"}},{"arcs":[[589,-528,-570,-354,-342,590,591]],"type":"Polygon","properties":{"n":"Gomaria Bagicha","c":303518,"d":"Kamrup Metro","s":"ASSAM"}},{"arcs":[[-578,-537,-561,592,593]],"type":"Polygon","properties":{"n":" ","c":0,"d":"Kamrup Metro","s":"ASSAM"}},{"arcs":[[594,-575,-555,-525,-541,595,596,597]],"type":"Polygon","properties":{"n":" ","c":0,"d":"Kamrup Metro","s":"ASSAM"}},{"arcs":[[-489,-532,-574,598,599]],"type":"Polygon","properties":{"n":" ","c":0,"d":"Kamrup Metro","s":"ASSAM"}},{"arcs":[[600,-565,601,602]],"type":"Polygon","properties":{"n":" ","c":0,"d":"Kamrup Metro","s":"ASSAM"}},{"arcs":[[-596,-540,-514,-490,-600,603]],"type":"Polygon","properties":{"n":" ","c":0,"d":"Kamrup Metro","s":"ASSAM"}},{"arcs":[[604,605,606,607,-533,-516,-457,608,609]],"type":"Polygon","properties":{"n":"Hahara N.C.","c":303517,"d":"Kamrup Metro","s":"ASSAM"}},{"arcs":[[-576,-595,610,611]],"type":"Polygon","properties":{"n":" ","c":0,"d":"Kamrup Metro","s":"ASSAM"}},{"arcs":[[612,613,-586,-484,614,615]],"type":"Polygon","properties":{"n":"Bamunkhat","c":303438,"d":"Kamrup Metro","s":"ASSAM"}},{"arcs":[[-588,-479,-522,616,617]],"type":"Polygon","properties":{"n":"Gaon Dimoria","c":303560,"d":"Kamrup Metro","s":"ASSAM"}},{"arcs":[[-602,-567,618,619]],"type":"Polygon","properties":{"n":"Ulubam","c":303545,"d":"Kamrup Metro","s":"ASSAM"}},{"arcs":[[620,-496,-405,-449,-465,621,622]],"type":"Polygon","properties":{"n":"Maloibari Pathar","c":303557,"d":"Kamrup Metro","s":"ASSAM"}},{"arcs":[[-434,-587,-614,623,624,625]],"type":"Polygon","properties":{"n":"Juboi","c":303436,"d":"Kamrup Metro","s":"ASSAM"}},{"arcs":[[-622,-464,-408,-418,-534,-608,626,627]],"type":"Polygon","properties":{"n":"Maloibari Gaon","c":303550,"d":"Kamrup Metro","s":"ASSAM"}},{"arcs":[[-611,-598,628,629]],"type":"Polygon","properties":{"n":" ","c":0,"d":"Kamrup Metro","s":"ASSAM"}},{"arcs":[[-609,-572,630,631,632]],"type":"Polygon","properties":{"n":"Hahara Gaon","c":303510,"d":"Kamrup Metro","s":"ASSAM"}},{"arcs":[[-617,-521,-494,633,634]],"type":"Polygon","properties":{"n":"Pub-Maloibari","c":303552,"d":"Kamrup Metro","s":"ASSAM"}},{"arcs":[[635,636,-563,637,638]],"type":"Polygon","properties":{"n":" ","c":0,"d":"Kamrup Metro","s":"ASSAM"}},{"arcs":[[639,640,-583,641,642]],"type":"Polygon","properties":{"n":" ","c":0,"d":"Kamrup Metro","s":"ASSAM"}},{"arcs":[[-593,-564,-637,643,644]],"type":"Polygon","properties":{"n":" ","c":0,"d":"Kamrup Metro","s":"ASSAM"}},{"arcs":[[-634,-497,-621,645]],"type":"Polygon","properties":{"n":"Maloibari Jangle","c":303551,"d":"Kamrup Metro","s":"ASSAM"}},{"arcs":[[646,-638,-562,-500,-504,-553,-566,-601,647,648]],"type":"Polygon","properties":{"n":" ","c":0,"d":"Kamrup Metro","s":"ASSAM"}},{"arcs":[[-558,-550,-557,-577,-612,-630,649,650]],"type":"Polygon","properties":{"n":" ","c":0,"d":"Kamrup Metro","s":"ASSAM"}},{"arcs":[[651,-387,-435,-626,652]],"type":"Polygon","properties":{"n":"Digaru Gaon (Digarubar Gaon) (CT)","c":303578,"d":"Kamrup Metro","s":"ASSAM"}},{"arcs":[[-642,-582,-585,-594,653,654]],"type":"Polygon","properties":{"n":" ","c":0,"d":"Kamrup Metro","s":"ASSAM"}},{"arcs":[[-624,-613,655,656,657]],"type":"Polygon","properties":{"n":" ","c":0,"d":"Kamrup Metro","s":"ASSAM"}},{"arcs":[[-620,658,659,660]],"type":"Polygon","properties":{"n":" ","c":0,"d":"Kamrup Metro","s":"ASSAM"}},{"arcs":[[-606,661]],"type":"Polygon","properties":{"n":"Mitani Gaon","c":303514,"d":"Kamrup Metro","s":"ASSAM"}},{"arcs":[[-592,662,663]],"type":"Polygon","properties":{"n":"Bajeni Gaon","c":303511,"d":"Kamrup Metro","s":"ASSAM"}},{"arcs":[[664,-619,-559,-651,665,666]],"type":"Polygon","properties":{"n":"Narengi (OG)","c":303435,"d":"Kamrup Metro","s":"ASSAM"}},{"arcs":[[-667,667,668]],"type":"Polygon","properties":{"n":" ","c":0,"d":"Kamrup Metro","s":"ASSAM"}},{"arcs":[[669,-649,670,671,672]],"type":"Polygon","properties":{"n":" ","c":0,"d":"Kamrup Metro","s":"ASSAM"}},{"arcs":[[673,-639,-647,-670,674]],"type":"Polygon","properties":{"n":" ","c":0,"d":"Kamrup Metro","s":"ASSAM"}},{"arcs":[[-659,-665,-669,675,676]],"type":"Polygon","properties":{"n":"North Guwahati (TC)","c":801626,"d":"Kamrup Metro","s":"ASSAM"}},{"arcs":[[677,-654,-645,678,679,680]],"type":"Polygon","properties":{"n":" ","c":0,"d":"Kamrup Metro","s":"ASSAM"}},{"arcs":[[681,-632,682,683]],"type":"Polygon","properties":{"n":"Bargog","c":303509,"d":"Kamrup Metro","s":"ASSAM"}},{"arcs":[[684,-643,-655,-678,685,686]],"type":"Polygon","properties":{"n":"Bonda","c":303615,"d":"Kamrup Metro","s":"ASSAM"}},{"arcs":[[687,688,689,690]],"type":"Polygon","properties":{"n":"2 No. Panikhati","c":303613,"d":"Kamrup Metro","s":"ASSAM"}},{"arcs":[[691,-656,-616,692,693]],"type":"Polygon","properties":{"n":" ","c":0,"d":"Kamrup Metro","s":"ASSAM"}},{"arcs":[[694,-610,-633,-682,695,696]],"type":"Polygon","properties":{"n":"Hahara Pathar","c":303507,"d":"Kamrup Metro","s":"ASSAM"}},{"arcs":[[697,698,-640,-685,699,700]],"type":"Polygon","properties":{"n":" ","c":0,"d":"Kamrup Metro","s":"ASSAM"}},{"arcs":[[701,-689,702,703]],"type":"Polygon","properties":{"n":"Khankar N.C.","c":303619,"d":"Kamrup Metro","s":"ASSAM"}},{"arcs":[[704,705,706]],"type":"Polygon","properties":{"n":" ","c":0,"d":"Kamrup Metro","s":"ASSAM"}},{"arcs":[[-705,-660,-677,707,708]],"type":"Polygon","properties":{"n":" ","c":0,"d":"Kamrup Metro","s":"ASSAM"}},{"arcs":[[-707,709,710]],"type":"Polygon","properties":{"n":" ","c":0,"d":"Kamrup Metro","s":"ASSAM"}},{"arcs":[[-671,-648,-603,-661,-711,711,712]],"type":"Polygon","properties":{"n":" ","c":0,"d":"Kamrup Metro","s":"ASSAM"}},{"arcs":[[-704,713,714]],"type":"Polygon","properties":{"n":" ","c":0,"d":"Kamrup Metro","s":"ASSAM"}},{"arcs":[[715,-686,-681,716,717]],"type":"Polygon","properties":{"n":"Kharghuli N.C.","c":303581,"d":"Kamrup Metro","s":"ASSAM"}},{"arcs":[[718,-679,-644,-636,-674,719,720]],"type":"Polygon","properties":{"n":" ","c":0,"d":"Kamrup Metro","s":"ASSAM"}},{"arcs":[[721,722,723,724,725]],"type":"Polygon","properties":{"n":"Amin Gaon (CT)","c":303429,"d":"Kamrup Metro","s":"ASSAM"}},{"arcs":[[726,727,728]],"type":"Polygon","properties":{"n":"Tiling Gaon","c":303426,"d":"Kamrup Metro","s":"ASSAM"}},{"arcs":[[-627,-607,-662,-605,-695,729,730]],"type":"Polygon","properties":{"n":"Mitani N.C.","c":303516,"d":"Kamrup Metro","s":"ASSAM"}},{"arcs":[[731,-693,-615,-483,-539,732,-512,-523,-510,-584,-580,-641,-699,733,-690,-702,-715,734,735,736]],"type":"Polygon","properties":{"n":" ","c":0,"d":"Kamrup Metro","s":"ASSAM"}},{"arcs":[[737,-653,-625,-658,738,739,740]],"type":"Polygon","properties":{"n":" ","c":0,"d":"Kamrup Metro","s":"ASSAM"}},{"arcs":[[-712,-710,-706,-709,741,742]],"type":"Polygon","properties":{"n":" ","c":0,"d":"Kamrup Metro","s":"ASSAM"}},{"arcs":[[-663,743,744]],"type":"Polygon","properties":{"n":"Bejeni Grant","c":303519,"d":"Kamrup Metro","s":"ASSAM"}},{"arcs":[[-673,745,746,747]],"type":"Polygon","properties":{"n":" ","c":0,"d":"Kamrup Metro","s":"ASSAM"}},{"arcs":[[-746,-672,-713,-743,748,749]],"type":"Polygon","properties":{"n":" ","c":303434,"d":"Kamrup Metro","s":"ASSAM"}},{"arcs":[[-720,-675,-748,750,751]],"type":"Polygon","properties":{"n":" ","c":0,"d":"Kamrup Metro","s":"ASSAM"}},{"arcs":[[752,-683,-631,-571,-529,-590,-664,-745,753,754]],"type":"Polygon","properties":{"n":"Bargog N.C.","c":303521,"d":"Kamrup Metro","s":"ASSAM"}},{"arcs":[[-728,755,756,-722,757]],"type":"Polygon","properties":{"n":"Silagrant","c":303427,"d":"Kamrup Metro","s":"ASSAM"}},{"arcs":[[758,759,-721,-752,760]],"type":"Polygon","properties":{"n":" ","c":0,"d":"Kamrup Metro","s":"ASSAM"}},{"arcs":[[761,-700,-687,-716,762,763]],"type":"Polygon","properties":{"n":"Kharghuli","c":303434,"d":"Kamrup Metro","s":"ASSAM"}},{"arcs":[[-754,-744,-591,-385,-652,-738,764,765]],"type":"Polygon","properties":{"n":"Kachutali Pathar","c":303501,"d":"Kamrup Metro","s":"ASSAM"}},{"arcs":[[-759,766,767]],"type":"Polygon","properties":{"n":" ","c":0,"d":"Kamrup Metro","s":"ASSAM"}},{"arcs":[[-749,-742,-708,-676,-668,-666,-650,-629,-597,-604,-599,-573,-569,-544,-547,768,-723,-757,769,770]],"type":"Polygon","properties":{"n":" ","c":0,"d":"Kamrup Metro","s":"ASSAM"}},{"arcs":[[771,-717,-680,-719,-760,-768,772]],"type":"Polygon","properties":{"n":" ","c":0,"d":"Kamrup Metro","s":"ASSAM"}},{"arcs":[[-694,-732,773,774]],"type":"Polygon","properties":{"n":" ","c":0,"d":"Kamrup Metro","s":"ASSAM"}},{"arcs":[[-763,-718,-772,775,776]],"type":"Polygon","properties":{"n":" ","c":0,"d":"Kamrup Metro","s":"ASSAM"}},{"arcs":[[777,-696,-684,-753,778]],"type":"Polygon","properties":{"n":"Amarapathar","c":303505,"d":"Kamrup Metro","s":"ASSAM"}},{"arcs":[[-774,-737,779,780,781]],"type":"Polygon","properties":{"n":" ","c":0,"d":"Kamrup Metro","s":"ASSAM"}},{"arcs":[[-770,-756,-727,782]],"type":"Polygon","properties":{"n":"North Guwahati Gaon","c":303425,"d":"Kamrup Metro","s":"ASSAM"}},{"arcs":[[-691,-734,-698,783,784,785]],"type":"Polygon","properties":{"n":"2 No. Panikhati","c":303613,"d":"Kamrup Metro","s":"ASSAM"}},{"arcs":[[-780,-736,786,787,788]],"type":"Polygon","properties":{"n":" ","c":0,"d":"Kamrup Metro","s":"ASSAM"}},{"arcs":[[-740,789,790]],"type":"Polygon","properties":{"n":"Niz-Panbari","c":303605,"d":"Kamrup Metro","s":"ASSAM"}},{"arcs":[[791,-790,-739,-657,-692,-775,-782,792,793]],"type":"Polygon","properties":{"n":"Digarupar N.C.","c":303441,"d":"Kamrup Metro","s":"ASSAM"}},{"arcs":[[794,-764,-777,795,796]],"type":"Polygon","properties":{"n":" ","c":0,"d":"Kamrup Metro","s":"ASSAM"}},{"arcs":[[-730,-697,-778,797]],"type":"Polygon","properties":{"n":"Bagibari Pathar","c":303506,"d":"Kamrup Metro","s":"ASSAM"}},{"arcs":[[-797,798,799]],"type":"Polygon","properties":{"n":" ","c":0,"d":"Kamrup Metro","s":"ASSAM"}},{"arcs":[[-784,-701,-762,-795,-800,800,801]],"type":"Polygon","properties":{"n":"Kharghuli N.C.","c":303581,"d":"Kamrup Metro","s":"ASSAM"}},{"arcs":[[802,803,-788,804,805,806]],"type":"Polygon","properties":{"n":"Hojobari","c":303584,"d":"Kamrup Metro","s":"ASSAM"}},{"arcs":[[807,808,-785,-802,809]],"type":"Polygon","properties":{"n":"Panikhaiti","c":303582,"d":"Kamrup Metro","s":"ASSAM"}},{"arcs":[[-725,810]],"type":"Polygon","properties":{"n":"Agyathuri","c":303424,"d":"Kamrup Metro","s":"ASSAM"}},{"arcs":[[-805,-787,-735,-714,-703,-688,-786,-809,811,812]],"type":"Polygon","properties":{"n":"2 No. Khankar","c":303612,"d":"Kamrup Metro","s":"ASSAM"}},{"arcs":[[813,814,-793,-781,-789,-804,815]],"type":"Polygon","properties":{"n":"Michamari","c":303604,"d":"Kamrup Metro","s":"ASSAM"}},{"arcs":[[816,-812,-808,817,818]],"type":"Polygon","properties":{"n":"Khankar","c":303583,"d":"Kamrup Metro","s":"ASSAM"}},{"arcs":[[-816,-803,819,820,821]],"type":"Polygon","properties":{"n":"Thakurkuchi N.C.","c":303618,"d":"Kamrup Metro","s":"ASSAM"}},{"arcs":[[-806,-813,-817,822]],"type":"Polygon","properties":{"n":"Hojobari","c":303584,"d":"Kamrup Metro","s":"ASSAM"}},{"arcs":[[823,-794,-815,824]],"type":"Polygon","properties":{"n":"Michamari","c":303604,"d":"Kamrup Metro","s":"ASSAM"}},{"arcs":[[-765,-741,-791,-792,-824,825,826]],"type":"Polygon","properties":{"n":"Bejeni N.C.","c":303577,"d":"Kamrup Metro","s":"ASSAM"}},{"arcs":[[827,828,-821,829,830]],"type":"Polygon","properties":{"n":"2 No. Thakurbari","c":303603,"d":"Kamrup Metro","s":"ASSAM"}},{"arcs":[[831,832,-828,833]],"type":"Polygon","properties":{"n":"2 No. Chandrapur","c":303587,"d":"Kamrup Metro","s":"ASSAM"}},{"arcs":[[834,-832,835]],"type":"Polygon","properties":{"n":" ","c":0,"d":"Kamrup Metro","s":"ASSAM"}},{"arcs":[[836,-830,-820,-807,-823,-819,837]],"type":"Polygon","properties":{"n":"Barchapahi","c":303585,"d":"Kamrup Metro","s":"ASSAM"}},{"arcs":[[-836,-834,-831,-837,838,839]],"type":"Polygon","properties":{"n":"Chandrapur Baghicha (CT)","c":303624,"d":"Kamrup Metro","s":"ASSAM"}},{"arcs":[[-826,-825,-814,-822,-829,-833,-835,-840,840]],"type":"Polygon","properties":{"n":"Chandrapur Baghicha (CT)","c":303624,"d":"Kamrup Metro","s":"ASSAM"}},{"arcs":[[-538,-473,-502,-508,-733]],"type":"Polygon","properties":{"n":" ","c":303443,"d":"Kamrup Metro","s":"ASSAM"}},{"arcs":[[-182,-163,-157,-274,-291]],"type":"Polygon","properties":{"n":" ","c":0,"d":"Kamrup Metro","s":"ASSAM"}}]}}}