{"type":"Topology","arcs":[[[89507,25265],[-565,-1957]],[[88942,23308],[-1136,1005],[-188,-377],[-586,768],[-286,1203],[309,888],[-216,838]],[[86839,27633],[1188,-11],[320,-625],[967,-1096],[193,-636]],[[77979,79162],[1052,-2372]],[[79031,76790],[-575,100],[-4192,-1043],[-609,29]],[[73655,75876],[-88,739],[-1252,552]],[[72315,77167],[-56,2342],[191,1043]],[[72450,80552],[1097,1045]],[[73547,81597],[954,-286],[1059,-1151],[2419,-998]],[[78493,82281],[-284,-2778],[-230,-341]],[[73547,81597],[927,2418]],[[74474,84015],[1989,-1501],[769,100],[1261,-333]],[[74474,84015],[-501,608],[-532,1139],[373,546]],[[73814,86308],[511,1402],[691,1185],[311,915]],[[75327,89810],[862,-830],[2697,-2138],[635,-122],[-370,-2331],[-658,-2108]],[[73814,86308],[-803,715],[-782,-17],[-1317,1612],[-249,862],[171,887],[-264,497]],[[70570,90864],[-138,604]],[[70432,91468],[558,1180],[260,1154],[543,-473],[914,-181],[2203,-1169],[858,-849],[-441,-1320]],[[70570,90864],[-1247,-158],[-218,-1072],[-884,-1994]],[[68221,87640],[-558,-795],[-1555,-1585]],[[66108,85260],[-217,277],[-1442,590]],[[64449,86127],[179,1790],[629,2702],[587,78],[622,1093],[238,-94],[259,1072]],[[66963,92768],[570,-199],[1545,-972],[1354,-129]],[[62975,86644],[-277,-602],[-1423,1142],[-1157,15],[-811,619]],[[59307,87818],[-837,1063]],[[58470,88881],[1224,2252],[664,-82]],[[60358,91051],[1111,-716],[222,-850],[809,862],[673,61],[487,-1784],[-685,-1980]],[[64449,86127],[-1474,517]],[[60358,91051],[355,1127]],[[60713,92178],[127,-82],[1153,1922]],[[61993,94018],[423,-207],[679,625],[761,1933],[216,876]],[[64072,97245],[409,-120],[621,-788],[1279,-1212],[932,-1163],[-350,-1194]],[[61993,94018],[-463,926],[-632,429],[-1747,1904],[284,500],[802,2222],[1269,-368],[1670,-2062],[896,-324]],[[58470,88881],[-683,184]],[[57787,89065],[-975,917]],[[56812,89982],[710,1869]],[[57522,91851],[1009,1822],[2182,-1495]],[[56812,89982],[-1349,695],[-206,-654]],[[55257,90023],[-1946,1673]],[[53311,91696],[857,649],[871,1025],[372,762],[787,-1227],[1324,-1054]],[[55257,90023],[-266,-1002],[568,-549],[1081,-523],[660,67],[487,1049]],[[59307,87818],[-267,-1095]],[[59040,86723],[-58,-795]],[[58982,85928],[-532,-1419]],[[58450,84509],[-2321,1784],[-245,-879],[-44,-1142]],[[55840,84272],[-101,-674]],[[55739,83598],[-952,838],[-2595,1808],[-810,797],[-598,964],[-1121,1095]],[[49663,89100],[1280,38],[735,561],[1633,1997]],[[55739,83598],[-114,-508],[12,-2629]],[[55637,80461],[-842,-2599],[-816,-1215],[-340,-949]],[[53639,75698],[-461,1589],[872,1740],[372,1431],[-1640,1817],[-1264,856],[615,1763],[-1082,844],[-791,900],[120,254],[-1119,2336]],[[49261,89228],[402,-128]],[[53639,75698],[-179,-488]],[[53460,75210],[-195,-817],[-400,-409]],[[52865,73984],[-621,896],[-953,990],[-2534,2094],[-877,856]],[[47880,78820],[1526,3242],[370,1115],[115,1037],[-314,2269],[-786,1449],[177,1588]],[[48968,89520],[293,-292]],[[47880,78820],[-108,76]],[[47772,78896],[-743,599],[-1158,-179],[-1112,68],[-3098,911]],[[41661,80295],[224,1349],[-201,1303],[59,1165]],[[41743,84112],[2866,-123],[693,435],[744,1469],[471,1700],[-576,1416],[-93,1002]],[[45848,90011],[982,964],[1040,-237],[1098,-1218]],[[41743,84112],[-355,996],[-275,1445]],[[41113,86553],[-533,795],[-65,829]],[[40515,88177],[380,-29],[1080,2310],[744,55],[830,1426],[400,-506],[694,-119],[1205,-1303]],[[41113,86553],[-1491,-2418],[-1006,-1957]],[[38616,82178],[-105,-432],[-813,573],[-407,-41]],[[37291,82278],[666,1480],[615,281],[-10,1378],[636,2100],[334,397]],[[39532,87914],[215,324],[768,-61]],[[37291,82278],[-773,-403],[-1073,581],[-1182,339],[-1049,730]],[[33214,83525],[71,1410],[-126,1720],[197,1464]],[[33356,88119],[366,359],[1736,-275],[198,117],[2319,-987],[633,485],[924,96]],[[33214,83525],[-273,163],[-537,-1790],[-337,-2269],[43,-2415],[-225,-1513],[-315,-1054]],[[31570,74647],[-1915,1507],[-919,1039]],[[28736,77193],[-497,599],[-1809,724],[-230,1788],[-296,-71]],[[25904,80233],[264,570],[941,-196],[575,1650],[-116,1268],[826,1273],[1047,2821],[-93,1650],[677,50],[2338,-1174],[993,-26]],[[28736,77193],[47,-324],[-931,-1294]],[[27852,75575],[-335,444],[-328,-523],[-29,-981],[235,-111]],[[27395,74404],[-991,152],[-45,1046],[-495,876],[-290,3090]],[[25574,79568],[330,665]],[[24719,79623],[66,-1010],[-277,-2054],[81,-718],[524,-1098],[330,-1872],[-770,-2041],[1125,-1096],[13,-774],[834,-2061],[64,-698],[407,-395],[-22,-884]],[[27094,64922],[-475,-1922],[-424,-1014]],[[26195,61986],[-1070,1706],[-233,1116],[20,1156],[-604,1095],[-451,-111],[-281,-1153],[-1291,993]],[[22285,66788],[-41,952],[-522,1583],[-1231,1580],[-1795,817]],[[18696,71720],[913,1677]],[[19609,73397],[739,-500],[1041,246],[1471,2275],[828,2666]],[[23688,78084],[289,-134],[590,1656],[152,17]],[[19609,73397],[-1315,3063]],[[18294,76460],[779,2135],[311,1519],[658,1705],[272,-38],[1623,-1971],[1751,-1726]],[[16936,76980],[-84,-1089],[-796,-1934],[-114,-604],[-721,-1714]],[[15221,71639],[-949,481]],[[14272,72120],[-1812,660],[-1482,812],[-631,555]],[[10347,74147],[53,374]],[[10400,74521],[770,900],[734,525],[847,246],[832,674],[245,-131],[559,1355],[288,1124]],[[14675,79214],[2099,-2240],[162,6]],[[10400,74521],[-46,844],[-959,572],[431,2144],[-158,2652],[-360,1153],[-213,3046],[28,842],[911,254],[717,-830],[663,342],[149,-380],[1242,-1139],[1253,-1927],[306,-173],[-227,-2061],[538,-646]],[[14272,72120],[-573,-876],[-394,-2050]],[[13305,69194],[-1212,-152],[-907,313]],[[11186,69355],[103,376],[-622,798],[-489,2170],[169,1448]],[[13305,69194],[411,-1416],[827,-634],[1009,-50]],[[15552,67094],[91,-896],[-309,-868]],[[15334,65330],[-571,-499],[81,-412],[-1195,3],[-224,-1127]],[[13425,63295],[-1480,166],[-2054,865]],[[9891,64326],[1295,5029]],[[13425,63295],[1606,-441],[788,-365]],[[15819,62489],[-355,-3280],[-1060,-2208]],[[14404,57001],[-686,-20],[-536,-692],[-145,-716]],[[13037,55573],[-107,348],[-1623,1352],[-531,-108],[-444,996],[-707,931],[-143,1995],[409,3239]],[[14404,57001],[536,-2000],[864,-1344],[314,-1296],[83,-1519],[183,-257]],[[16384,50585],[-279,-666],[-1863,243],[-328,327]],[[13914,50489],[323,1127],[-198,1302],[-580,488],[193,394],[-431,567],[47,935],[-231,271]],[[17486,50608],[2233,-1942],[553,-812]],[[20272,47854],[-125,-2797],[307,-1501]],[[20454,43556],[215,-1081],[-796,-1548],[-1180,-1627]],[[18693,39300],[-681,339],[-192,-949]],[[17820,38690],[-578,321]],[[17242,39011],[-1442,941],[-1712,-2340]],[[14088,37612],[-561,260]],[[13527,37872],[-715,634],[498,1253],[-358,637]],[[12952,40396],[541,1200],[-448,1478],[161,1425],[-257,1483],[-308,348]],[[12641,46330],[554,1040],[75,879],[634,1270],[10,970]],[[16384,50585],[1102,23]],[[12952,40396],[-619,665],[-1847,1166]],[[10486,42227],[-546,271],[-178,-709]],[[9762,41789],[-324,289],[275,622],[-502,441]],[[9211,43141],[785,3230]],[[9996,46371],[718,-441],[869,-15],[1058,415]],[[66108,85260],[426,-1356],[862,-768]],[[67396,83136],[81,-146]],[[67477,82990],[-2426,-1218],[-140,-1892],[-663,499],[-318,-1147],[-926,376],[-468,710],[-1053,4074],[-452,832],[-566,-464],[-570,730],[-444,970],[-411,263]],[[68221,87640],[1115,-1382],[-238,-2754]],[[69098,83504],[-1702,-368]],[[72450,80552],[-1839,972],[-930,684],[-583,1296]],[[73655,75876],[156,-774],[-372,-1810],[-325,-821],[-544,-330],[-436,-730],[-791,-543]],[[71343,70868],[-590,-386]],[[70753,70482],[-462,-172],[-573,336],[78,1337],[1187,3254],[1077,1536]],[[72060,76773],[255,394]],[[72060,76773],[-1008,435],[-2208,636]],[[68844,77844],[360,1356],[-598,1609],[-1129,2181]],[[68844,77844],[-596,-1115],[-1124,1425],[-2200,-4287],[-59,-2001],[-1738,836],[-142,-450]],[[62985,72252],[-461,-1206],[-1009,633]],[[61515,71679],[-1691,1805],[-517,689],[494,871],[211,1270]],[[60012,76314],[453,3972]],[[60465,80286],[274,2234],[-749,575]],[[59990,83095],[-970,1557],[-38,1276]],[[70753,70482],[-620,-1784]],[[70133,68698],[-332,-316],[-958,-1626]],[[68843,66756],[-570,330]],[[68273,67086],[-852,537],[-49,-1349],[-664,8],[-648,681]],[[66060,66963],[386,1162],[-915,1230],[-608,233],[-1400,117]],[[63523,69705],[357,1624],[-895,923]],[[71343,70868],[588,-871],[-772,-2447]],[[71159,67550],[-1026,1148]],[[71159,67550],[255,-137],[270,-1250]],[[71684,66163],[-1330,-1875]],[[70354,64288],[-1511,2468]],[[70354,64288],[-740,-1522]],[[69614,62766],[-585,-90]],[[69029,62676],[-1008,476]],[[68021,63152],[252,3934]],[[68021,63152],[-630,82],[-693,730]],[[66698,63964],[143,911],[-1132,1308]],[[65709,66183],[351,780]],[[69029,62676],[-443,-1662],[-152,-1472],[-376,76],[-786,888],[-701,432]],[[66571,60938],[105,1048],[-337,529]],[[66339,62515],[359,1449]],[[65709,66183],[-1065,704],[-824,91],[-1185,502]],[[62635,67480],[-52,1150]],[[62583,68630],[940,1075]],[[66339,62515],[-1795,1133],[-835,719]],[[63709,64367],[-416,978],[-756,999]],[[62537,66344],[98,1136]],[[63709,64367],[-915,-1569],[-517,-1512]],[[62277,61286],[-605,2704]],[[61672,63990],[446,879],[419,1475]],[[66571,60938],[-627,-2950],[-2475,625],[-1158,541]],[[62311,59154],[152,1530],[-186,602]],[[56596,67915],[507,1574],[948,1782]],[[58051,71271],[855,-1142],[296,391],[1462,555],[812,529]],[[61476,71604],[-237,-482],[370,-1011],[974,-1481]],[[61672,63990],[-1314,698],[-407,733],[-524,137]],[[59427,65558],[-683,193]],[[58744,65751],[-2148,2164]],[[56440,61069],[-573,-1404],[-639,-1025],[-761,-1747]],[[54467,56893],[-399,-1025],[-1393,970]],[[52675,56838],[254,779],[-223,2559],[-127,339]],[[52579,60515],[29,426]],[[52608,60941],[203,993],[539,1075]],[[53350,63009],[688,359],[485,672],[823,146]],[[55346,64186],[1233,-1951],[-139,-1166]],[[58744,65751],[-343,-567],[-691,-2473],[-528,-2684]],[[57182,60027],[-172,552],[-570,490]],[[55346,64186],[313,1323],[571,1597],[-99,237]],[[56131,67343],[465,572]],[[59427,65558],[-419,-1632],[40,-1680],[-301,-1717],[-16,-2073]],[[58731,58456],[-1248,391],[-370,330],[69,850]],[[62311,59154],[-1574,-368],[-772,-506]],[[59965,58280],[-1234,176]],[[59965,58280],[20,-981]],[[59985,57299],[-494,-2164]],[[59491,55135],[-706,-2430]],[[58785,52705],[-1315,1180],[-1055,704],[-1948,2304]],[[59985,57299],[810,-222],[708,-803],[-370,-1501],[468,-321]],[[61601,54452],[-348,-1028]],[[61253,53424],[-1762,1711]],[[61601,54452],[434,1594],[1745,-1264],[806,-853]],[[64586,53929],[345,-409],[-656,-2225]],[[64275,51295],[-911,-1060]],[[63364,50235],[-1089,359],[-370,508]],[[61905,51102],[-1063,1229]],[[60842,52331],[411,1093]],[[60842,52331],[-795,220],[-967,-141]],[[59080,52410],[-295,295]],[[61905,51102],[-336,-1171],[-68,-2325],[119,-628]],[[61620,46978],[-540,-178],[-914,-2097],[-2340,146]],[[57826,44849],[-181,333]],[[57645,45182],[404,1043],[76,2987],[185,1665],[341,1005],[429,528]],[[52266,55252],[409,1586]],[[57645,45182],[-1320,1414],[-568,1069],[-1675,1939],[-83,-123],[-1107,1533],[329,850],[-218,640],[-513,271]],[[52490,52775],[-477,231],[463,888],[-210,1358]],[[52266,55252],[-214,-134],[-1167,1223],[-148,903]],[[50737,57244],[84,1083],[1200,2164],[558,24]],[[50737,57244],[-979,429]],[[49758,57673],[-803,940],[-198,1320],[-482,430]],[[48275,60363],[151,981],[911,1796],[943,-818],[2328,-1381]],[[48275,60363],[-691,-1163],[-419,336]],[[47165,59536],[142,409]],[[47307,59945],[571,1784],[-1131,1446],[299,1469],[873,2132]],[[47919,66776],[1049,-467],[611,280],[1771,-1422],[693,-313],[1307,-1845]],[[52555,73651],[78,-1101],[558,-1227],[705,-917],[639,-470]],[[54535,69936],[1224,-2240],[372,-353]],[[47919,66776],[-830,1151]],[[47089,67927],[897,987],[399,782],[1821,2080]],[[50206,71776],[2349,1875]],[[56050,72810],[968,-634],[421,304]],[[57439,72480],[612,-1209]],[[54535,69936],[1515,2874]],[[52555,73651],[310,333]],[[53460,75210],[2590,-2400]],[[55637,80461],[2879,-2765],[537,692],[-136,347],[1548,1551]],[[60012,76314],[-1102,-1177],[64,-476],[-1535,-2181]],[[59990,83095],[-935,-271],[-887,432]],[[58168,83256],[282,1253]],[[58168,83256],[-1625,870],[-703,146]],[[41661,80295],[-406,-1095]],[[41255,79200],[-308,458],[-1398,1092],[-933,1428]],[[41255,79200],[-218,-1259]],[[41037,77941],[-752,-3446]],[[40285,74495],[-360,6],[-945,-1636],[-486,-222],[-1142,21],[-705,-322],[-3156,535],[-1292,-389]],[[32199,72488],[-424,386],[-205,1773]],[[27852,75575],[-457,-1171]],[[47772,78896],[-572,-1227]],[[47200,77669],[-598,-137]],[[46602,77532],[-452,9],[-464,-1682],[-2462,1676],[-1474,464],[-713,-58]],[[46602,77532],[441,-1048],[987,-3265],[-480,-760],[-140,-1118],[-479,-1618],[-431,-955]],[[46500,68768],[-1879,2593],[-1123,-181]],[[43498,71180],[-2656,1192]],[[40842,72372],[-557,2123]],[[50206,71776],[-1403,2327],[-218,1361],[-1385,2205]],[[47089,67927],[-589,841]],[[43498,71180],[206,-899],[-301,-427],[-37,-806],[-1044,-2108]],[[42322,66940],[-854,727]],[[41468,67667],[-678,797],[495,1037],[-1276,1951]],[[40009,71452],[833,920]],[[47307,59945],[-1013,1212],[-1090,751],[-859,-532],[-211,245]],[[44134,61621],[91,897],[-210,993],[-1152,1168]],[[42863,64679],[28,903],[-569,1358]],[[40009,71452],[-681,-532],[-1231,-225],[-651,-1586],[-1562,552],[-867,-499]],[[35017,69162],[-622,-797],[-708,280],[-10,-1098]],[[33677,67547],[-590,1241],[44,1081],[-578,774],[-354,1845]],[[41468,67667],[-952,-1823],[-2038,-449]],[[38478,65395],[-1158,572],[-927,1971],[-1376,1224]],[[42863,64679],[-119,-745],[-539,-1139],[-754,-295],[-392,-660],[39,-1007]],[[41098,60833],[-306,-120]],[[40792,60713],[-428,1215],[-390,377]],[[39974,62305],[-151,485],[-1345,2605]],[[44134,61621],[-345,-1655],[-135,-1668]],[[43654,58298],[-291,-356],[-950,262],[-862,736],[-453,1893]],[[47165,59536],[-332,-1086]],[[46833,58450],[-216,-462],[-363,424],[-1064,26]],[[45190,58438],[-436,184],[-463,-423],[-637,99]],[[49758,57673],[71,-1495],[-376,-1671],[-309,-756]],[[49144,53751],[-896,2021]],[[48248,55772],[-1092,2237],[-323,441]],[[51237,49364],[-500,614],[-503,32],[-568,625]],[[49666,50635],[364,1010],[-265,1072],[-621,1034]],[[52490,52775],[-1253,-3411]],[[57826,44849],[-208,-1159]],[[57618,43690],[-850,-418],[-2000,-368],[-174,-350]],[[54594,42554],[-1109,1781],[-1094,1057],[-1080,1902],[-218,1419],[144,651]],[[54594,42554],[-805,-2299],[-409,-490],[-840,-1977]],[[52540,37788],[-835,1150],[-358,59],[-812,1390],[-830,-1382],[-1176,-589],[-779,-1741]],[[47750,36675],[-139,41]],[[47611,36716],[-274,736],[-745,-368],[-560,441],[-453,-751],[-264,990]],[[45315,37764],[-238,763]],[[45077,38527],[568,1874],[1366,2874],[137,859]],[[47148,44134],[574,2944],[1006,2316]],[[48728,49394],[938,1241]],[[48728,49394],[-1247,1358]],[[47481,50752],[-71,879],[-796,765]],[[46614,52396],[1634,3376]],[[46614,52396],[-1268,899]],[[45346,53295],[-1025,979]],[[44321,54274],[523,2047],[346,2117]],[[44321,54274],[-338,-757],[-1553,1244]],[[42430,54761],[-795,800],[-2060,982]],[[39575,56543],[-802,850],[492,1036],[685,751],[842,1533]],[[39575,56543],[-1243,-2413],[-1039,731]],[[37293,54861],[-197,356]],[[37096,55217],[776,2085],[-82,596],[586,978],[658,1677],[316,283],[624,1469]],[[37096,55217],[-1938,1764]],[[35158,56981],[50,657],[-693,1840],[-57,505],[-2071,2003],[49,424]],[[32436,62410],[791,2012],[83,1346],[367,1779]],[[35158,56981],[-440,-462],[-1533,-771],[-1816,2947]],[[31369,58695],[754,3023],[313,692]],[[37293,54861],[-247,-681]],[[37046,54180],[-695,-1264]],[[36351,52916],[-1023,-1572]],[[35328,51344],[-323,733],[-2050,2895],[-1048,-211]],[[31907,54761],[-984,2973]],[[30923,57734],[446,961]],[[41304,49522],[-664,1414],[-590,32],[-531,829],[291,459],[-492,592],[-1121,246],[-1151,1086]],[[42430,54761],[-1444,-2164],[781,-1647],[-463,-1428]],[[41706,48847],[-402,675]],[[45346,53295],[-313,-493],[-1180,-2643],[-419,157],[-1104,-1749],[-624,280]],[[47148,44134],[-1074,-190],[-902,-625]],[[45172,43319],[333,937],[-384,567],[505,388],[1250,4358],[605,1183]],[[45077,38527],[-370,-392],[-1300,1186],[-725,271]],[[42682,39592],[1060,1855],[838,715],[592,1157]],[[45315,37764],[-1775,-1615],[-946,-1542]],[[42594,34607],[-960,-178],[-976,599]],[[40658,35028],[411,1530],[-64,508]],[[41005,37066],[475,1072],[426,1557],[776,-103]],[[40320,31386],[-105,847],[-432,572]],[[39783,32805],[241,1230],[634,993]],[[42594,34607],[429,-1256],[-646,-1831]],[[42377,31520],[-603,-362],[-955,-99],[-499,327]],[[39783,32805],[-1032,567]],[[38751,33372],[68,178],[-1016,1224],[112,236]],[[37915,35010],[1227,2962],[460,-383],[285,800],[377,-444]],[[40264,37945],[741,-879]],[[36459,27896],[-412,450],[679,1425],[-155,759],[444,967],[636,-397],[1100,2272]],[[40320,31386],[-906,-2587]],[[39414,28799],[-800,-1791],[-838,386],[-343,-196],[-974,698]],[[38121,42939],[505,-1396],[1694,-2243],[279,-721],[-335,-634]],[[37915,35010],[-1302,1665],[-514,999]],[[36099,37674],[538,1419],[-335,578],[649,2363]],[[36951,42034],[1170,905]],[[36099,37674],[-281,29],[-1582,1343],[-1112,1493]],[[33124,40539],[446,619],[288,1089],[272,-87],[128,1565]],[[34258,43725],[418,768]],[[34676,44493],[2275,-2459]],[[34676,44493],[172,333]],[[34848,44826],[490,546],[996,-905],[724,1772],[1994,-1994]],[[39052,44245],[-931,-1306]],[[41706,48847],[146,-534],[-284,-1157],[-362,-262],[-2651,3355],[-125,-84],[-2079,2751]],[[35436,50106],[-108,1238]],[[39052,44245],[734,1004],[-29,1265],[-1788,2126],[-1633,666],[-900,800]],[[34848,44826],[-436,987],[296,1092],[-230,526],[527,1375]],[[35005,48806],[431,1300]],[[35005,48806],[-1088,833],[-176,511],[-2490,1986]],[[31251,52136],[-83,473],[413,1533],[326,619]],[[29834,50474],[-1245,1016]],[[28589,51490],[-44,1452],[-435,1787],[-336,859]],[[27774,55588],[453,479]],[[28227,56067],[1110,1291],[1586,376]],[[31251,52136],[-458,-278],[-959,-1384]],[[28227,56067],[-545,601],[-353,1986],[634,2608],[536,929],[79,975]],[[28578,63166],[3858,-756]],[[15221,71639],[887,-839],[355,-633]],[[16463,70167],[-1124,-2643],[213,-430]],[[16463,70167],[926,-129]],[[17389,70038],[577,-1256],[-538,-2570],[-721,-981],[-290,-1086],[-346,-73]],[[16071,64072],[-737,1258]],[[22285,66788],[-1146,-2159]],[[21139,64629],[-286,1201],[-1038,1997],[90,926],[-943,59],[-803,464],[-770,762]],[[17389,70038],[1307,1682]],[[26195,61986],[-708,-1506]],[[25487,60480],[-1434,738],[-1401,1061],[-1719,648]],[[20933,62927],[206,1702]],[[21117,57112],[-1014,1294],[-572,1013],[-243,2030]],[[19288,61449],[1645,1478]],[[25487,60480],[-124,-2276]],[[25363,58204],[-519,409],[-1114,202],[-1303,-651],[-999,-173],[-311,-879]],[[19288,61449],[196,1028],[-571,371],[-276,911],[-563,-1291]],[[18074,62468],[-908,304],[-931,704]],[[16235,63476],[-164,596]],[[19288,61449],[-578,394]],[[18710,61843],[-636,625]],[[16235,63476],[-416,-987]],[[21117,57112],[-112,-569]],[[21005,56543],[-2084,1656]],[[18921,58199],[-580,490],[-196,1078],[565,2076]],[[25363,58204],[81,-1857]],[[25444,56347],[-2067,-274],[-433,-538],[-602,-1752]],[[22342,53783],[-552,368],[-217,1632],[-568,760]],[[27774,55588],[-636,-403],[-884,-64],[-810,1226]],[[27094,64922],[1484,-1756]],[[34258,43725],[-1141,1095],[311,1060],[-735,821],[-942,50],[-1663,884]],[[30088,47635],[-132,672],[414,1545],[-536,622]],[[29790,46447],[-779,616],[-1903,815],[-1315,286]],[[25793,48164],[295,1422],[543,1002],[745,631],[1213,271]],[[30088,47635],[-298,-1188]],[[18921,58199],[-632,-3774],[-428,-1574],[-375,-2243]],[[28769,43710],[-4172,2013]],[[24597,45723],[411,2678]],[[25008,48401],[785,-237]],[[29790,46447],[-1021,-2737]],[[29413,42858],[-33,446],[-611,406]],[[33124,40539],[-240,-260],[-1136,-26]],[[31748,40253],[-546,414],[-1789,2191]],[[29413,42858],[-1519,-1361],[-502,-106],[-553,-844],[-651,-122],[-407,-497],[-555,111],[-701,-896]],[[24525,39143],[-915,931],[-581,1017],[123,198]],[[23152,41289],[940,2077],[505,2357]],[[25008,48401],[-1596,324],[-1399,742]],[[22013,49467],[118,271],[360,3029],[-149,1016]],[[22013,49467],[-817,-479],[-928,-868],[4,-266]],[[4049,45206],[328,525],[-379,605],[341,488],[540,-68],[-185,-934],[480,-102],[536,838],[-703,785],[-412,-8],[89,636],[377,-32],[888,-1098],[387,318]],[[6336,47159],[1215,-882]],[[7551,46277],[-1024,-706],[-540,-1344]],[[5987,44227],[-887,-1962]],[[5100,42265],[-529,657],[-1187,417]],[[3384,43339],[665,1867]],[[5987,44227],[1123,-1930],[362,-342],[786,543],[630,-122],[323,765]],[[9762,41789],[-179,-716],[-1498,-96],[-159,-339],[-1350,55],[-212,-528],[-282,432]],[[6082,40597],[-982,1668]],[[5420,36947],[-286,1816],[233,494]],[[5367,39257],[715,1340]],[[10486,42227],[-744,-2299],[776,-686],[-1011,-2541],[465,-274]],[[9972,36427],[-88,-625]],[[9884,35802],[-1802,1145],[-379,-512],[-1568,567],[-715,-55]],[[13527,37872],[-252,-1022],[-1038,1341],[-842,365],[-101,-1320],[-289,-342],[-786,161],[-247,-628]],[[14088,37612],[-294,-154],[-233,-2264]],[[13561,35194],[-2409,205]],[[11152,35399],[-490,-24],[-778,427]],[[17242,39011],[16,-1171],[-403,-1107]],[[16855,36733],[-438,546],[-507,-1258],[-1822,1591]],[[18693,39300],[-5,-806]],[[18688,38494],[-612,-2096],[-531,330]],[[17545,36728],[275,1962]],[[16855,36733],[-921,-2771]],[[15934,33962],[-769,821],[-715,-1277]],[[14450,33506],[-666,789]],[[13784,34295],[-223,899]],[[17545,36728],[-440,-2018],[-782,-1329],[-389,581]],[[18688,38494],[634,-391],[-191,-625],[622,-590],[-303,-818],[-51,-1369],[-441,505],[-713,-946],[-1011,-1753],[-296,-829]],[[16938,31678],[-1083,435]],[[15855,32113],[-1405,1393]],[[11152,35399],[-313,-1534]],[[10839,33865],[-1352,1154],[-555,-1005],[-377,-1381],[-2737,1700],[-537,604]],[[5281,34937],[123,1528]],[[5404,36465],[16,482]],[[12920,26427],[-1354,1022]],[[11566,27449],[401,1195]],[[11967,28644],[1161,3414]],[[13128,32058],[1525,-1995]],[[14653,30063],[-582,-613],[-1151,-3023]],[[13128,32058],[656,2237]],[[15855,32113],[-26,-978],[-1176,-1072]],[[11967,28644],[-1371,2386],[-276,829]],[[10320,31859],[519,2006]],[[11566,27449],[-2490,1052],[-1692,17]],[[7384,28518],[228,625],[218,2068],[-61,1072]],[[7769,32283],[2551,-424]],[[16938,31678],[1216,-1609]],[[18154,30069],[424,-841]],[[18578,29228],[-528,-1563],[-897,-3674]],[[17153,23991],[-2958,2343],[-514,-695]],[[13681,25639],[-761,788]],[[24665,32963],[-693,-1323],[407,-1224],[-390,-592],[-793,794],[63,-1136],[1131,-943]],[[24390,28539],[-590,-1455]],[[23800,27084],[-315,266]],[[23485,27350],[237,1276],[-1063,1907],[-705,786],[-426,-1046]],[[21528,30273],[-1914,1995],[-1460,-2199]],[[20454,43556],[1405,-1008],[720,-923],[573,-336]],[[24525,39143],[-186,-1650],[353,-1799],[-668,-1680],[641,-1051]],[[36459,27896],[-815,-1396],[-877,-526],[-904,-2158],[615,-1045],[585,-625]],[[35063,22146],[-605,-196],[-715,827],[-294,-412],[-680,228],[-424,-1183]],[[32345,21410],[-972,336],[-1214,105]],[[30159,21851],[-1964,1545],[-223,333]],[[27972,23729],[650,1308],[1163,3031],[-1303,1128],[-502,-100]],[[27980,29096],[637,1726],[-312,523],[781,1960],[404,362],[1228,2330],[460,1364]],[[31178,37361],[570,2892]],[[31178,37361],[-1947,67],[-1533,-2856],[-1300,-2730],[-453,131],[-141,-791]],[[25804,31182],[-192,184]],[[25612,31366],[110,756],[-1057,841]],[[27980,29096],[-154,-341]],[[27826,28755],[-2022,2427]],[[27826,28755],[-754,-2550],[315,-502],[-100,-631],[324,-759]],[[27611,24313],[-415,-637]],[[27196,23676],[-759,978],[-751,88],[-1481,1016]],[[24205,25758],[120,573],[-525,753]],[[24390,28539],[360,-196],[601,888],[-324,809],[585,1326]],[[25426,22598],[-1106,789],[-865,412]],[[23455,23799],[750,1959]],[[27196,23676],[-805,-1662],[-965,584]],[[21245,25493],[-201,625]],[[21044,26118],[999,2140]],[[22043,28258],[1442,-908]],[[23455,23799],[-714,-430]],[[22741,23369],[-1076,552],[231,608],[-651,964]],[[22043,28258],[-629,873],[114,1142]],[[21044,26118],[-1298,1489]],[[19746,27607],[-1168,1621]],[[22741,23369],[-123,-137]],[[22618,23232],[-338,-228],[-1429,941]],[[20851,23945],[394,1548]],[[19746,27607],[-719,-1942],[-921,-1554],[-526,-1247]],[[17580,22864],[-549,205]],[[17031,23069],[122,922]],[[20851,23945],[-968,-2030],[-615,-158]],[[19268,21757],[-1688,1107]],[[22618,23232],[8,-558],[-427,-1150],[532,-730],[-23,-567]],[[22708,20227],[-994,-1767],[-1289,-120],[-1705,205]],[[18720,18545],[105,946]],[[18825,19491],[443,2266]],[[22708,20227],[728,-581],[-309,-622]],[[23127,19024],[-945,-1309],[-610,152],[-1202,-2342],[-939,847],[53,680],[-994,777]],[[18490,17829],[230,716]],[[25426,22598],[108,-2313]],[[25534,20285],[-839,-718],[-644,-1305]],[[24051,18262],[-924,762]],[[35063,22146],[811,-882]],[[35874,21264],[-992,-2716],[-161,-885]],[[34721,17663],[-559,-1189],[326,-788],[555,330],[-721,-1101],[158,-453],[-704,-1723],[-444,-470]],[[33332,12269],[345,885],[-1892,1799],[597,2237],[564,1597],[-448,1092],[303,1215],[-456,316]],[[36789,21938],[-915,-674]],[[39414,28799],[1810,-1694]],[[41224,27105],[-659,-1662]],[[40565,25443],[-169,70],[-989,-1092],[-334,-771],[-969,928],[-1026,-1845],[-289,-795]],[[10601,24783],[-1135,645]],[[9466,25428],[-1443,812]],[[8023,26240],[147,371],[-416,689],[-1263,418],[-287,999]],[[6204,28717],[1180,-199]],[[11566,27449],[-965,-2666]],[[13681,25639],[676,-824],[-176,-564]],[[14181,24251],[-262,-639]],[[13919,23612],[-423,-1136],[-1188,812],[-1668,1387]],[[10640,24675],[-39,108]],[[17031,23069],[-497,-225],[-1438,674],[-915,733]],[[10915,20846],[-1153,1434]],[[9762,22280],[878,2395]],[[13919,23612],[257,-196],[-500,-2070],[-1767,952],[-754,-1598]],[[11155,20700],[-240,146]],[[9762,22280],[-799,570],[-210,-558],[-818,-1043],[-979,824]],[[6956,22073],[178,902],[-1126,1081],[96,239]],[[6104,24295],[1481,-777],[206,546],[590,-771],[1085,2135]],[[18421,19424],[-1537,745],[-1207,23]],[[15677,20192],[-850,222],[-447,-844],[-327,339]],[[14053,19909],[-251,213],[-421,-1116],[-2226,1694]],[[18825,19491],[-404,-67]],[[80125,69109],[-411,731],[-102,1115],[-346,47]],[[79266,71002],[767,937]],[[80033,71939],[7,-8]],[[80040,71931],[85,-2822]],[[79266,71002],[22,-1197],[-499,-1230],[-740,-237],[-987,-706],[-644,-1519],[-1622,-864]],[[74796,65249],[-448,487],[727,1621],[435,-350],[182,744],[1214,2261],[1484,613],[146,345],[730,32]],[[80125,69109],[-661,-257],[-291,-800],[147,-2152],[678,-841],[-249,-1577]],[[79749,63482],[-153,-158]],[[79596,63324],[-599,-494],[-925,-119],[-603,552],[-571,-906],[-347,59],[-355,742],[-526,81]],[[75670,63239],[-451,-750],[-1166,-897]],[[74053,61592],[-678,1233],[263,1816]],[[73638,64641],[1158,608]],[[80125,69109],[213,-403],[59,-1355],[502,-779],[717,-415]],[[81616,66157],[-644,-485],[25,-1451],[-781,-730],[-467,-9]],[[81563,49633],[-842,-429],[-896,283],[-701,-50]],[[79124,49437],[243,1980],[-189,3520],[-411,849],[-294,1855],[-854,549],[-417,859]],[[77202,59049],[-161,867],[-461,1083],[-184,1110],[-726,1130]],[[79596,63324],[316,-707],[897,-753],[36,-923],[-306,-1230],[-9,-1822],[543,-3382],[-213,-1828],[15,-1265],[688,-1781]],[[79550,44563],[-506,-432],[-16,-1945],[-1412,531],[-1124,-785],[-122,233],[-1503,126],[-706,321]],[[74161,42612],[-191,1221],[314,937],[681,865],[1545,432],[158,1437],[350,520],[443,-222],[1169,82]],[[78630,47884],[68,-865],[940,-1606],[-88,-850]],[[79550,44563],[95,-3282],[-646,-734]],[[78999,40547],[-360,415],[-1009,38],[-1601,-613],[-174,-730],[-1272,-552],[-448,111],[-823,1986]],[[73312,41202],[397,949],[452,461]],[[78999,40547],[426,-2809]],[[79425,37738],[-908,134],[-815,500],[-1046,-684],[-648,-893],[-850,-1563],[-379,-1250]],[[74779,33982],[-667,1052]],[[74112,35034],[137,414],[121,2103],[-385,453],[-1048,610]],[[72937,38614],[-76,1764],[451,824]],[[79425,37738],[61,-809]],[[79486,36929],[-32,-786],[419,-1413],[-24,-847],[-519,-1010],[-10,-2754]],[[79320,30119],[-249,-561],[-1007,353],[-603,660]],[[77461,30571],[-759,1107],[-756,643],[-1090,-187],[-268,730]],[[74588,32864],[191,1118]],[[83531,25314],[-391,-315]],[[83140,24999],[-500,786],[-688,452],[-203,-1410],[-377,-485],[-810,-400]],[[80562,23942],[-524,-526],[-704,494],[-227,-307],[-629,619],[-434,-365],[-335,324]],[[77709,24181],[-467,435]],[[77242,24616],[-1037,742],[-1314,430]],[[74891,25788],[-483,2079]],[[74408,27867],[517,934],[958,-429],[531,368],[925,1399],[122,432]],[[79320,30119],[723,-266],[256,-616],[1127,-246],[1221,-1612],[884,-2065]],[[74408,27867],[-729,610],[-680,24]],[[72999,28501],[268,2032],[-388,1157]],[[72879,31690],[756,-374],[367,981]],[[74002,32297],[350,-175],[236,742]],[[77242,24616],[-542,-1539],[-1097,-619],[-421,-832]],[[75182,21626],[-482,1799],[210,455],[-355,1481],[336,427]],[[77709,24181],[-174,-1077],[-651,-1268],[-1198,-1796]],[[75686,20040],[-438,435],[-66,1151]],[[75182,21626],[-1175,1443]],[[74007,23069],[-433,-21],[-700,1049]],[[72874,24097],[-23,590],[468,838],[-108,1025]],[[73211,26550],[1,1083],[-213,868]],[[72874,24097],[-596,-1063],[-998,186],[-799,-78],[-386,885],[-1193,522]],[[68902,24549],[598,1434],[29,949]],[[69529,26932],[431,2033]],[[69960,28965],[987,-797],[1293,-748],[971,-870]],[[75686,20040],[186,-666]],[[75872,19374],[-1035,-1708]],[[74837,17666],[-556,-462],[-1302,1919],[66,552],[1168,2985],[-206,409]],[[80562,23942],[815,-1834]],[[81377,22108],[-1340,-488],[-768,-76],[-728,660],[-832,1977]],[[83140,24999],[496,-786],[1139,-157],[-86,-1081]],[[84689,22975],[-563,-1279],[-560,-745]],[[83566,20951],[-1215,-1045],[-1697,604]],[[80654,20510],[723,1598]],[[84689,22975],[382,85],[1399,-2062]],[[86470,20998],[575,-421],[-22,-552]],[[87023,20025],[-777,-2079]],[[86246,17946],[-210,-1013]],[[86036,16933],[-859,826],[-466,1014]],[[84711,18773],[-626,683],[-201,-216],[-318,1711]],[[92352,22888],[-144,-836]],[[92208,22052],[-509,637],[-773,-1405]],[[90926,21284],[-840,806]],[[90086,22090],[-1048,1125]],[[89038,23215],[-96,93]],[[89507,25265],[336,511]],[[89843,25776],[1521,-1530],[988,-1358]],[[90362,17172],[-928,1145]],[[89434,18317],[149,605],[1178,1726],[165,636]],[[92208,22052],[588,-692],[20,-444]],[[92816,20916],[-1467,-1924],[-987,-1820]],[[89434,18317],[-994,339],[-460,406]],[[87980,19062],[947,1603],[505,161],[654,1264]],[[87980,19062],[-957,963]],[[86470,20998],[433,386],[1180,271],[955,1560]],[[89434,18317],[-463,-371],[-883,-1530]],[[88088,16416],[-1842,1530]],[[88494,9614],[695,891]],[[89189,10505],[1506,-1092]],[[90695,9413],[-157,-511],[345,-1043],[-634,-1627]],[[90249,6232],[-428,-923],[-369,53]],[[89452,5362],[-1310,1297],[-336,969],[149,894],[539,1092]],[[88494,9614],[-793,456]],[[87701,10070],[-848,1311],[-55,450]],[[86798,11831],[753,888]],[[87551,12719],[449,1179]],[[88000,13898],[1392,-1565]],[[89392,12333],[-290,-1209],[87,-619]],[[87551,12719],[-1674,1454],[146,418],[-104,1285]],[[85919,15876],[117,1057]],[[88088,16416],[34,-1183],[201,-318],[-323,-1017]],[[85919,15876],[-857,-386]],[[85062,15490],[-341,491],[-1084,850]],[[83637,16831],[-284,446],[634,1157],[411,-158],[313,497]],[[83637,16831],[-742,-1242]],[[82895,15589],[-728,120],[-612,610],[-435,1134]],[[81120,17453],[470,668],[-392,952],[123,687],[-786,371]],[[80535,20131],[119,379]],[[81120,17453],[-708,-1163],[-940,-914],[-532,421]],[[78940,15797],[569,1431],[423,1600],[167,-26],[436,1329]],[[78940,15797],[-1052,1036],[235,549],[-186,909],[-292,-628],[-695,1174],[-1078,537]],[[78940,15797],[-190,-643],[-360,275],[-617,-1566],[188,-496]],[[77961,13367],[147,-631],[-342,-797]],[[77766,11939],[-547,502],[-2925,1054]],[[74294,13495],[710,2959],[398,90],[-565,1122]],[[85062,15490],[-872,-1168]],[[84190,14322],[-313,-321],[-911,207]],[[82966,14208],[-375,485],[304,896]],[[86798,11831],[-606,-383],[-1836,1501],[71,1034],[-237,339]],[[81710,10517],[-449,426],[-235,-570],[-425,91],[-1318,1516],[-715,479],[-607,908]],[[82966,14208],[-520,-1402],[-36,-610],[-700,-1679]],[[74588,32864],[-321,222],[-284,926],[129,1022]],[[74002,32297],[-1493,3119],[-372,400],[109,926],[-519,313],[-497,1439]],[[71230,38494],[431,526],[324,-327],[952,-79]],[[69529,26932],[-489,94],[-862,1244],[-1117,356],[-2005,146],[-505,415],[277,1264],[-526,2010],[12,844],[663,625],[59,879]],[[65036,34809],[744,-465],[417,-578],[575,-198],[2189,-2553],[999,-2050]],[[68219,19471],[-715,11],[-2064,1060],[-1033,1659],[-3,418]],[[64404,22619],[1756,1489],[827,365],[1492,365],[423,-289]],[[68902,24549],[-421,-1694],[-262,-3384]],[[65036,34809],[-1209,1857],[-612,1408]],[[63215,38074],[1244,-765]],[[64459,37309],[710,-1647],[874,-926],[658,219],[1880,17],[872,-788],[1312,-876],[127,-523],[1071,-946],[916,-149]],[[64819,39636],[729,465],[225,1010],[536,470],[106,716]],[[66415,42297],[1074,-1668],[884,-195],[438,-605],[1465,-441],[954,-894]],[[64459,37309],[158,858],[-26,1393],[228,76]],[[64819,39636],[-950,1995],[-1188,394],[-507,719],[483,2599],[-529,1107],[-508,528]],[[63364,50235],[661,-1174],[788,-885],[559,-1662],[215,-1481]],[[65587,45033],[62,-663],[584,-274],[186,-593],[-4,-1206]],[[64275,51295],[1376,-760]],[[65651,50535],[1109,-537]],[[66760,49998],[-559,-1075],[-173,-809],[-5,-2067],[-436,-1014]],[[64586,53929],[849,1752],[881,-505],[160,-806],[-231,-1971],[-594,-1864]],[[74053,61592],[-317,-359]],[[73736,61233],[-709,605],[-1018,192],[-555,-522],[34,-479]],[[71488,61029],[-1078,849],[-796,888]],[[71684,66163],[1954,-1522]],[[77202,59049],[-127,-389],[-1024,-531],[-1141,-114],[-736,622],[-426,984]],[[73748,59621],[288,771],[-300,841]],[[73748,59621],[-153,-222]],[[73595,59399],[-1503,0],[-626,572]],[[71466,59971],[22,1058]],[[73595,59399],[121,-2363],[-201,-2029],[-424,-1595]],[[73091,53412],[-1018,908],[-1305,555],[-429,-929]],[[70339,53946],[-146,141],[401,1603],[-1542,748],[-25,1048],[-675,721],[594,1315],[666,660],[1579,-330],[275,119]],[[79124,49437],[-664,-3],[-1380,1245],[-1225,1445],[-1552,552],[-685,-266],[100,-744],[-380,-27]],[[73338,51639],[-301,970],[54,803]],[[73338,51639],[-523,-388],[-990,47]],[[71825,51298],[-1295,1483],[-191,1165]],[[71825,51298],[-1260,-1128],[-1340,-376],[-1900,741],[-565,-537]],[[79124,49437],[-494,-1553]],[[27972,23729],[-361,584]],[[61515,71679],[-39,-75]],[[7343,49700],[-1007,-2541]],[[4049,45206],[-1028,1404],[52,730],[-1178,795]],[[1895,48135],[438,1775],[-162,173],[993,2552],[1202,-298],[1172,-593],[1805,-2044]],[[3384,43339],[-1354,41],[-91,272]],[[1939,43652],[-538,1688],[-248,163],[742,2632]],[[5367,39257],[-1389,753],[-1635,1113]],[[2343,41123],[-724,660],[320,1869]],[[5404,36465],[-902,-634],[-768,-64],[-825,464],[-1132,-163],[-1087,213]],[[690,36281],[449,2091],[1204,2751]],[[3766,34163],[-306,-1880],[-206,14],[-445,-1851],[-2236,829],[-573,467],[44,1198],[490,2511]],[[534,35451],[86,-359],[722,-219],[702,-569],[1112,-389],[610,248]],[[5281,34937],[-73,-741]],[[5208,34196],[-784,318],[-658,-351]],[[534,35451],[156,830]],[[5945,33305],[-737,891]],[[7769,32283],[-1137,134],[-636,418],[-51,470]],[[6204,28717],[-676,487]],[[5528,29204],[-201,436],[199,1904],[419,1761]],[[6104,24295],[91,266],[-1457,628]],[[4738,25189],[281,1802]],[[5019,26991],[595,-517],[1673,172],[736,-406]],[[5019,26991],[500,619],[-389,309],[398,1285]],[[6956,22073],[-351,-1805]],[[6605,20268],[-93,-523]],[[6512,19745],[-1879,485]],[[4633,20230],[-759,540],[445,1554],[419,2865]],[[6512,19745],[72,-435]],[[6584,19310],[-196,225],[-774,-1329],[-1062,914],[81,1110]],[[10188,18936],[-1242,-1145],[-529,62],[-173,-430],[-1660,1887]],[[6605,20268],[1676,-85],[1278,-412],[629,-835]],[[10587,19030],[-399,-94]],[[10915,20846],[-328,-1816]],[[14053,19909],[-34,-450],[-1104,-2386]],[[12915,17073],[-2328,1957]],[[15677,20192],[-206,-2228],[194,-1893],[-194,-867]],[[15471,15204],[-871,517],[-1685,1352]],[[18421,19424],[-776,-222],[-611,-610],[579,-576],[-180,-514],[-640,482],[-541,-1177],[-254,-1886]],[[15998,14921],[-527,283]],[[18490,17829],[-296,-1293],[-17,-1548],[-331,-821]],[[17846,14167],[-1848,754]],[[24051,18262],[281,-392],[-325,-806]],[[24007,17064],[-899,-672],[-1854,-1793],[-203,231],[-548,-575],[-811,-1834]],[[19692,12421],[-277,-108],[-1569,1854]],[[24589,16492],[51,-1504],[-340,-920],[-15,-812],[-548,-1761],[-1291,-3341],[-438,-888],[-442,415],[-1259,1828],[-233,978],[110,1347],[-492,587]],[[24007,17064],[582,-572]],[[26325,16687],[-189,138],[-475,-874],[-937,757],[-135,-216]],[[25534,20285],[681,-1498],[430,-552],[-320,-1548]],[[33332,12269],[-81,-333]],[[33251,11936],[-658,-368],[-1166,526],[-1327,1039],[-859,400],[-161,-353],[-689,-105],[-416,365],[-609,-1230],[-341,406],[289,561],[-720,791],[559,1981]],[[27153,15949],[218,64],[1520,-1028],[394,902],[90,3446],[784,2518]],[[27153,15949],[-828,738]],[[36674,16430],[-308,-2140],[-764,-1627],[-581,-2269],[-1770,1542]],[[34721,17663],[739,-587],[1214,-646]],[[38161,18790],[-133,172],[-921,-2441],[-433,-91]],[[36789,21938],[417,-765],[955,-2383]],[[40565,25443],[594,-453],[409,-1393],[33,-978],[915,-882],[771,312]],[[43287,22049],[566,-803],[-91,-1042],[289,-1174]],[[44051,19030],[-676,35],[-707,-1799],[-919,-1385],[-891,141],[-829,817],[-874,1163],[-994,788]],[[43287,22049],[277,1233],[664,1498]],[[44228,24780],[874,-1612],[-405,-1609],[-122,-1840],[-293,-832],[-231,143]],[[43065,26970],[868,-1235],[295,-955]],[[41224,27105],[200,137],[816,-616],[825,344]],[[42776,29733],[445,-1504],[-355,-1139],[199,-120]],[[42377,31520],[399,-1787]],[[47611,36716],[-943,-2319],[-1856,-4857],[-756,453],[-252,-672],[-811,873],[-217,-461]],[[52540,37788],[-8,-249]],[[52532,37539],[-244,21],[-272,-1233],[-630,-119],[62,-652],[-527,-683],[211,-464],[-466,-786],[-208,1192],[-171,-453],[-555,610],[-836,-549],[-482,757],[-296,-97],[-368,1592]],[[56727,37449],[31,1022],[-446,421],[-683,-617],[-284,1434],[-371,-1069],[-517,-78],[-443,-1361],[-355,359],[-880,-281],[-247,260]],[[57618,43690],[129,-2684],[-1020,-3557]],[[63215,38074],[-946,-786],[-2061,-2395],[-568,-987]],[[59640,33906],[-458,999],[-71,2360],[-441,-12],[-729,514],[-722,-593],[-492,275]],[[64404,22619],[-859,783],[-1148,-222]],[[62397,23180],[-286,1442],[-818,1685],[-71,2042],[-431,2213],[149,538],[-352,651],[-879,967],[-69,1188]],[[68219,19471],[1013,-2953],[265,-248],[-1126,102],[-1935,-114],[-629,304],[-901,2252],[-707,1200],[-309,1060],[-594,686],[-740,-93]],[[62556,21667],[-159,1513]],[[71882,6916],[-245,-1446],[-363,-990],[-1069,987],[-169,-456],[-635,468],[22,578],[-1057,970],[461,1615]],[[68827,8642],[293,-383],[1256,-143],[1506,-1200]],[[73632,10990],[162,-310],[-884,-1647]],[[72910,9033],[-399,-619]],[[72511,8414],[-281,485],[-906,362],[-204,1492],[-465,365],[59,686],[2091,12],[827,-826]],[[77766,11939],[-33,-911],[385,-684],[-314,-1206],[-697,-1448]],[[77107,7690],[-585,633],[-556,-230],[-559,-1773],[-389,-213],[-162,756],[-1118,716],[54,306],[-882,1148]],[[73632,10990],[400,1083],[262,1422]],[[81710,10517],[213,-1072],[-389,-570],[-72,-1077]],[[81462,7798],[-548,-351],[-661,-1186],[-184,222],[-463,-914],[-778,389],[-281,-176],[-1572,1420],[132,488]],[[87701,10070],[-837,-1025],[-858,-357],[-634,330],[-533,-125],[-958,-871],[-965,-233],[-124,-351]],[[82792,7438],[-955,552],[-375,-192]],[[89452,5362],[-434,-1630],[979,-540]],[[89997,3192],[-174,-555],[-1008,-1440],[-652,-1197],[-939,1644],[-128,1531],[-871,978],[-1252,1148],[-572,-181],[-461,452],[-1148,1866]],[[92561,6848],[1035,-928],[-286,-932],[-24,-870],[-595,-888],[-1159,-429],[-529,639],[-388,-619],[-618,371]],[[90249,6232],[513,-523],[645,287],[787,975],[367,-123]],[[90695,9413],[904,940]],[[91599,10353],[1623,-1612],[-661,-1893]],[[92191,13419],[198,-569],[-480,-1121],[-310,-1376]],[[89392,12333],[360,1522],[727,391],[745,0],[967,-827]],[[90362,17172],[1163,-1305],[2099,-228],[149,-459]],[[93773,15180],[-1582,-1761]],[[95352,18387],[-149,-1437],[-426,-1112],[-199,-1072],[-805,414]],[[92816,20916],[1432,-1326],[1104,-1203]],[[93055,26410],[93,-1431],[-411,-517],[-385,-1574]],[[89843,25776],[1663,2719]],[[91506,28495],[1549,-2085]],[[86839,27633],[507,1782],[53,1223],[309,1058]],[[87708,31696],[1753,-900],[561,-520],[1484,-1781]],[[83531,25314],[798,1046],[923,3142],[473,847],[367,1665],[409,1186]],[[86501,33200],[784,-529],[-81,-748],[504,-227]],[[85629,34473],[943,-572],[-71,-701]],[[79486,36929],[723,-55],[1596,-733],[1396,-1049],[1009,-552],[1419,-67]],[[84428,48713],[-60,-651],[365,-222],[111,-3131],[-263,-791],[86,-2658],[534,-3183],[304,-3408],[124,-196]],[[81563,49633],[1719,-1148],[1146,228]],[[84991,66443],[813,-196],[1353,-38]],[[87157,66209],[-156,-2313],[32,-1039],[496,-485],[514,-973],[52,-870],[507,-546],[-767,-2868],[-349,213],[-1173,-338],[-1088,-1058],[-252,-595],[-360,-2451],[458,-181],[-643,-3992]],[[81616,66157],[392,20],[226,-666],[900,447],[507,698],[355,-222],[694,412],[301,-403]],[[84991,66443],[474,1025],[563,94]],[[86028,67562],[520,-409],[609,-944]],[[80040,71931],[864,-1344],[578,-455],[1479,-713],[1222,204],[1143,-1550],[702,-511]],[[79031,76790],[679,-1001],[323,-3850]],[[7551,46277],[438,868]],[[7989,47145],[695,-511],[539,265],[773,-528]],[[7343,49700],[487,-663],[-299,-1276],[458,-616]],[[96936,25872],[333,-1194],[-125,-1352],[-582,-1256],[58,-2074],[385,-394]],[[97005,19602],[-637,-908],[-218,210],[-798,-517]],[[93055,26410],[503,791],[744,1977],[981,-1358],[1653,-1948]],[[96936,25872],[774,573],[2289,-2982],[-784,-2710],[-864,-178],[-1346,-973]],[[72511,8414],[-629,-1498]],[[68827,8642],[-35,2348],[211,1106],[-323,985],[-743,274],[-854,-70],[-1222,333],[-1057,-88],[-345,655],[-591,122],[-837,-216],[-443,713],[173,2768],[-246,1820],[41,2275]],[[16936,76980],[1358,-520]],[[24719,79623],[276,-321],[579,266]]],"transform":{"scale":[5.9156591565915784e-06,3.424134241342388e-06],"translate":[76.65031,28.199]},"objects":{"villages":{"type":"GeometryCollection","geometries":[{"arcs":[[0,1,2]],"type":"Polygon","properties":{"n":"Tethar(223)","c":62943,"d":"Gurugram","s":"HARYANA"}},{"arcs":[[3,4,5,6,7,8]],"type":"Polygon","properties":{"n":"Chakarpur","c":934172,"d":"Gurugram","s":"HARYANA"}},{"arcs":[[9,-9,10,11]],"type":"Polygon","properties":{"n":"Sikanderpur ghosi","c":934231,"d":"Gurugram","s":"HARYANA"}},{"arcs":[[-12,12,13,14]],"type":"Polygon","properties":{"n":"Nathupur","c":934208,"d":"Gurugram","s":"HARYANA"}},{"arcs":[[-14,15,16,17]],"type":"Polygon","properties":{"n":"Dundaheri (104)","c":63146,"d":"Gurugram","s":"HARYANA"}},{"arcs":[[-17,18,19,20,21,22]],"type":"Polygon","properties":{"n":"KARPATPURI","c":0,"d":"Gurugram","s":"HARYANA"}},{"arcs":[[23,24,25,26]],"type":"Polygon","properties":{"n":"JHAJNAGAR","c":0,"d":"Gurugram","s":"HARYANA"}},{"arcs":[[-22,27,-27,28,29,30,31]],"type":"Polygon","properties":{"n":"CHAUMUHA","c":0,"d":"Gurugram","s":"HARYANA"}},{"arcs":[[-31,32]],"type":"Polygon","properties":{"n":"Bajghera(61)","c":62813,"d":"Gurugram","s":"HARYANA"}},{"arcs":[[-29,-26,33,34,35,36]],"type":"Polygon","properties":{"n":"Babupur(60)","c":62812,"d":"Gurugram","s":"HARYANA"}},{"arcs":[[-36,37,38,39]],"type":"Polygon","properties":{"n":"Dharampur(59)","c":62810,"d":"Gurugram","s":"HARYANA"}},{"arcs":[[40,-34,-25,41,42,43,44,45,46,47,-39]],"type":"Polygon","properties":{"n":"Daultabad (OG)","c":645584,"d":"Gurugram","s":"HARYANA"}},{"arcs":[[-47,48,49,50,51]],"type":"Polygon","properties":{"n":"Kharki Majra Dhankot(52)","c":62817,"d":"Gurugram","s":"HARYANA"}},{"arcs":[[-51,52,53,54,55,56]],"type":"Polygon","properties":{"n":"Dhankot(49) Part","c":62818,"d":"Gurugram","s":"HARYANA"}},{"arcs":[[-56,57,58,59,60,61]],"type":"Polygon","properties":{"n":"Budhera(43)","c":62808,"d":"Gurugram","s":"HARYANA"}},{"arcs":[[-61,62,63,64]],"type":"Polygon","properties":{"n":"Mankrola(42)","c":62809,"d":"Gurugram","s":"HARYANA"}},{"arcs":[[-64,65,66,67,68]],"type":"Polygon","properties":{"n":"Iqbalpur(40)","c":62888,"d":"Gurugram","s":"HARYANA"}},{"arcs":[[-68,69,70,71]],"type":"Polygon","properties":{"n":"Jhanjrola(38)","c":62887,"d":"Gurugram","s":"HARYANA"}},{"arcs":[[-71,72,73,74,75]],"type":"Polygon","properties":{"n":"Mubarikpur(37)","c":62885,"d":"Gurugram","s":"HARYANA"}},{"arcs":[[76,77,78,79,-75]],"type":"Polygon","properties":{"n":"BASHIRPUR RF","c":0,"d":"Gurugram","s":"HARYANA"}},{"arcs":[[80,81,82,83,84,85,86]],"type":"Polygon","properties":{"n":"Khurmpur(8)","c":62874,"d":"Gurugram","s":"HARYANA"}},{"arcs":[[-86,87,88]],"type":"Polygon","properties":{"n":"Hari Nagar  (7)","c":62883,"d":"Gurugram","s":"HARYANA"}},{"arcs":[[89,90,91,92,93,94]],"type":"Polygon","properties":{"n":"Jaraun(2)","c":62881,"d":"Gurugram","s":"HARYANA"}},{"arcs":[[-94,95]],"type":"Polygon","properties":{"n":"Siwari(1)","c":62880,"d":"Gurugram","s":"HARYANA"}},{"arcs":[[96,97,98,-92]],"type":"Polygon","properties":{"n":"Shekhupur Majri(3)","c":62879,"d":"Gurugram","s":"HARYANA"}},{"arcs":[[99,100,101,102,103,-98]],"type":"Polygon","properties":{"n":"Gugana(4)","c":62855,"d":"Gurugram","s":"HARYANA"}},{"arcs":[[104,105,106,107,-103]],"type":"Polygon","properties":{"n":"Karola(14)","c":62854,"d":"Gurugram","s":"HARYANA"}},{"arcs":[[108,109,110,-107]],"type":"Polygon","properties":{"n":"Faredpur(15)","c":62853,"d":"Gurugram","s":"HARYANA"}},{"arcs":[[111,112,113,114,115,116,117,118,119,120,-110,121]],"type":"Polygon","properties":{"n":"Hailey Mandi (MC)","c":800427,"d":"Gurugram","s":"HARYANA"}},{"arcs":[[-120,122,123,124,125,126]],"type":"Polygon","properties":{"n":"Rajpura(8)","c":62750,"d":"Gurugram","s":"HARYANA"}},{"arcs":[[-35,-41,-38]],"type":"Polygon","properties":{"n":"Mohmadheri(58)","c":62811,"d":"Gurugram","s":"HARYANA"}},{"arcs":[[-28,-21,127,128,129,-42,-24]],"type":"Polygon","properties":{"n":"ASHOK VIHAR","c":0,"d":"Gurugram","s":"HARYANA"}},{"arcs":[[-128,-20,130,131]],"type":"Polygon","properties":{"n":"SUSHATLOK","c":0,"d":"Gurugram","s":"HARYANA"}},{"arcs":[[-131,-19,-16,-13,-11,-8,132]],"type":"Polygon","properties":{"n":"MULLAHERA","c":0,"d":"Gurugram","s":"HARYANA"}},{"arcs":[[133,134,135,136,-6]],"type":"Polygon","properties":{"n":"KANHAI KADIPUR","c":0,"d":"Gurugram","s":"HARYANA"}},{"arcs":[[137,138,-129,-132,-133,-7,-137]],"type":"Polygon","properties":{"n":"SUSHATLOK","c":0,"d":"Gurugram","s":"HARYANA"}},{"arcs":[[-130,-139,139,140,141,142,143,144,-43]],"type":"Polygon","properties":{"n":"Gurgaon (M Corp.)","c":800429,"d":"Gurugram","s":"HARYANA"}},{"arcs":[[-138,-136,145,146,147,148,149,150,-140]],"type":"Polygon","properties":{"n":"Gurgaon (M Corp. + OG)","c":800429,"d":"Gurugram","s":"HARYANA"}},{"arcs":[[-135,151,152,-146]],"type":"Polygon","properties":{"n":"Bindapur","c":934114,"d":"Gurugram","s":"HARYANA"}},{"arcs":[[153,154,155,-147,-153]],"type":"Polygon","properties":{"n":"Samaspur","c":934159,"d":"Gurugram","s":"HARYANA"}},{"arcs":[[156,157,158,159,-148,-156]],"type":"Polygon","properties":{"n":"Adampur(90)","c":62814,"d":"Gurugram","s":"HARYANA"}},{"arcs":[[160,161,162,-149,-160]],"type":"Polygon","properties":{"n":"Fatehpur","c":934119,"d":"Gurugram","s":"HARYANA"}},{"arcs":[[-159,163,164,165,-161]],"type":"Polygon","properties":{"n":"Ghasula(88)  Part","c":62815,"d":"Gurugram","s":"HARYANA"}},{"arcs":[[166,167,168,-150,-163]],"type":"Polygon","properties":{"n":"Islampur","c":934147,"d":"Gurugram","s":"HARYANA"}},{"arcs":[[-162,-166,169,170,171,-167]],"type":"Polygon","properties":{"n":"Tikari","c":934153,"d":"Gurugram","s":"HARYANA"}},{"arcs":[[172,173,174,-171]],"type":"Polygon","properties":{"n":"BAHRAMPUR","c":0,"d":"Gurugram","s":"HARYANA"}},{"arcs":[[-170,-165,175,176,-173]],"type":"Polygon","properties":{"n":"Fazilpur jharsa","c":934142,"d":"Gurugram","s":"HARYANA"}},{"arcs":[[177,178,179,-168,-172,-175,180,181,182]],"type":"Polygon","properties":{"n":"Khandsha","c":934258,"d":"Gurugram","s":"HARYANA"}},{"arcs":[[183,184,185,186,187,188,189]],"type":"Polygon","properties":{"n":"Sihi","c":934279,"d":"Gurugram","s":"HARYANA"}},{"arcs":[[-183,190,191,-190,192,193]],"type":"Polygon","properties":{"n":"MUHAMMADPU JHARSA","c":0,"d":"Gurugram","s":"HARYANA"}},{"arcs":[[-182,194,195,-191]],"type":"Polygon","properties":{"n":"Narsinghpur","c":934266,"d":"Gurugram","s":"HARYANA"}},{"arcs":[[-181,-174,-177,196,197,-195]],"type":"Polygon","properties":{"n":"Begampur khatola","c":934241,"d":"Gurugram","s":"HARYANA"}},{"arcs":[[198,199,200,201,-184,-192,-196,-198]],"type":"Polygon","properties":{"n":"KHERI DAULA","c":0,"d":"Gurugram","s":"HARYANA"}},{"arcs":[[202,203,204,-200]],"type":"Polygon","properties":{"n":"Darbaripur(162)","c":62920,"d":"Gurugram","s":"HARYANA"}},{"arcs":[[205,206,207,208,209,210,-204]],"type":"Polygon","properties":{"n":"Palra(164)","c":62833,"d":"Gurugram","s":"HARYANA"}},{"arcs":[[211,212,-201,-205,-211]],"type":"Polygon","properties":{"n":"Hassanpur(163)","c":62919,"d":"Gurugram","s":"HARYANA"}},{"arcs":[[-210,213,214,215,216,-212]],"type":"Polygon","properties":{"n":"Sakatpur(159)","c":62918,"d":"Gurugram","s":"HARYANA"}},{"arcs":[[217,-185,-202,-213,-217,218,219]],"type":"Polygon","properties":{"n":"Shikohpur(160)","c":62921,"d":"Gurugram","s":"HARYANA"}},{"arcs":[[220,221,-186,-218]],"type":"Polygon","properties":{"n":"Sikanderpur Badha(109)","c":62909,"d":"Gurugram","s":"HARYANA"}},{"arcs":[[222,223,224,-187,-222]],"type":"Polygon","properties":{"n":"Badha(113)","c":62908,"d":"Gurugram","s":"HARYANA"}},{"arcs":[[225,226,227,228,-188,-225]],"type":"Polygon","properties":{"n":"Hayatpur(114)","c":62828,"d":"Gurugram","s":"HARYANA"}},{"arcs":[[229,230,-193,-189,-229,231,232,233]],"type":"Polygon","properties":{"n":"Harsaru(107) Part","c":62820,"d":"Gurugram","s":"HARYANA"}},{"arcs":[[234,235,-178,-194,-231,236]],"type":"Polygon","properties":{"n":"Garauli khurd","c":934253,"d":"Gurugram","s":"HARYANA"}},{"arcs":[[-230,237,-54,238,-237]],"type":"Polygon","properties":{"n":"Garauli kalan","c":934250,"d":"Gurugram","s":"HARYANA"}},{"arcs":[[-53,-50,239,-143,240,-235,-239]],"type":"Polygon","properties":{"n":"BASAI","c":0,"d":"Gurugram","s":"HARYANA"}},{"arcs":[[241,242,-44,-145]],"type":"Polygon","properties":{"n":"Tikampur(54)","c":62816,"d":"Gurugram","s":"HARYANA"}},{"arcs":[[243,-45,-243]],"type":"Polygon","properties":{"n":"Tikampur(54)","c":62816,"d":"Gurugram","s":"HARYANA"}},{"arcs":[[-242,-144,-240,-49,-46,-244]],"type":"Polygon","properties":{"n":"Dhanwapur","c":934249,"d":"Gurugram","s":"HARYANA"}},{"arcs":[[-66,-63,-60,244,245]],"type":"Polygon","properties":{"n":"Kaliawas(41)","c":62889,"d":"Gurugram","s":"HARYANA"}},{"arcs":[[-67,-246,246,247,248,249,-73,-70]],"type":"Polygon","properties":{"n":"Sultanpur(39)","c":62886,"d":"Gurugram","s":"HARYANA"}},{"arcs":[[250,-78]],"type":"Polygon","properties":{"n":"SIR BASHIRPUR","c":0,"d":"Gurugram","s":"HARYANA"}},{"arcs":[[251,252,253,-247,-245,-59]],"type":"Polygon","properties":{"n":"CHANDLI","c":0,"d":"Gurugram","s":"HARYANA"}},{"arcs":[[254,255,256,257,-248,-254]],"type":"Polygon","properties":{"n":"Sadhrana(45)","c":62822,"d":"Gurugram","s":"HARYANA"}},{"arcs":[[258,-252,-58,-55,-238,-234]],"type":"Polygon","properties":{"n":"Gopalpur(47) Part","c":62819,"d":"Gurugram","s":"HARYANA"}},{"arcs":[[-233,259,-255,-253,-259]],"type":"Polygon","properties":{"n":"Garhi Harsaru (46) (CT)","c":62837,"d":"Gurugram","s":"HARYANA"}},{"arcs":[[260,261,262,263,-257]],"type":"Polygon","properties":{"n":"Hamirpur(116)","c":62823,"d":"Gurugram","s":"HARYANA"}},{"arcs":[[-256,-260,-232,-228,264,265,266,-261]],"type":"Polygon","properties":{"n":"Wazirpur(115)","c":62824,"d":"Gurugram","s":"HARYANA"}},{"arcs":[[267,268,269,-249,-258,-264]],"type":"Polygon","properties":{"n":"Sayyad Mohamadpur (117)","c":62871,"d":"Gurugram","s":"HARYANA"}},{"arcs":[[-263,270,271,-268]],"type":"Polygon","properties":{"n":"Khetawas(118)","c":62870,"d":"Gurugram","s":"HARYANA"}},{"arcs":[[-262,-267,272,273,274,275,-271]],"type":"Polygon","properties":{"n":"Dhanawas(119)","c":62869,"d":"Gurugram","s":"HARYANA"}},{"arcs":[[-266,276,277,-273]],"type":"Polygon","properties":{"n":"Dhorka(120)","c":62825,"d":"Gurugram","s":"HARYANA"}},{"arcs":[[-265,-227,278,279,280,-277]],"type":"Polygon","properties":{"n":"Meoka(121)","c":62826,"d":"Gurugram","s":"HARYANA"}},{"arcs":[[-226,-224,281,282,283,-279]],"type":"Polygon","properties":{"n":"Nawada Fatehpur(112)","c":62907,"d":"Gurugram","s":"HARYANA"}},{"arcs":[[284,285,-282,-223,-221,-220,286]],"type":"Polygon","properties":{"n":"Lakhnola(110)","c":62910,"d":"Gurugram","s":"HARYANA"}},{"arcs":[[-219,-216,287,288,289,-287]],"type":"Polygon","properties":{"n":"Navrangpur(157)","c":62917,"d":"Gurugram","s":"HARYANA"}},{"arcs":[[-290,290,291,292,293,294,295,296,297,-285]],"type":"Polygon","properties":{"n":"Manesar (154) (CT)","c":62924,"d":"Gurugram","s":"HARYANA"}},{"arcs":[[298,299,300,-283,-286,-298]],"type":"Polygon","properties":{"n":"Naharpur Kasan (111)","c":62911,"d":"Gurugram","s":"HARYANA"}},{"arcs":[[301,302,303,-280,-284,-301]],"type":"Polygon","properties":{"n":"Kankrola(128)","c":62827,"d":"Gurugram","s":"HARYANA"}},{"arcs":[[304,305,306,-274,-278,-281,-304]],"type":"Polygon","properties":{"n":"Bhang Rola(122)","c":62807,"d":"Gurugram","s":"HARYANA"}},{"arcs":[[307,308,309,-275,-307]],"type":"Polygon","properties":{"n":"Jhund Sarai Abad(124)","c":62867,"d":"Gurugram","s":"HARYANA"}},{"arcs":[[310,311,312,-269,-272,-276,-310]],"type":"Polygon","properties":{"n":"Patli Hajipur(34)","c":62872,"d":"Gurugram","s":"HARYANA"}},{"arcs":[[313,314,-312]],"type":"Polygon","properties":{"n":"Jarola(32)","c":62865,"d":"Gurugram","s":"HARYANA"}},{"arcs":[[-311,-309,315,316,317,318,319,320,-314]],"type":"Polygon","properties":{"n":"Babra Bakipur(33)","c":62866,"d":"Gurugram","s":"HARYANA"}},{"arcs":[[321,-316,-308,-306,322]],"type":"Polygon","properties":{"n":"Basharia(125)","c":62805,"d":"Gurugram","s":"HARYANA"}},{"arcs":[[323,-323,-305,-303,324]],"type":"Polygon","properties":{"n":"Baskushla(127)","c":62806,"d":"Gurugram","s":"HARYANA"}},{"arcs":[[-299,-297,325,326]],"type":"Polygon","properties":{"n":"Khoh(153)","c":62913,"d":"Gurugram","s":"HARYANA"}},{"arcs":[[-296,327,328,-326]],"type":"Polygon","properties":{"n":"Sehrawan(152)","c":62914,"d":"Gurugram","s":"HARYANA"}},{"arcs":[[-295,329,330,331,332,-328]],"type":"Polygon","properties":{"n":"Kukrola(151)","c":62906,"d":"Gurugram","s":"HARYANA"}},{"arcs":[[333,334,-331,335,336]],"type":"Polygon","properties":{"n":"Fazalwas(149)","c":62905,"d":"Gurugram","s":"HARYANA"}},{"arcs":[[337,338,339,340,-332,-335]],"type":"Polygon","properties":{"n":"Fakharpur(133)","c":62840,"d":"Gurugram","s":"HARYANA"}},{"arcs":[[341,-338,-334,342,343]],"type":"Polygon","properties":{"n":"Binola(147)","c":62902,"d":"Gurugram","s":"HARYANA"}},{"arcs":[[344,-340,345,346,347]],"type":"Polygon","properties":{"n":"Mokalwas(132)","c":62841,"d":"Gurugram","s":"HARYANA"}},{"arcs":[[348,349,350,351,-347]],"type":"Polygon","properties":{"n":"Tatarpur(27)","c":62842,"d":"Gurugram","s":"HARYANA"}},{"arcs":[[352,353,354,-348,-352]],"type":"Polygon","properties":{"n":"Kharkhari(131)","c":62843,"d":"Gurugram","s":"HARYANA"}},{"arcs":[[355,-317,-322,-324]],"type":"Polygon","properties":{"n":"Dhana(126)","c":62804,"d":"Gurugram","s":"HARYANA"}},{"arcs":[[356,-318,-356,-325,-302,-300,-327,-329,-333,-341,-345,-355,357]],"type":"Polygon","properties":{"n":"Kasan (129)","c":62912,"d":"Gurugram","s":"HARYANA"}},{"arcs":[[-354,358,359,-358]],"type":"Polygon","properties":{"n":"Baslambi(130)","c":62844,"d":"Gurugram","s":"HARYANA"}},{"arcs":[[360,361,-319,-357,-360]],"type":"Polygon","properties":{"n":"Khawaspur(29)","c":62864,"d":"Gurugram","s":"HARYANA"}},{"arcs":[[362,363,364,365,-320,-362,366]],"type":"Polygon","properties":{"n":"Tajnagar(30)","c":62863,"d":"Gurugram","s":"HARYANA"}},{"arcs":[[367,368,-315,-321,-366]],"type":"Polygon","properties":{"n":"Fazalpur Badli(31)","c":62862,"d":"Gurugram","s":"HARYANA"}},{"arcs":[[-100,-97,-91,369,370]],"type":"Polygon","properties":{"n":"Bir Hera(5)","c":62878,"d":"Gurugram","s":"HARYANA"}},{"arcs":[[371,372,373,-101,-371]],"type":"Polygon","properties":{"n":"Palri(12)","c":62877,"d":"Gurugram","s":"HARYANA"}},{"arcs":[[-84,374,375,376]],"type":"Polygon","properties":{"n":"Garhi Nathekhan(9)","c":62876,"d":"Gurugram","s":"HARYANA"}},{"arcs":[[-83,377,378,379,-375]],"type":"Polygon","properties":{"n":"Daboda(10)","c":62875,"d":"Gurugram","s":"HARYANA"}},{"arcs":[[380,381,-379,382,383]],"type":"Polygon","properties":{"n":"Basonda(18)","c":62859,"d":"Gurugram","s":"HARYANA"}},{"arcs":[[384,385,386,-373,-376,-380,-382]],"type":"Polygon","properties":{"n":"Alimudinpur(11)","c":62857,"d":"Gurugram","s":"HARYANA"}},{"arcs":[[387,388,-385]],"type":"Polygon","properties":{"n":"GARI NATHE KHAN","c":0,"d":"Gurugram","s":"HARYANA"}},{"arcs":[[-102,-374,-387,389,-105]],"type":"Polygon","properties":{"n":"Rajpur(13)","c":62856,"d":"Gurugram","s":"HARYANA"}},{"arcs":[[-381,390,391,392,-388]],"type":"Polygon","properties":{"n":"BAKaNKA","c":0,"d":"Gurugram","s":"HARYANA"}},{"arcs":[[-384,393,394,395,-391]],"type":"Polygon","properties":{"n":"Tripari(20)","c":62860,"d":"Gurugram","s":"HARYANA"}},{"arcs":[[-368,-365,396,-394,-383,-378,-82,397]],"type":"Polygon","properties":{"n":"Joniawas(19)","c":62861,"d":"Gurugram","s":"HARYANA"}},{"arcs":[[-361,-359,-353,-351,398,399,-367]],"type":"Polygon","properties":{"n":"Jamalpur(28)","c":62845,"d":"Gurugram","s":"HARYANA"}},{"arcs":[[400,401,-363,-400,402]],"type":"Polygon","properties":{"n":"Sanpka(23)","c":62849,"d":"Gurugram","s":"HARYANA"}},{"arcs":[[-106,-390,-386,-389,-393,403,-122,-109]],"type":"Polygon","properties":{"n":"Mahchana(16)","c":62852,"d":"Gurugram","s":"HARYANA"}},{"arcs":[[404,405,406,-401,407]],"type":"Polygon","properties":{"n":"Jori(24)","c":62848,"d":"Gurugram","s":"HARYANA"}},{"arcs":[[408,-408,-403,-399,-350,409,410]],"type":"Polygon","properties":{"n":"Ghausgarh(26)","c":62846,"d":"Gurugram","s":"HARYANA"}},{"arcs":[[411,412,413,-405,-409]],"type":"Polygon","properties":{"n":"Janaula(25)","c":62847,"d":"Gurugram","s":"HARYANA"}},{"arcs":[[-395,-397,-364,-402,-407,414,415]],"type":"Polygon","properties":{"n":"Jatola(22)","c":62850,"d":"Gurugram","s":"HARYANA"}},{"arcs":[[416,-112,-404,-392,-396,-416]],"type":"Polygon","properties":{"n":"Khandevila(21)","c":62851,"d":"Gurugram","s":"HARYANA"}},{"arcs":[[417,418,419,420,421,422]],"type":"Polygon","properties":{"n":"Mangwaki(11)","c":62746,"d":"Gurugram","s":"HARYANA"}},{"arcs":[[-421,423,-125,424,425]],"type":"Polygon","properties":{"n":"Husainka(15)","c":62749,"d":"Gurugram","s":"HARYANA"}},{"arcs":[[426,427,-425,-124,428,429,430]],"type":"Polygon","properties":{"n":"Sherpur(16)","c":62752,"d":"Gurugram","s":"HARYANA"}},{"arcs":[[-123,-119,431,-429]],"type":"Polygon","properties":{"n":"Muzaphara Alias Mandpura(262)","c":62751,"d":"Gurugram","s":"HARYANA"}},{"arcs":[[-118,432,433,434,-430,-432]],"type":"Polygon","properties":{"n":"Shahpur Jat(263)","c":62759,"d":"Gurugram","s":"HARYANA"}},{"arcs":[[435,436,-117]],"type":"Polygon","properties":{"n":"Mirzapur(4)","c":62762,"d":"Gurugram","s":"HARYANA"}},{"arcs":[[437,438,439,-115]],"type":"Polygon","properties":{"n":"Mubarikpur(6)","c":62764,"d":"Gurugram","s":"HARYANA"}},{"arcs":[[440,441,442,443,-433,-437]],"type":"Polygon","properties":{"n":"Milakpur(3)","c":62761,"d":"Gurugram","s":"HARYANA"}},{"arcs":[[-436,-116,-440,444,-441]],"type":"Polygon","properties":{"n":"Dewlawas(5)","c":62763,"d":"Gurugram","s":"HARYANA"}},{"arcs":[[-439,445,446,447,-442,-445]],"type":"Polygon","properties":{"n":"Chhawan(2)","c":62765,"d":"Gurugram","s":"HARYANA"}},{"arcs":[[448,449,450,451,-431,-435]],"type":"Polygon","properties":{"n":"Haqdarpur(19)","c":62758,"d":"Gurugram","s":"HARYANA"}},{"arcs":[[452,453,454,455,456]],"type":"Polygon","properties":{"n":"Gadaipur(30)","c":62780,"d":"Gurugram","s":"HARYANA"}},{"arcs":[[457,-443,-448,458,-456]],"type":"Polygon","properties":{"n":"Ransika(31)","c":62766,"d":"Gurugram","s":"HARYANA"}},{"arcs":[[-455,459,460,-449,-434,-444,-458]],"type":"Polygon","properties":{"n":"Inchhapuri(264)","c":62760,"d":"Gurugram","s":"HARYANA"}},{"arcs":[[-454,461,462,463,-460]],"type":"Polygon","properties":{"n":"Pahari(265)","c":62768,"d":"Gurugram","s":"HARYANA"}},{"arcs":[[-457,-459,-447,464,465,466,467,468]],"type":"Polygon","properties":{"n":"Khor(32)","c":62767,"d":"Gurugram","s":"HARYANA"}},{"arcs":[[469,470,471,472,473,-465,-446,-438,-114,474,-413,475]],"type":"Polygon","properties":{"n":"Pataudi (MC)","c":800428,"d":"Gurugram","s":"HARYANA"}},{"arcs":[[-346,-339,-342,476,477,478,479,480,481,482,-410,-349]],"type":"Polygon","properties":{"n":"Bahora Kalan(134)","c":62839,"d":"Gurugram","s":"HARYANA"}},{"arcs":[[483,484,485,-476,-412,-411,-483]],"type":"Polygon","properties":{"n":"Narhera(44)","c":62803,"d":"Gurugram","s":"HARYANA"}},{"arcs":[[486,487,-484,-482]],"type":"Polygon","properties":{"n":"Uncha Majra(43)","c":62801,"d":"Gurugram","s":"HARYANA"}},{"arcs":[[488,489,490,491,-471,492,-485,-488]],"type":"Polygon","properties":{"n":"Bas Padamka (41)","c":62798,"d":"Gurugram","s":"HARYANA"}},{"arcs":[[-470,-486,-493]],"type":"Polygon","properties":{"n":"Bir Khurd(42)","c":62800,"d":"Gurugram","s":"HARYANA"}},{"arcs":[[493,494,-491,495]],"type":"Polygon","properties":{"n":"Turkapur(40)","c":62797,"d":"Gurugram","s":"HARYANA"}},{"arcs":[[496,497,498,-472,-492,-495,499,500]],"type":"Polygon","properties":{"n":"Mumtajpur(38)","c":62796,"d":"Gurugram","s":"HARYANA"}},{"arcs":[[501,-473,-499]],"type":"Polygon","properties":{"n":"Sapedar Nagar(37)","c":62799,"d":"Gurugram","s":"HARYANA"}},{"arcs":[[-498,502,503,-466,-474,-502]],"type":"Polygon","properties":{"n":"Hera Heri(36)","c":62794,"d":"Gurugram","s":"HARYANA"}},{"arcs":[[504,505,506,-501]],"type":"Polygon","properties":{"n":"Lohaka(39)","c":62795,"d":"Gurugram","s":"HARYANA"}},{"arcs":[[507,508,509,-467,-504]],"type":"Polygon","properties":{"n":"Khanpur(34)","c":62793,"d":"Gurugram","s":"HARYANA"}},{"arcs":[[-503,-497,-507,510,511,-508]],"type":"Polygon","properties":{"n":"Hansaka(35)","c":62790,"d":"Gurugram","s":"HARYANA"}},{"arcs":[[-506,512,513,514,515,-511]],"type":"Polygon","properties":{"n":"Lokra(289)","c":62789,"d":"Gurugram","s":"HARYANA"}},{"arcs":[[516,517,518,-514]],"type":"Polygon","properties":{"n":"Darapur(288)","c":62788,"d":"Gurugram","s":"HARYANA"}},{"arcs":[[-513,-505,-500,-494,519,520,521,-517]],"type":"Polygon","properties":{"n":"Bhun Karka(137)","c":62892,"d":"Gurugram","s":"HARYANA"}},{"arcs":[[-478,522,523,524,525]],"type":"Polygon","properties":{"n":"Rathiwas(140)","c":62895,"d":"Gurugram","s":"HARYANA"}},{"arcs":[[526,-523,-477,-344,527,528,529]],"type":"Polygon","properties":{"n":"Bilaspur(146)","c":62901,"d":"Gurugram","s":"HARYANA"}},{"arcs":[[530,531,532,533,-462,534]],"type":"Polygon","properties":{"n":"Bapas(266)","c":62771,"d":"Gurugram","s":"HARYANA"}},{"arcs":[[-453,-469,535,536,537,538,-535]],"type":"Polygon","properties":{"n":"Nanu Khurd(29)","c":62782,"d":"Gurugram","s":"HARYANA"}},{"arcs":[[-468,-510,539,-536]],"type":"Polygon","properties":{"n":"Goriawas(33)","c":62792,"d":"Gurugram","s":"HARYANA"}},{"arcs":[[540,541,-538,542,543]],"type":"Polygon","properties":{"n":"Daultabad(28)","c":62779,"d":"Gurugram","s":"HARYANA"}},{"arcs":[[544,545,546,-531,-539,-542]],"type":"Polygon","properties":{"n":"Balewa(271)","c":62777,"d":"Gurugram","s":"HARYANA"}},{"arcs":[[547,548,549,-543,-537,-540,-509,-512,-516,550]],"type":"Polygon","properties":{"n":"Nanukalan(27)","c":62791,"d":"Gurugram","s":"HARYANA"}},{"arcs":[[551,552,553,554]],"type":"Polygon","properties":{"n":"Gwal Pahari","c":934122,"d":"Gurugram","s":"HARYANA"}},{"arcs":[[555,556]],"type":"Polygon","properties":{"n":"Haidarpur Viran","c":934132,"d":"Gurugram","s":"HARYANA"}},{"arcs":[[-552,557,558,559,560,561,562,-556]],"type":"Polygon","properties":{"n":"Ghata (OG)","c":645585,"d":"Gurugram","s":"HARYANA"}},{"arcs":[[563,564,-558]],"type":"Polygon","properties":{"n":"Balola(78)","c":62926,"d":"Gurugram","s":"HARYANA"}},{"arcs":[[565,566,567,-560,568]],"type":"Polygon","properties":{"n":"BAHRAMPUR","c":0,"d":"Gurugram","s":"HARYANA"}},{"arcs":[[569,570,571]],"type":"Polygon","properties":{"n":"Rethoj(169)","c":62930,"d":"Gurugram","s":"HARYANA"}},{"arcs":[[572,573,574,-570]],"type":"Polygon","properties":{"n":"Sahjawas(170)","c":62931,"d":"Gurugram","s":"HARYANA"}},{"arcs":[[575,576,577,578,579,-574]],"type":"Polygon","properties":{"n":"Behlpa(171)","c":62933,"d":"Gurugram","s":"HARYANA"}},{"arcs":[[580,581,582,583,584,-577]],"type":"Polygon","properties":{"n":"Kherla(177)","c":62936,"d":"Gurugram","s":"HARYANA"}},{"arcs":[[585,586,587,588,589,590,591,-583,592]],"type":"Polygon","properties":{"n":"Abhepur(173)","c":62939,"d":"Gurugram","s":"HARYANA"}},{"arcs":[[593,594,595,596,-584,-592]],"type":"Polygon","properties":{"n":"Garhi Bazidpur(175)","c":62938,"d":"Gurugram","s":"HARYANA"}},{"arcs":[[597,598,-590]],"type":"Polygon","properties":{"n":"Siraska(193)","c":62976,"d":"Gurugram","s":"HARYANA"}},{"arcs":[[-589,599,600,-598]],"type":"Polygon","properties":{"n":"Lohatki(194)","c":62975,"d":"Gurugram","s":"HARYANA"}},{"arcs":[[601,602,603,604,-594,-591,-599]],"type":"Polygon","properties":{"n":"Berka(181)","c":62984,"d":"Gurugram","s":"HARYANA"}},{"arcs":[[605,606,607,608,-604]],"type":"Polygon","properties":{"n":"Dhunela(182)","c":62983,"d":"Gurugram","s":"HARYANA"}},{"arcs":[[-601,609,610,611,-602]],"type":"Polygon","properties":{"n":"Khaika(192)","c":62977,"d":"Gurugram","s":"HARYANA"}},{"arcs":[[612,613,-588]],"type":"Polygon","properties":{"n":"Jalalpur(195)","c":62940,"d":"Gurugram","s":"HARYANA"}},{"arcs":[[-587,614,615,616,617,-613]],"type":"Polygon","properties":{"n":"Khobri(196)","c":62941,"d":"Gurugram","s":"HARYANA"}},{"arcs":[[618,619,620,621,622,623,-616]],"type":"Polygon","properties":{"n":"Nimot (200)","c":62955,"d":"Gurugram","s":"HARYANA"}},{"arcs":[[624,625,626,627,628,-1,629,630]],"type":"Polygon","properties":{"n":"Kuliaka(219)","c":62945,"d":"Gurugram","s":"HARYANA"}},{"arcs":[[631,632,-626,633,634]],"type":"Polygon","properties":{"n":"Khatrika(213)","c":62951,"d":"Gurugram","s":"HARYANA"}},{"arcs":[[635,636,-627,-633]],"type":"Polygon","properties":{"n":"Bedhwaka(218)","c":62952,"d":"Gurugram","s":"HARYANA"}},{"arcs":[[637,-620,638,-628,-637]],"type":"Polygon","properties":{"n":"Satlaka(217)","c":62953,"d":"Gurugram","s":"HARYANA"}},{"arcs":[[-636,639,640,-621,-638]],"type":"Polygon","properties":{"n":"Rahaka(216)","c":62954,"d":"Gurugram","s":"HARYANA"}},{"arcs":[[641,642,643,644,645]],"type":"Polygon","properties":{"n":"Khuntpuri(209)","c":62962,"d":"Gurugram","s":"HARYANA"}},{"arcs":[[646,647,648,649,650,651,-642]],"type":"Polygon","properties":{"n":"Bhogpur(208)","c":62961,"d":"Gurugram","s":"HARYANA"}},{"arcs":[[652,653,-622,-641,654,-650]],"type":"Polygon","properties":{"n":"Ranika Singhola (215)","c":62958,"d":"Gurugram","s":"HARYANA"}},{"arcs":[[655,656,657,-623,-654]],"type":"Polygon","properties":{"n":"Isaka (201)","c":62956,"d":"Gurugram","s":"HARYANA"}},{"arcs":[[658,659,660,661,-617,-624,-658]],"type":"Polygon","properties":{"n":"Harchandpur (199)","c":62968,"d":"Gurugram","s":"HARYANA"}},{"arcs":[[662,663,-661]],"type":"Polygon","properties":{"n":"Kharoda (198)","c":62969,"d":"Gurugram","s":"HARYANA"}},{"arcs":[[664,-610,-600,-614,-618,-662,-664]],"type":"Polygon","properties":{"n":"Daula(197)","c":62974,"d":"Gurugram","s":"HARYANA"}},{"arcs":[[665,666,667,668,-611,-665]],"type":"Polygon","properties":{"n":"Baluda(191)","c":62973,"d":"Gurugram","s":"HARYANA"}},{"arcs":[[-657,669,670,671,-659]],"type":"Polygon","properties":{"n":"Chuharpur (203)","c":62967,"d":"Gurugram","s":"HARYANA"}},{"arcs":[[-656,-653,-649,672,-670]],"type":"Polygon","properties":{"n":"Tolni(202)","c":62957,"d":"Gurugram","s":"HARYANA"}},{"arcs":[[673,-666,-663,-660,-672,674]],"type":"Polygon","properties":{"n":"Nunera (204)","c":62970,"d":"Gurugram","s":"HARYANA"}},{"arcs":[[675,-578,-585]],"type":"Polygon","properties":{"n":"Pulawas(176)","c":62935,"d":"Gurugram","s":"HARYANA"}},{"arcs":[[-597,676,677,-579,-676]],"type":"Polygon","properties":{"n":"Mahendwara(178)","c":62934,"d":"Gurugram","s":"HARYANA"}},{"arcs":[[678,679,-608]],"type":"Polygon","properties":{"n":"Hariahera(183)","c":62986,"d":"Gurugram","s":"HARYANA"}},{"arcs":[[680,681,682]],"type":"Polygon","properties":{"n":"Mohammadpur Gujar (185)","c":62982,"d":"Gurugram","s":"HARYANA"}},{"arcs":[[683,684,685,-595,-605,-609,-680]],"type":"Polygon","properties":{"n":"Alipur(180)","c":62985,"d":"Gurugram","s":"HARYANA"}},{"arcs":[[686,687,-677,-596,-686,688]],"type":"Polygon","properties":{"n":"Ghamroj(179)","c":62988,"d":"Gurugram","s":"HARYANA"}},{"arcs":[[689,-214,-209,690,691,-687]],"type":"Polygon","properties":{"n":"Tikli(167)","c":62830,"d":"Gurugram","s":"HARYANA"}},{"arcs":[[-208,692,693,694,-691]],"type":"Polygon","properties":{"n":"Aklimpur(166)","c":62831,"d":"Gurugram","s":"HARYANA"}},{"arcs":[[-207,695,-693]],"type":"Polygon","properties":{"n":"Nurpur Jharsa(165)","c":62832,"d":"Gurugram","s":"HARYANA"}},{"arcs":[[696,697,698,-157,-155,699,-562]],"type":"Polygon","properties":{"n":"Tigra","c":934167,"d":"Gurugram","s":"HARYANA"}},{"arcs":[[-561,-568,700,701,-697]],"type":"Polygon","properties":{"n":"Ulhawas(83) Part","c":62928,"d":"Gurugram","s":"HARYANA"}},{"arcs":[[702,703,704,-698,-702]],"type":"Polygon","properties":{"n":"Nangli Umarpur(82) Part","c":62836,"d":"Gurugram","s":"HARYANA"}},{"arcs":[[705,706,707,-704]],"type":"Polygon","properties":{"n":"Medawas(85)","c":62835,"d":"Gurugram","s":"HARYANA"}},{"arcs":[[-703,-701,-567,708,709,-706]],"type":"Polygon","properties":{"n":"Kadarpur(84)","c":62929,"d":"Gurugram","s":"HARYANA"}},{"arcs":[[710,711,-707,-710]],"type":"Polygon","properties":{"n":"Dhumaspur(86)","c":62834,"d":"Gurugram","s":"HARYANA"}},{"arcs":[[712,-694,-696,-206,-203,-199,-197,-176,-164,-158,-699,-705,-708,-712]],"type":"Polygon","properties":{"n":"Badshahpur (87) (CT)","c":62838,"d":"Gurugram","s":"HARYANA"}},{"arcs":[[-711,-709,713,-571,-575,-580,-678,-688,-692,-695,-713]],"type":"Polygon","properties":{"n":"Bhondsi (168) (CT)","c":62989,"d":"Gurugram","s":"HARYANA"}},{"arcs":[[-415,-406,-414,-475,-113,-417]],"type":"Polygon","properties":{"n":"Rampur(45)","c":62802,"d":"Gurugram","s":"HARYANA"}},{"arcs":[[-489,-487,-481,714]],"type":"Polygon","properties":{"n":"Nurpur Bahora(135)","c":62890,"d":"Gurugram","s":"HARYANA"}},{"arcs":[[-179,-236,-241,-142,715]],"type":"Polygon","properties":{"n":"Kadipur","c":934256,"d":"Gurugram","s":"HARYANA"}},{"arcs":[[-141,-151,-169,-180,-716]],"type":"Polygon","properties":{"n":"HARINAGAR","c":0,"d":"Gurugram","s":"HARYANA"}},{"arcs":[[716,-418,717,718]],"type":"Polygon","properties":{"n":"Nurgarh(12)","c":62744,"d":"Gurugram","s":"HARYANA"}},{"arcs":[[-423,719,720,-718]],"type":"Polygon","properties":{"n":"Haliaki(13)","c":62745,"d":"Gurugram","s":"HARYANA"}},{"arcs":[[-422,-426,-428,721,722,-720]],"type":"Polygon","properties":{"n":"Chhilarki(14)","c":62753,"d":"Gurugram","s":"HARYANA"}},{"arcs":[[-427,-452,723,724,-722]],"type":"Polygon","properties":{"n":"Jasat(17)","c":62754,"d":"Gurugram","s":"HARYANA"}},{"arcs":[[725,726]],"type":"Polygon","properties":{"n":"Barheri Rehnwa(261)","c":62756,"d":"Gurugram","s":"HARYANA"}},{"arcs":[[727,728,-727,729,-724,-451]],"type":"Polygon","properties":{"n":"Brijpura(18)","c":62755,"d":"Gurugram","s":"HARYANA"}},{"arcs":[[730,-728,-450,-461,-464,731]],"type":"Polygon","properties":{"n":"Dadawas(20)","c":62757,"d":"Gurugram","s":"HARYANA"}},{"arcs":[[-463,-534,732,733,-732]],"type":"Polygon","properties":{"n":"Mozamabad (21)","c":62769,"d":"Gurugram","s":"HARYANA"}},{"arcs":[[-532,-547,734,735,736]],"type":"Polygon","properties":{"n":"Khetiawas(268)","c":62772,"d":"Gurugram","s":"HARYANA"}},{"arcs":[[-533,-737,737,-733]],"type":"Polygon","properties":{"n":"GARLI","c":0,"d":"Gurugram","s":"HARYANA"}},{"arcs":[[-546,738,739,740,741,-735]],"type":"Polygon","properties":{"n":"Khalilpur(272)","c":62773,"d":"Gurugram","s":"HARYANA"}},{"arcs":[[742,743,-741]],"type":"Polygon","properties":{"n":"Ghilnawas(273)","c":62774,"d":"Gurugram","s":"HARYANA"}},{"arcs":[[744,-743,-740,745]],"type":"Polygon","properties":{"n":"Mehaniawas(22)","c":62775,"d":"Gurugram","s":"HARYANA"}},{"arcs":[[746,-746,-739,-545,-541,747]],"type":"Polygon","properties":{"n":"Ahmdpur(270)","c":62776,"d":"Gurugram","s":"HARYANA"}},{"arcs":[[-550,748,749,-748,-544]],"type":"Polygon","properties":{"n":"Telpuri(23)","c":62781,"d":"Gurugram","s":"HARYANA"}},{"arcs":[[750,751,-749,-549]],"type":"Polygon","properties":{"n":"Said Shahpur(24)","c":62783,"d":"Gurugram","s":"HARYANA"}},{"arcs":[[752,753,-751,-548]],"type":"Polygon","properties":{"n":"Bastpur(25)","c":62784,"d":"Gurugram","s":"HARYANA"}},{"arcs":[[-519,754,755,-753,-551,-515]],"type":"Polygon","properties":{"n":"Lohchap(26)","c":62785,"d":"Gurugram","s":"HARYANA"}},{"arcs":[[756,757,758,-755,-518,-522]],"type":"Polygon","properties":{"n":"Lokri(287)","c":62786,"d":"Gurugram","s":"HARYANA"}},{"arcs":[[759,-758,760]],"type":"Polygon","properties":{"n":"Mao(297)","c":62787,"d":"Gurugram","s":"HARYANA"}},{"arcs":[[761,-761,-757,-521,762]],"type":"Polygon","properties":{"n":"Prasoli(138)","c":62893,"d":"Gurugram","s":"HARYANA"}},{"arcs":[[-526,763,764,765,-479]],"type":"Polygon","properties":{"n":"Sidhrawali(139)","c":62894,"d":"Gurugram","s":"HARYANA"}},{"arcs":[[-480,-766,766,-763,-520,-496,-490,-715]],"type":"Polygon","properties":{"n":"Bahora Khurd(136)","c":62891,"d":"Gurugram","s":"HARYANA"}},{"arcs":[[767,-764,-525,768]],"type":"Polygon","properties":{"n":"Danokri(141)","c":62896,"d":"Gurugram","s":"HARYANA"}},{"arcs":[[769,-769,-524,-527,770]],"type":"Polygon","properties":{"n":"Bhudka(142)","c":62897,"d":"Gurugram","s":"HARYANA"}},{"arcs":[[771,772,773,-771,-530]],"type":"Polygon","properties":{"n":"Pathrari(143)","c":62898,"d":"Gurugram","s":"HARYANA"}},{"arcs":[[-773,774,775]],"type":"Polygon","properties":{"n":"Udepuri(144)","c":62899,"d":"Gurugram","s":"HARYANA"}},{"arcs":[[776,-775,-772,-529,777]],"type":"Polygon","properties":{"n":"Langra(145)","c":62900,"d":"Gurugram","s":"HARYANA"}},{"arcs":[[778,-778,-528,-343,-337,779]],"type":"Polygon","properties":{"n":"Chandla Dungerwas(148)","c":62903,"d":"Gurugram","s":"HARYANA"}},{"arcs":[[780,-780,-336,-330,-294]],"type":"Polygon","properties":{"n":"Gwaliar(150)","c":62904,"d":"Gurugram","s":"HARYANA"}},{"arcs":[[781,782,-292]],"type":"Polygon","properties":{"n":"Nainwal(155)","c":62915,"d":"Gurugram","s":"HARYANA"}},{"arcs":[[783,-782,-291,-289,784]],"type":"Polygon","properties":{"n":"Bar Gujar(156)","c":62916,"d":"Gurugram","s":"HARYANA"}},{"arcs":[[-690,-689,-685,785,786,-785,-288,-215]],"type":"Polygon","properties":{"n":"Gairatpurbas(158)","c":62829,"d":"Gurugram","s":"HARYANA"}},{"arcs":[[-679,-607,-682,787,788,-786,-684]],"type":"Polygon","properties":{"n":"Raisena(184)","c":62987,"d":"Gurugram","s":"HARYANA"}},{"arcs":[[-681,789,790,-788]],"type":"Polygon","properties":{"n":"Sampki Nagli (186)","c":62981,"d":"Gurugram","s":"HARYANA"}},{"arcs":[[791,792]],"type":"Polygon","properties":{"n":"Raipur (188)","c":62980,"d":"Gurugram","s":"HARYANA"}},{"arcs":[[793,794,795]],"type":"Polygon","properties":{"n":"Zakupur (189)","c":62979,"d":"Gurugram","s":"HARYANA"}},{"arcs":[[796,797,-794,798,-668]],"type":"Polygon","properties":{"n":"Lakhuwas(190)","c":62972,"d":"Gurugram","s":"HARYANA"}},{"arcs":[[799,800,-797,-667,-674]],"type":"Polygon","properties":{"n":"Sancholi (205)","c":62971,"d":"Gurugram","s":"HARYANA"}},{"arcs":[[-648,801,802,-800,-675,-671,-673]],"type":"Polygon","properties":{"n":"Karnki (206)","c":62966,"d":"Gurugram","s":"HARYANA"}},{"arcs":[[-646,803,804,-802,-647]],"type":"Polygon","properties":{"n":"Silani(207)","c":62965,"d":"Gurugram","s":"HARYANA"}},{"arcs":[[805,-804,-645,806]],"type":"Polygon","properties":{"n":"Hajipur(15)","c":62964,"d":"Gurugram","s":"HARYANA"}},{"arcs":[[-807,-644,807,808]],"type":"Polygon","properties":{"n":"Ratika Noabad(210)","c":62963,"d":"Gurugram","s":"HARYANA"}},{"arcs":[[809,-808,-643,-652,810]],"type":"Polygon","properties":{"n":"Bilaka(211)","c":62960,"d":"Gurugram","s":"HARYANA"}},{"arcs":[[811,812,-811,-651,-655,-640,-632]],"type":"Polygon","properties":{"n":"Jolahaka(214)","c":62959,"d":"Gurugram","s":"HARYANA"}},{"arcs":[[813,-812,-635,814]],"type":"Polygon","properties":{"n":"Ghangola(212)","c":62950,"d":"Gurugram","s":"HARYANA"}},{"arcs":[[815,-631,816,817]],"type":"Polygon","properties":{"n":"Bai Khera (224)","c":62946,"d":"Gurugram","s":"HARYANA"}},{"arcs":[[-817,-630,-3,818,819]],"type":"Polygon","properties":{"n":"Badshahpur Tethar(222)","c":62947,"d":"Gurugram","s":"HARYANA"}},{"arcs":[[-819,-2,-629,-639,-619,-615,-586,820,821]],"type":"Polygon","properties":{"n":"Mandawar(221)","c":62942,"d":"Gurugram","s":"HARYANA"}},{"arcs":[[822,-821,-593,-582,823]],"type":"Polygon","properties":{"n":"Damdma(174)","c":62937,"d":"Gurugram","s":"HARYANA"}},{"arcs":[[824,-824,-581,-576,-573,-572,-714,-566,825]],"type":"Polygon","properties":{"n":"Rojka Gujar(172)","c":62932,"d":"Gurugram","s":"HARYANA"}},{"arcs":[[826,827,-826,-569,-559,-565,828]],"type":"Polygon","properties":{"n":"Bandhwari(79)","c":62927,"d":"Gurugram","s":"HARYANA"}},{"arcs":[[-827,829,830]],"type":"Polygon","properties":{"n":"GWAL PAHARI","c":0,"d":"Gurugram","s":"HARYANA"}},{"arcs":[[-830,-829,-564,-555,831]],"type":"Polygon","properties":{"n":"Gual Pahari(77) Part","c":62925,"d":"Gurugram","s":"HARYANA"}},{"arcs":[[832,-553,-557,-563,-700,-154,-152,-134,-5]],"type":"Polygon","properties":{"n":"Wazirabad","c":934175,"d":"Gurugram","s":"HARYANA"}},{"arcs":[[-126,-424,-420,833,834]],"type":"Polygon","properties":{"n":"Ghudana(9)","c":62748,"d":"Gurugram","s":"HARYANA"}},{"arcs":[[-834,-419,-717,835]],"type":"Polygon","properties":{"n":"LUHARI","c":0,"d":"Gurugram","s":"HARYANA"}},{"arcs":[[836,837,-815,-634,-625,-816,838]],"type":"Polygon","properties":{"n":"Saramathla(225)","c":62949,"d":"Gurugram","s":"HARYANA"}},{"arcs":[[-837,839]],"type":"Polygon","properties":{"n":"Loh Singhani(226)","c":62948,"d":"Gurugram","s":"HARYANA"}},{"arcs":[[-603,-612,-669,-799,-796,840,-793,841,-790,-683,-606]],"type":"Polygon","properties":{"n":"Sohna (MC)","c":800431,"d":"Gurugram","s":"HARYANA"}},{"arcs":[[-88,-85,-377,-372,-370,-90,842]],"type":"Polygon","properties":{"n":"Mushedpur(6)","c":62882,"d":"Gurugram","s":"HARYANA"}},{"arcs":[[-79,-251,-77,-74,-250,-270,-313,-369,-398,-81,843]],"type":"Polygon","properties":{"n":"Farrukhnagar (MC)","c":800430,"d":"Gurugram","s":"HARYANA"}}]}}}