{"type":"Topology","arcs":[[[82600,54197],[218,1469],[-541,213],[128,644],[489,235]],[[82894,56758],[262,-493],[611,-653],[197,-354],[-514,-426],[386,-325],[-14,-714],[358,15],[490,-666]],[[84670,53142],[-10,-316],[-610,75],[-404,590],[-687,319],[-359,387]],[[39562,30792],[508,32],[674,-393],[568,-85],[131,424]],[[41443,30770],[71,-841],[157,-688],[272,-361],[209,-1319]],[[42152,27561],[-216,-367],[-184,-734]],[[41752,26460],[-1003,-830],[-130,-229]],[[40619,25401],[-777,-618],[-691,120],[-885,-192],[-222,-214]],[[38044,24497],[-1102,130],[-291,-69]],[[36651,24558],[-265,329],[-123,1189],[-194,14],[-134,797],[-239,327],[-67,549],[-297,549]],[[35332,28312],[447,518],[594,12],[1,152],[1027,-30],[213,-121],[352,637],[436,481],[401,871],[759,-40]],[[32358,62494],[-138,54],[129,706],[-861,331],[-831,1098],[-22,969],[319,1316]],[[30954,66968],[964,161],[817,-563],[481,-568],[773,-1598],[443,-395],[416,6]],[[34848,64011],[-491,-286],[35,-1253],[-120,-234]],[[34272,62238],[-746,46],[-24,155],[-828,-41],[-316,96]],[[20783,58837],[-108,-51],[-1943,-42],[-112,-255],[-733,104]],[[17887,58593],[-372,505]],[[17515,59098],[260,844],[-266,974],[32,546],[-254,110],[-30,446],[151,571],[-178,1331],[99,313]],[[17329,64233],[65,99]],[[17394,64332],[279,298],[813,558],[627,172]],[[19113,65360],[280,-624],[390,-247],[302,-591],[646,-483],[80,-472]],[[20811,62943],[504,-757],[350,-204],[-146,-1484],[-347,-637],[-68,-390],[-321,-634]],[[15069,58315],[-190,-229],[-186,-731],[-355,-79],[-10,-398],[-240,-387],[-794,-1819],[-619,-325],[-377,-355],[4,-774]],[[12302,53218],[-658,-9],[-179,159],[-843,37],[-473,273],[-472,51]],[[9677,53729],[295,785],[-121,6],[-161,791],[-78,1055],[-132,397],[-735,1048],[-86,451]],[[8659,58262],[-189,199],[70,1506]],[[8540,59967],[265,555],[531,-147],[1038,-27],[335,-220],[839,-17],[135,-382],[915,258],[1126,-39],[775,-646],[-10,-467],[459,-145],[121,-375]],[[25726,21967],[0,-838],[-102,-19],[17,-921],[-144,-872]],[[25497,19317],[-386,-182],[-314,-1416],[-7,-527],[-217,-202],[-8,-1427]],[[24565,15563],[-313,-114],[-1006,-16],[-4,171],[-525,0],[-471,392],[-392,13]],[[21854,16009],[240,495],[-90,885],[199,2706],[-133,146],[83,1061],[256,600],[787,727],[46,265]],[[23242,22894],[1015,22],[666,-532],[803,-417]],[[20588,27919],[-533,-96],[-612,-484]],[[19443,27339],[-358,126],[-531,649],[-316,1196],[-129,3],[5,1218],[-151,-2],[144,923]],[[18107,31452],[-24,366]],[[18083,31818],[117,-128],[1903,315],[365,-26]],[[20468,31979],[3,-1463],[-59,3],[30,-2296],[146,-304]],[[23114,27041],[105,-141],[-2,-997],[331,-417],[-9,-1030],[-231,-788]],[[23308,23668],[-66,229],[-1244,-40],[-62,169],[-738,-9],[-640,288],[-715,26],[-929,503]],[[18914,24834],[251,492],[-23,610],[301,1403]],[[20588,27919],[302,149],[713,-450],[243,-443],[647,-207],[621,73]],[[12302,53218],[226,-551],[576,-455],[332,-405]],[[13436,51807],[265,-865],[512,-1039],[301,-901],[213,-943],[379,-666],[32,-446],[317,-807]],[[15455,46140],[-255,-389],[-553,-213],[-637,-1096],[-1105,-576],[-367,-372],[-280,-63],[-48,-408],[-501,-413],[-851,-295]],[[10858,42315],[-134,614],[-152,72],[4,1097],[-237,545],[10,682],[200,310],[9,918],[-558,256],[-9,554],[-402,643],[80,1630],[200,769],[-207,391],[-81,1096],[-257,701]],[[9324,52593],[353,724],[0,412]],[[19724,51742],[-326,260],[-442,91],[-307,302],[-1388,-50],[-248,-330],[-530,172],[-1126,158],[-253,486],[-272,133],[-744,-70],[-103,-521],[-351,-521],[-198,-45]],[[15069,58315],[1982,363],[464,420]],[[17887,58593],[-145,-107],[-157,-1623],[78,2],[-10,-1774],[166,-83],[157,-1348],[137,-522],[443,-282],[472,13],[126,-395],[473,-91]],[[19627,52383],[97,-641]],[[20783,58837],[171,-776],[302,-386],[44,-809],[186,-496]],[[21486,56370],[-270,-86],[28,-681],[-372,-34],[-102,-935],[-297,-28],[-129,-405],[-7,-857],[-257,-14],[-103,-539],[222,-472]],[[20199,52319],[-572,64]],[[21486,56370],[161,-462],[425,-208]],[[22072,55700],[-276,-278],[24,-477],[686,85],[240,-137],[-149,-621],[93,-520],[284,-69],[318,-528],[-227,-13],[10,-1128],[154,-294]],[[23229,51720],[-278,374],[-1430,-29],[-492,403],[-830,-149]],[[25143,54502],[161,-171],[-11,-769],[264,-898],[319,-339],[-55,-510]],[[25821,51815],[-675,94],[-1289,-381]],[[23857,51528],[-628,192]],[[22072,55700],[471,-169],[1079,-700],[753,-21],[212,-328],[556,20]],[[23857,51528],[-23,-572],[327,-445],[-192,-401],[22,-660],[-155,-886],[145,-521]],[[23981,48043],[-523,-329],[-537,-4],[-142,-254],[-485,-140],[-618,3],[-95,-180],[-524,-5]],[[21057,47134],[-20,319],[-569,1423],[-111,572],[-231,356],[-117,716],[-150,111],[-135,1111]],[[34322,57280],[-58,-239],[170,-1041],[-454,-868],[-411,-320],[-744,-194],[126,-1438],[95,-348]],[[33046,52832],[-400,91],[-255,-236],[-283,110],[-122,374],[-268,-149],[-383,255]],[[31335,53277],[-155,101],[107,1104],[-239,3027]],[[31048,57509],[519,293],[-1,204],[1733,-116],[138,-471],[885,-139]],[[31048,57509],[-72,403],[-742,66],[47,772],[-99,947],[259,-16],[-89,931]],[[30352,60612],[215,-308],[570,216],[290,778],[655,465],[276,731]],[[34272,62238],[-66,-207],[400,-228],[755,-637],[115,-624],[-327,-420],[236,-239],[132,257],[520,-340],[-158,-237],[10,-610]],[[35889,58953],[-422,-317],[-314,-603]],[[35153,58033],[-831,-753]],[[25821,51815],[609,-102]],[[26430,51713],[13,-558],[248,-189],[3,-986],[206,-21],[623,-694],[80,-1167],[-512,-231],[-265,-901],[-131,-59],[-259,-792],[42,-1766]],[[26478,44349],[-382,124]],[[26096,44473],[-31,111]],[[26065,44584],[-403,1423],[-1022,1598],[-659,438]],[[35889,58953],[828,-820],[1076,-304]],[[37793,57829],[-95,-941],[-89,-1783],[-304,-595],[-465,-518],[-736,-96],[-79,1096],[75,370],[-83,1277],[-392,898],[-472,496]],[[40771,60381],[-465,-711],[-1168,141],[-1043,239],[-105,-472],[-197,-1749]],[[34848,64011],[1038,1652],[282,-248],[277,119],[679,-61],[383,352],[481,1546]],[[37988,67371],[1419,-682],[227,-289],[391,-1217],[633,-626],[113,-254]],[[40771,64303],[-194,-176],[-148,-982],[-144,-1555],[-181,-879],[667,-330]],[[43414,59795],[-1670,283],[-973,303]],[[40771,64303],[704,417],[522,497],[436,710]],[[42433,65927],[522,-634],[853,-698],[631,-1259]],[[44439,63336],[-219,151],[-95,-1097],[-250,-1309],[-461,-1286]],[[23242,22894],[66,774]],[[23114,27041],[530,529],[286,468],[68,422],[292,493]],[[24290,28953],[1552,72],[847,-16],[222,-345]],[[26911,28664],[-170,-155],[-82,-564],[344,-224],[142,-458],[-214,-195],[383,-699],[601,-267],[338,3],[-136,-308]],[[28117,25797],[-402,-910],[-217,3],[-660,-1530],[-783,-832],[-329,-561]],[[28375,25706],[288,-380],[710,-32],[23,-163]],[[29396,25131],[242,-181],[-313,-1249],[-267,-231],[-220,-956],[-131,-76],[-211,-1420]],[[28496,21018],[-338,-918],[-173,-748],[-1140,4],[-11,-96],[-1337,57]],[[28117,25797],[258,-91]],[[32001,17214],[509,230],[872,172],[534,-97],[688,38],[578,155],[576,-128],[-50,-223],[399,-280]],[[36107,17081],[468,-137],[-14,-468]],[[36561,16476],[-654,-266],[-427,-725],[-550,-644],[-494,-314],[-507,-547],[-361,-575],[-116,-573],[-464,-315],[-16,-336],[-412,-29],[-149,-279],[-827,-16],[-21,408]],[[31563,12265],[-320,410],[194,551],[-11,917],[373,695],[-227,103],[154,565],[-57,401],[357,560],[-25,747]],[[38226,9943],[-320,-364],[-624,-25],[-578,442],[-672,192]],[[36032,10188],[24,264],[1462,3004],[147,170]],[[37665,13626],[226,-257],[1168,-589],[324,-568]],[[39383,12212],[-70,-461],[-726,-1426],[-361,-382]],[[41163,8523],[-582,117],[-1126,481],[-174,216],[-1055,606]],[[39383,12212],[655,-53],[1185,-970]],[[41223,11189],[-176,-21],[-109,-735],[76,-1276],[149,-634]],[[43040,9027],[-1377,-334],[-119,-273]],[[41544,8420],[-381,103]],[[41223,11189],[19,301],[463,556],[106,399],[348,345],[357,-27]],[[42516,12763],[697,-901],[497,-308]],[[43710,11554],[-2,-3]],[[43708,11551],[-222,-16],[-309,-720],[-166,-876],[29,-912]],[[43029,15012],[14,-260],[1105,-1752],[-84,-768],[-354,-678]],[[42516,12763],[161,868],[164,221],[188,1160]],[[43040,9027],[35,-292],[1015,149],[309,-289]],[[44399,8595],[116,-552],[114,-1570],[-91,-819],[-338,-1102]],[[44200,4552],[-1163,990],[-1258,920],[-266,832]],[[41513,7294],[31,1126]],[[42796,15864],[6,-653],[227,-199]],[[37665,13626],[428,580]],[[38093,14206],[361,650],[770,735],[521,128],[387,541]],[[40132,16260],[1103,361],[572,427],[708,-264],[251,-450],[30,-470]],[[46126,38189],[539,-593],[352,-82],[-6,-243],[346,-232],[648,-970],[-1,-326],[651,-396],[419,-457],[189,-466]],[[49263,34424],[-333,-1949],[-405,-141],[87,-336],[-125,-550],[-454,315],[-485,-328],[-107,-471],[-398,-568],[-1680,1]],[[45363,30397],[-150,587],[-727,229],[-515,417],[-539,66],[-764,436]],[[42668,32132],[278,582],[497,514],[611,12],[124,356],[244,3],[226,489],[-8,777],[-318,1044],[342,56],[900,1812],[562,412]],[[52000,46612],[-15,-398],[496,-372],[319,-61],[1092,-1276],[47,-1039],[-215,-339],[-115,-693]],[[53609,42434],[-433,-7],[-203,-233],[-308,86],[-1179,-63],[-71,-493],[-263,-170],[-13,-660],[-559,-834],[-365,-173],[-5,-596],[379,-430],[172,-576],[224,-235],[-22,-474],[242,-416],[-2,-403],[285,-728],[-12,-478],[335,-160]],[[51811,35391],[-4,-465],[-284,-1474],[-155,-163]],[[51368,33289],[-633,312],[-969,817],[-503,6]],[[46126,38189],[322,1195],[115,754],[-632,3133],[-86,811]],[[45845,44082],[852,-98],[200,-148],[563,-9],[670,-330],[-1,399],[575,392],[494,642],[8,240],[417,164],[273,381],[860,1506],[325,311]],[[51081,47532],[364,-263],[555,-657]],[[54894,41993],[204,-805],[368,-356],[181,-917],[381,-289],[138,-649]],[[56166,38977],[-95,-641],[-221,-295],[-721,-178],[-451,-444],[-564,-796],[-407,-204],[-73,-350],[-709,-592],[-834,71],[-280,-157]],[[53609,42434],[530,-323],[755,-118]],[[42152,27561],[354,218],[594,100],[1029,-186],[268,258],[1185,48]],[[45582,27999],[146,-918],[-353,-517],[-745,-1319],[-432,-914]],[[44198,24331],[-329,298],[-633,249]],[[43236,24878],[-571,556],[-245,552],[-668,474]],[[43236,24878],[-332,-805]],[[42904,24073],[-626,-217],[-412,-868],[-229,-955]],[[41637,22033],[-373,-182],[-413,16]],[[40851,21867],[178,465],[9,760],[-416,-112],[-208,306],[11,1134],[648,-133],[-216,769],[-238,6],[0,339]],[[44198,24331],[91,-625],[191,-27]],[[44480,23679],[-634,-1071],[-456,163],[-427,606],[195,235],[-254,461]],[[47774,18880],[-73,-835],[-174,-805],[157,-1418],[278,-162]],[[47962,15660],[-374,-902],[-167,-113]],[[47421,14645],[-662,334],[-472,555],[-1024,499],[-427,472],[-384,153]],[[44452,16658],[-14,597],[279,1922]],[[44717,19177],[151,278]],[[44868,19455],[234,0],[431,569],[132,390]],[[45665,20414],[1064,-821],[1045,-713]],[[44717,19177],[-639,127],[-670,343],[449,1058],[55,684],[456,-34],[599,-365],[29,-857],[-128,-678]],[[51122,22206],[-417,-1811],[-34,-613],[-213,-924],[-397,-1132]],[[50061,17726],[-732,442]],[[49329,18168],[-306,298],[-769,324],[-480,90]],[[45665,20414],[-256,394],[66,485]],[[45475,21293],[25,786]],[[45500,22079],[509,-203],[420,-4],[293,226],[706,-44],[486,117],[1156,-94],[483,-314],[1205,81],[364,362]],[[57134,22845],[-11,-686],[-142,-342],[-126,-1493],[-1603,-2268],[-136,44],[-99,-622],[-232,-34],[1,-1132],[-107,-624],[-397,-539]],[[54282,15149],[-473,-588]],[[53809,14561],[-1113,1036],[-129,225],[-608,429],[-620,188]],[[51339,16439],[-244,323],[-1034,964]],[[51122,22206],[209,250],[807,-287],[524,81],[409,391],[829,563],[229,517],[445,-47],[59,233]],[[54633,23907],[298,-214],[103,-361],[530,-140],[-83,-333],[345,178],[143,-416],[876,307],[289,-83]],[[22921,39230],[340,-483],[816,-122]],[[24077,38625],[588,-502],[412,-885],[79,-1193],[-556,-1272]],[[24600,34773],[-652,-40],[-97,-275],[-658,-651]],[[23193,33807],[-140,523],[-567,106],[-9,155],[-545,7],[-131,270],[-494,134],[-231,770],[-197,122],[-162,1127],[-109,172],[-13,957],[321,607]],[[20916,38757],[260,269],[1393,98],[352,106]],[[24600,34773],[140,-103],[827,5],[225,-297],[548,-129]],[[26340,34249],[-160,-427],[-820,-761],[-578,-784],[-205,-455],[8,-1037],[-297,-672],[2,-1160]],[[20468,31979],[100,206],[701,-39],[477,366],[521,-6],[364,154],[56,333],[384,402],[122,412]],[[67890,35843],[-342,-897],[-162,-1068],[142,-316],[-802,-1000],[-202,52]],[[66524,32614],[-558,388],[-98,490],[-403,72],[-252,-159],[-185,573],[190,726],[-439,914],[-44,618],[100,707],[552,-312],[1173,1445],[996,-553],[176,-1387],[158,-293]],[[53993,27235],[751,-707],[235,-416],[0,-769],[-306,-471],[-40,-965]],[[51122,22206],[-511,481],[-197,570],[190,819],[-76,713],[-168,425],[13,1641]],[[50373,26855],[916,1168],[404,696]],[[51693,28719],[345,42],[988,-549],[210,-669],[757,-308]],[[84263,28610],[808,-454],[685,-67],[308,-577],[557,-587],[750,-1031],[221,-796],[612,-328]],[[88204,24770],[-75,-581],[-245,-558],[-523,-701]],[[87361,22930],[-1105,669],[-1223,882],[-423,234],[-293,-30],[-81,-358],[-681,-21],[11,172],[-621,64],[-179,395],[-561,630],[-97,294],[-1172,1452],[-636,578]],[[80300,27891],[698,754],[645,436]],[[81643,29081],[155,-207],[556,175],[335,-134],[1216,94],[358,-399]],[[68967,36124],[-3,-962]],[[68964,35162],[-64,-338],[473,-1132],[1210,-1459]],[[70583,32233],[52,-100],[-31,-1861]],[[70604,30272],[-1016,-85],[-292,-201],[-1398,96],[-1206,-201],[-215,80]],[[66477,29961],[-198,785],[-231,394],[-508,226],[311,510],[673,738]],[[67890,35843],[593,524],[484,-243]],[[65650,44688],[-32,-616],[-294,-226],[146,-179],[-141,-750],[-16,-759],[-222,-603]],[[65091,41555],[-380,-251],[-748,-149],[-502,-556]],[[63461,40599],[-143,86],[-641,1459],[-197,119],[-16,566],[-410,349]],[[62054,43178],[325,132],[161,868],[297,400],[77,534]],[[62914,45112],[330,-314],[546,190],[1087,133],[383,-386],[390,-47]],[[62781,50468],[-168,-192],[74,-550],[-12,-2181],[-262,-39]],[[62413,47506],[-356,-28],[-515,346],[-1030,167],[-123,182],[-905,304]],[[59484,48477],[-406,299],[-31,856],[-236,380],[-71,744],[203,337],[84,1110],[226,205],[179,533]],[[59432,52941],[650,-88],[715,-446],[475,-656],[867,-583],[642,-700]],[[96479,34579],[-199,138],[-1237,19]],[[95043,34736],[-340,47],[1,1000],[-1433,101],[19,2185]],[[93290,38069],[783,-123],[1485,-772],[423,-354],[-9,-343],[356,-627],[267,-965],[-116,-306]],[[96479,34579],[284,-226],[-23,-317],[217,-609]],[[96957,33427],[-494,-117],[-250,-342],[241,-842],[2,-710],[257,-426],[-87,-555],[106,-510],[-248,-574]],[[96484,29351],[-453,374],[-1136,115],[-28,208],[-574,434]],[[94293,30482],[21,634],[-125,939],[58,1069]],[[94247,33124],[568,889],[228,723]],[[96105,41817],[-346,-91],[-591,-1320],[16,-468],[-341,122],[-393,662]],[[94450,40722],[775,855],[-586,348],[207,442],[740,-226],[484,505],[-210,346],[-326,3],[242,245],[106,469],[531,5],[47,-1309],[-355,-588]],[[50052,69308],[-141,-463],[-68,-1579],[184,-151],[-150,-454]],[[49877,66661],[2,0]],[[49879,66661],[-438,-342],[-678,-17],[-607,-514]],[[48156,65788],[-131,417],[-460,427],[-1014,271],[-788,-157],[-586,332],[-19,402]],[[45158,67480],[320,594],[395,414],[219,627],[165,1292],[-392,1302],[-329,1580],[97,716]],[[45633,74005],[539,-77],[480,160],[774,-339],[898,-596],[528,-31],[1082,-637]],[[49934,72485],[164,-127],[174,-893],[-224,-1587],[4,-570]],[[53742,73956],[980,-405],[89,-175]],[[54811,73376],[-168,-948],[-270,-94],[-495,-786],[-133,-474],[464,-841],[431,-156],[391,-348],[55,-1124],[-76,-55],[3,-1343],[-84,-4],[-224,-1381],[-451,-709],[-97,-409],[2,-874],[-140,-165]],[[54019,63665],[-583,-149],[-110,560],[-514,325],[-433,655],[-53,466]],[[52326,65522],[-366,436],[-267,13],[-5,316],[-296,0],[178,939]],[[51570,67226],[-81,908],[-598,127],[-313,293],[-164,549],[-362,205]],[[49934,72485],[276,440],[200,656],[365,554]],[[50775,74135],[1353,-758],[281,-29],[503,429],[830,179]],[[53529,76632],[-35,-1282],[185,-577],[-120,-351],[183,-466]],[[50775,74135],[280,519],[293,907],[473,882],[527,-49],[275,204]],[[52623,76598],[468,-121],[438,155]],[[55410,76430],[474,41]],[[55884,76471],[-481,-43],[468,-737],[46,-586],[-314,-1047],[-792,-682]],[[53529,76632],[906,407],[494,-90],[481,-519]],[[52623,76598],[383,934],[156,879],[-393,981],[-776,1121],[-610,398],[162,1614],[391,653]],[[51936,83178],[865,1060]],[[52801,84238],[2236,-408],[971,-838],[969,-1014],[611,-820],[98,-254]],[[57686,80904],[-1,-5]],[[57685,80899],[-133,220],[-464,-183],[-872,-1043],[-537,-1120],[-269,-2343]],[[57685,80899],[288,-276],[-143,-402],[264,-823],[-450,-1385],[182,-835]],[[57826,77178],[-465,-487],[-1477,-220]],[[60727,81251],[409,-915],[498,-768],[57,-419],[277,-256],[90,-887]],[[62058,78006],[-308,-552],[-104,-1079],[-368,-867]],[[61278,75508],[-589,236],[-680,81],[-714,616],[-300,445],[-1096,176],[-73,116]],[[57686,80904],[-54,202],[322,1268]],[[57954,82374],[1116,339],[329,370]],[[59399,83083],[642,-1358],[686,-474]],[[59399,83083],[324,1131],[471,495],[810,529]],[[61004,85238],[262,-522],[422,-1233],[-60,-500]],[[61628,82983],[-405,-364],[-600,-1045],[104,-323]],[[61628,82983],[684,-453],[498,-656],[488,-200],[553,-609],[934,-502],[776,-695],[86,-275],[432,-218],[354,-552],[132,-762]],[[66565,78061],[-404,-283],[6,-286]],[[66167,77492],[-230,189],[-281,-123],[-978,109],[-770,242],[-424,651],[-1031,-487],[-395,-67]],[[66167,77492],[134,-606],[-125,-179],[-153,-954],[-294,-400],[-142,-700]],[[65587,74653],[-361,-831],[-1017,-1206],[-790,-159]],[[63419,72457],[-541,194],[-795,599],[-399,471],[-209,1516],[-197,271]],[[63523,68679],[119,1998],[-104,1443],[-119,337]],[[65587,74653],[20,-334],[281,-319],[399,-3440]],[[66287,70560],[-408,-450],[-752,-1120],[-566,-721]],[[64561,68269],[-348,341],[-690,69]],[[82297,65993],[-155,-694],[-156,-1533],[194,-725],[155,-21]],[[82335,63020],[40,-148],[-458,-786]],[[81917,62086],[-671,273],[-1049,587]],[[80197,62946],[-351,89],[-200,339],[-199,1426],[67,336]],[[79514,65136],[896,1066]],[[80410,66202],[1169,89],[718,-298]],[[82429,69870],[-10,-1196],[520,-99]],[[82939,68575],[-292,-853],[-218,-315],[-132,-1414]],[[80410,66202],[-509,229],[380,2029],[345,-3],[2,308],[384,-149],[875,1313],[542,-59]],[[82939,68575],[73,-218],[499,-309],[235,-357]],[[83746,67691],[204,-299],[83,-678],[1250,-1024],[136,-809]],[[85419,64881],[-282,-6],[-82,-412],[-272,-87],[-10,-366],[-670,-416],[-7,-268],[-374,-245],[-1387,-61]],[[76312,65826],[227,244]],[[76539,66070],[478,-206],[821,-126],[205,-198],[1250,-223],[221,-181]],[[80197,62946],[-254,-634],[135,-35],[-345,-840],[-503,-811]],[[79230,60626],[-663,-217]],[[78567,60409],[-528,843],[-21,-403],[-192,400],[-260,75],[263,408],[-349,-1],[-8,477],[-480,550],[14,400],[-630,576],[57,635],[274,103],[-127,1188],[-268,166]],[[81917,62086],[252,-153],[-16,-481],[549,-656],[-138,-503],[270,-496],[16,-875],[515,-823]],[[83365,58099],[-177,-894],[-294,-447]],[[82600,54197],[-593,-136],[-970,840],[-563,215],[-395,-78]],[[80079,55038],[-258,675],[-466,700],[-278,-5],[344,1330],[-148,530],[-43,2358]],[[75517,56684],[249,687],[197,-4],[383,403],[306,605]],[[76652,58375],[880,-507],[-228,-264],[359,-51],[-101,764],[304,629],[204,-67],[195,-510],[-604,-1117],[518,-207],[46,-349],[-302,88],[-303,-186],[-139,-452],[381,-806],[-341,-713],[185,-813],[-614,-1284],[-78,-9]],[[77014,52521],[-433,702],[-75,848],[-244,1367],[-282,750],[-407,63],[-56,433]],[[51570,67226],[-706,203],[-987,-768]],[[37988,67371],[-65,66]],[[37923,67437],[398,521],[289,107],[580,515],[1444,793]],[[40634,69373],[957,-1531],[209,-83]],[[41800,67759],[-71,-804],[311,-744],[393,-284]],[[41800,67759],[102,281],[680,-8],[307,380],[874,-260],[1082,-638],[313,-34]],[[48156,65788],[-1,-198],[-439,-343],[-880,-1585],[-285,-627]],[[46551,63035],[-754,74],[-560,-219],[-798,446]],[[43981,59324],[-567,471]],[[46551,63035],[-391,-838],[-102,-980]],[[46058,61217],[-846,-472],[-886,-913],[-345,-508]],[[47978,59563],[-826,-929],[-1057,-986],[-306,-554],[-644,-37]],[[45145,57057],[-532,913],[-522,1263],[-110,91]],[[46058,61217],[206,9],[882,-834],[618,-766],[214,-63]],[[48611,59651],[-633,-88]],[[49879,66661],[161,-610],[-660,-797],[343,-523],[573,-337],[-302,-547],[-18,-1799],[-699,315],[-277,-421],[-122,-819],[-148,-239],[-16,-603],[147,-451]],[[48861,59830],[-250,-179]],[[52326,65522],[-584,-880],[-18,-1027],[-608,69],[-341,-919],[92,-904],[-167,-95],[-460,-1195],[-195,-707]],[[50045,59864],[-213,-305],[-971,271]],[[55079,62698],[-240,-5],[2,-399],[-231,5],[-540,-794],[-92,-620]],[[53978,60885],[-269,-798],[-259,-100],[-396,-720],[-253,-140],[-570,-880],[-380,-380]],[[51851,57867],[-348,371],[-827,231],[-98,297]],[[50578,58766],[-166,102],[-418,798],[51,198]],[[54019,63665],[464,-286],[355,-686],[241,5]],[[54869,30051],[-645,882],[-89,623],[-465,229],[-208,347],[-529,356],[-590,121],[-361,-210]],[[51982,32399],[-614,890]],[[56166,38977],[266,-226],[-158,-943],[-205,-414],[-136,-1236],[-83,2],[-445,-3248],[2,-681],[-144,-421],[-28,-761],[-366,-998]],[[54869,30051],[976,163]],[[55845,30214],[2,-2]],[[55847,30212],[-213,-524],[-102,-638],[-244,-585],[-448,-498],[-700,-428],[-147,-304]],[[51693,28719],[442,711],[217,929],[-607,939],[237,1101]],[[45565,28224],[-37,1387],[-165,786]],[[50373,26855],[-362,59],[-1223,882],[-597,161],[-332,-254],[-1270,-170],[-416,571],[-608,120]],[[45582,27999],[-17,225]],[[45500,22079],[-510,73],[-207,816]],[[44783,22968],[-303,711]],[[45475,21293],[-423,8],[-776,795],[-35,346],[542,526]],[[33265,35061],[198,-215],[793,294],[725,123],[462,-889]],[[35443,34374],[-432,-316],[-60,-986],[-685,-515],[101,-576]],[[34367,31981],[-658,20],[-717,-550],[-249,-533]],[[32743,30918],[-453,-198],[-767,-6],[-563,201],[-408,429]],[[30552,31344],[-266,444],[132,753],[-16,1833],[-154,436]],[[30248,34810],[547,243],[92,228]],[[30887,35281],[556,-106],[335,-248],[1332,57],[155,77]],[[30887,35281],[6,515],[-238,412],[-129,564],[14,719],[292,320],[57,513]],[[30889,38324],[662,150],[1069,-515],[1146,-90],[-295,-1178],[-275,-618],[69,-1012]],[[28272,40558],[587,-309],[758,3],[298,-582],[403,7],[241,-732],[253,37]],[[30812,38982],[77,-658]],[[30248,34810],[-373,-245],[-605,61],[-632,421],[-739,-5],[-351,107]],[[27548,35149],[-875,-147],[-146,199]],[[26527,35201],[215,222],[83,669],[206,5],[-134,738],[401,-6],[-49,729],[-151,299],[213,238],[-19,534],[445,537],[87,763],[448,629]],[[27548,35149],[-83,-241],[110,-1533],[416,-1036],[-18,-705],[209,-967]],[[28182,30667],[-279,636],[-525,399],[24,446],[-314,243],[-324,812],[-496,321],[72,725]],[[26340,34249],[-23,655],[210,297]],[[28182,30667],[462,-530]],[[28644,30137],[44,-164]],[[28688,29973],[-1359,-753],[-418,-556]],[[30552,31344],[-920,-407],[-406,-441],[-582,-359]],[[32729,22933],[-344,-266],[-91,-361],[-288,-87],[-41,-560],[-379,-1328],[-257,-380]],[[31329,19951],[-830,202],[-236,313],[-785,139],[-443,349],[-539,64]],[[29396,25131],[169,579],[1053,49]],[[30618,25759],[249,-72],[-65,-1870],[830,-273],[450,-494],[647,-117]],[[28688,29973],[150,-515],[65,-1640],[-80,2],[51,-1496],[-112,-405],[-387,-213]],[[32743,30918],[-295,-1906],[-226,-351],[512,-340]],[[32734,28321],[-564,-1708],[-445,114],[-115,-647],[-823,160],[-169,-481]],[[34367,31981],[85,-1312],[111,3],[98,-1717],[400,-1069]],[[35061,27886],[-481,-497]],[[34580,27389],[-374,84],[-1063,851],[-409,-3]],[[34580,27389],[-268,-310],[-174,-702],[-19,-2364],[-147,0],[-155,-962]],[[33817,23051],[-444,52],[-358,-260],[-286,90]],[[64561,68269],[294,-441],[6,-395],[744,-704],[-7,-408],[269,-203],[-74,-516],[148,-69],[98,-856],[474,-478]],[[66513,64199],[-362,-60],[-820,-813],[-646,-850],[-229,-452]],[[64456,62024],[-145,-151],[-1215,-18],[-1010,-293],[-456,1],[-407,297],[-586,-288]],[[60637,61572],[-151,103],[225,546],[574,615],[260,1193],[278,531],[22,559],[354,1334],[206,327],[82,723],[212,331],[348,143],[399,401],[77,301]],[[68663,61508],[705,-665],[155,-747],[-9,-605],[-154,-410]],[[69360,59081],[-549,233],[-680,86],[-107,-215]],[[68024,59185],[-944,886],[-538,161],[-153,267],[-488,204],[-14,224],[-421,-75],[-451,320],[-15,262],[-544,590]],[[66513,64199],[705,-781],[65,-833],[540,-80],[494,-613],[2,-255],[344,-129]],[[48501,55293],[18,577],[-343,634],[10,819],[271,452],[51,1508],[103,368]],[[50578,58766],[-883,-1090],[-427,-855],[-472,-493],[-90,-276],[434,-520],[-18,-305]],[[49122,55227],[-125,-164],[-496,230]],[[50561,54727],[-590,142],[-59,-739],[-142,-3],[-346,925],[-302,175]],[[51851,57867],[-480,-1076],[-167,-858]],[[51204,55933],[-556,-638],[-87,-568]],[[51204,55933],[501,-804],[921,-509],[261,-279]],[[52887,54341],[-323,-405],[57,-1212],[-291,-737],[-559,-141],[-360,-725],[-84,-1687]],[[51327,49434],[-426,333],[-580,244],[-736,898],[-224,415],[88,343]],[[49449,51667],[309,1180],[415,759],[79,474],[309,647]],[[46426,48903],[-642,-1218],[-283,-796],[-53,-629],[146,-844],[-280,-600]],[[45314,44816],[-351,-327],[-105,361],[-455,300],[-168,-377],[-796,6],[-740,385],[-116,-119],[-375,973],[-25,1922],[329,3007],[93,546]],[[42605,51493],[457,-322],[531,21],[24,-166],[551,-230],[505,-765],[504,-434],[1249,-694]],[[48501,55293],[-44,-277],[-483,-530],[-256,-26],[-793,-1416]],[[46925,53044],[-689,1021],[-537,1820],[-215,488],[-397,326]],[[45087,56699],[58,358]],[[41443,30770],[294,519],[1,325],[377,543],[553,-25]],[[35443,34374],[148,-373],[964,-1190],[424,317],[722,25],[135,415],[636,-340],[341,-581],[694,-18],[55,-1837]],[[35332,28312],[-271,-426]],[[35162,22538],[-405,280],[-738,62],[-202,171]],[[36651,24558],[-123,-415],[-669,-443],[-697,-1162]],[[35162,22538],[242,-729],[97,-1535],[248,-1375]],[[35749,18899],[-119,-542],[161,-629],[316,-647]],[[32001,17214],[-332,1730],[-25,904],[-315,103]],[[38044,24497],[418,-584],[1116,-914],[374,-143],[684,-959],[215,-30]],[[40851,21867],[274,-286],[-58,-546]],[[41067,21035],[-934,140],[-617,390],[-329,-390],[-323,118],[-391,943],[-490,114],[-38,-402],[-435,-182],[33,-332],[341,-41],[-20,-499],[-317,-195],[-24,-444],[422,-113],[-305,-709],[-409,-537],[-751,280],[-598,-54],[-133,-223]],[[48833,51459],[-458,6],[-1266,1044],[-184,535]],[[49449,51667],[-193,-232],[-423,24]],[[41637,22033],[-14,-500],[178,-234],[-55,-562],[-153,-57],[58,-706],[-452,-265],[-537,-25]],[[40662,19684],[405,1351]],[[40662,19684],[-554,-2068],[-55,-948],[79,-408]],[[38093,14206],[-33,449],[-224,431],[-615,463],[-130,322],[-530,605]],[[42793,21559],[238,916],[928,100],[-51,-533],[-303,-826],[-211,-307],[-633,417],[32,233]],[[44452,16658],[-1101,-395],[-555,-399]],[[67665,51497],[-5,-1614],[135,-182],[43,-675],[456,-540],[134,-511],[427,-562],[67,-854],[-112,-607]],[[68810,45952],[-920,-385],[-491,-327],[-558,188],[-785,-324],[-249,-526],[-157,110]],[[62914,45112],[68,558],[-229,572],[-57,605],[-283,659]],[[62781,50468],[196,285],[638,321],[298,-22],[252,284]],[[64165,51336],[285,311],[476,135],[424,394],[886,203],[293,-374],[661,-209],[475,-299]],[[71981,38594],[-343,-54],[-723,-882],[-329,-534],[-254,-721],[-246,-265],[127,-398],[-389,-414],[-860,-164]],[[68967,36124],[342,-76],[322,248],[236,775],[421,354],[82,607],[-272,415],[-331,74],[-614,-228],[-346,-612],[-327,14],[-1262,447],[-194,649],[-320,563],[-394,-123],[-241,260],[101,1024],[-241,459],[-838,581]],[[68810,45952],[226,-137],[-167,-764],[87,-738],[-123,-1365],[147,-398],[-462,-650],[339,-346],[82,-763],[190,-358],[930,-710],[200,-42],[739,-666],[5,-284],[760,19],[218,-156]],[[83365,58099],[1130,-536],[382,141],[785,-326],[663,-475],[360,-123]],[[86685,56780],[55,-768],[-583,-1045],[-284,-278],[-753,-1130]],[[85120,53559],[-450,-417]],[[77771,46499],[337,1569],[251,529],[440,2116]],[[78799,50713],[321,-261],[617,40],[694,279],[67,-705],[175,-75],[-214,-515],[382,-256],[752,306],[561,-408],[364,131],[160,-559],[-75,-449],[564,248],[-367,-344],[-24,-305],[961,941],[319,-311],[59,-464],[-248,-374],[44,-355],[930,403],[671,-485]],[[85512,47195],[57,-221],[-162,-1217],[41,-596],[285,-509],[-146,-375]],[[85587,44277],[-293,-491],[-1221,-681],[-885,-185],[-464,-4],[-310,-741],[-208,-237],[-752,-35]],[[81454,41903],[-62,266],[193,519],[-216,314],[-939,815],[-117,299],[-1711,584],[-402,261],[-411,922],[-18,616]],[[78799,50713],[-231,482]],[[78568,51195],[119,77],[430,1411],[660,814],[260,728],[-59,778],[101,35]],[[85120,53559],[200,-495],[463,-38],[415,-370],[211,-477],[-116,-386],[516,-1071],[344,-301]],[[87153,50421],[-3,-450],[-275,-1013],[-316,-403],[-153,-468],[-522,-288],[-372,-604]],[[76652,58375],[222,670],[-196,129]],[[76678,59174],[258,404],[166,-235],[519,-151],[351,59],[484,349],[111,809]],[[78568,51195],[-710,286],[-270,480],[-574,560]],[[48833,51459],[-674,-812],[-557,-201],[-316,-375],[-307,23],[-435,-756],[-118,-435]],[[42605,51493],[319,3579],[114,642],[363,452],[898,527],[498,115],[290,-109]],[[51327,49434],[144,-10],[-390,-1892]],[[45845,44082],[-58,352],[-473,382]],[[58650,24293],[-526,318],[-642,669],[-677,122],[-335,853],[274,1039],[257,176]],[[57001,27470],[1576,726],[952,135]],[[59529,28331],[117,-513],[184,10],[218,-738],[-103,-799],[165,-421],[-321,-438],[-359,-59]],[[59430,25373],[-744,-800],[-36,-280]],[[58536,34750],[573,-322],[296,98]],[[59405,34526],[508,-557],[34,-944],[179,-119],[-139,-1137],[-54,-1118],[-293,-2260],[-111,-60]],[[57001,27470],[-51,1284],[-272,1175],[69,184],[-900,99]],[[55845,30214],[807,829],[974,414],[464,1229],[381,1531],[65,533]],[[58650,24293],[-63,-251],[-497,-407],[-333,-13],[-415,-648],[-208,-129]],[[76476,26312],[-470,-59],[-515,272],[-1284,1400]],[[74207,27925],[-261,278],[-260,703],[-169,790]],[[73517,29696],[-15,64]],[[73502,29760],[871,410],[1465,852],[603,254],[836,553]],[[77277,31829],[436,-785],[187,-1819],[-195,-681],[-636,-662],[-299,-537],[46,-219],[-340,-814]],[[61103,88093],[41,-21]],[[61144,88072],[501,-1664]],[[61645,86408],[-641,-1170]],[[57954,82374],[-51,88]],[[57903,82462],[-242,807],[-184,947],[110,2622],[488,804],[887,248],[524,-188],[716,69],[775,371],[126,-49]],[[52801,84238],[-79,949],[7,1820],[173,1062],[-20,409],[-314,366],[-341,779]],[[52227,89623],[857,-678],[833,-150],[711,-369],[456,-370],[314,-35]],[[55398,88021],[87,17],[190,19],[-21,-95],[-15,-57],[-31,-339],[57,-1038],[712,-1284],[245,-1062],[539,-1017],[742,-703]],[[97710,40899],[-485,336],[-389,62],[-731,520]],[[94450,40722],[-323,-320],[257,-430],[-295,-811],[-415,400],[-18,1333],[-637,641],[95,440],[-373,289]],[[92741,42264],[214,575]],[[92955,42839],[616,386],[969,1071],[242,1058]],[[94782,45354],[430,150],[354,-243],[593,246],[312,-270],[181,-575],[506,-542],[190,-839],[260,-358],[578,-462],[-123,-1475],[-353,-87]],[[92955,42839],[-291,536],[205,869],[886,1262]],[[93755,45506],[287,-228],[740,76]],[[98704,33438],[499,-925],[796,-481],[-73,-640],[-224,-491],[-945,-1276],[-435,-865]],[[98322,28760],[-452,-124],[-1386,715]],[[96957,33427],[1540,109],[207,-98]],[[98322,28760],[15,-1182],[-487,-673],[-458,-1275],[-682,-678],[-225,-643],[-505,201],[-280,-354],[-425,226],[-602,-1],[-619,-198],[-298,48],[-317,-588],[-800,151]],[[92639,23794],[-128,138],[12,691],[-691,712]],[[91832,25335],[235,500],[-289,897],[259,717],[150,79],[133,780],[441,1090],[65,433],[441,491],[66,351],[338,126],[622,-317]],[[92639,23794],[-569,-1265],[-15,-861],[334,-514],[101,-825],[539,-1231],[151,-898],[-228,-537],[-326,-1277],[145,-764],[-721,-679],[-410,-88],[15,-357],[-436,-728],[-104,-445],[-1320,728],[-753,800],[-54,392],[-435,494],[-327,131],[131,425],[-230,846],[-344,174],[296,1164],[297,502],[328,63]],[[88704,19044],[658,-335],[533,-403],[350,-43],[305,286],[-93,947],[90,1241],[19,1331],[107,1262],[242,913],[516,1193]],[[91431,25436],[401,-101]],[[88704,19044],[36,200],[-518,660],[-37,942],[-1065,1541]],[[87120,22387],[241,543]],[[88204,24770],[782,378],[1005,306],[993,60],[447,-78]],[[87120,22387],[-309,-112],[-774,206],[-291,-185],[-1048,-2],[-1470,-714],[-168,-253],[-865,25],[-293,167]],[[81902,21519],[95,275],[24,1065],[-381,771],[-1003,1310],[-1120,581],[-1,490]],[[79516,26011],[784,1880]],[[81902,21519],[-177,0],[-417,-835],[-149,-676],[-1339,850],[-253,33],[-1774,881]],[[77793,21772],[-246,719],[150,604],[325,768],[174,960]],[[78196,24823],[43,217],[882,892],[395,79]],[[76476,26312],[339,-257],[583,-792],[798,-440]],[[77793,21772],[-60,-179],[-1155,-225],[-601,-477],[-474,-1152],[-89,-786],[28,-735],[-656,-22],[-452,170],[-1179,880],[-679,1070],[-205,1201],[11,1829],[162,639],[-115,534]],[[72329,24519],[526,694],[711,759],[641,1953]],[[70583,32233],[289,70],[767,668],[1200,470],[452,-759],[100,-902],[-102,-1587],[213,-433]],[[73517,29696],[-79,-141],[-1154,-38],[-489,213],[-555,64],[-636,478]],[[72329,24519],[-490,-662],[-798,448],[-397,3],[-509,-354],[-974,-269],[-266,125],[-1026,916],[-789,1015],[-185,412],[-614,586]],[[66281,26739],[-28,508],[224,2714]],[[66281,26739],[-50,51],[-506,-1480],[-289,-596],[-802,-668],[-20,-645],[400,-1369],[171,-862],[138,-1661]],[[65323,19509],[-576,12]],[[64747,19521],[-10,330],[-312,640],[-826,399],[-1010,113],[-794,374],[-553,145]],[[61242,21522],[-712,457],[-235,1015],[-167,56],[162,1778],[-860,545]],[[59405,34526],[729,904],[572,1830]],[[60706,37260],[278,-243],[835,33],[350,373],[78,377],[390,370],[151,872],[296,177],[377,1380]],[[65323,19509],[362,-125],[-90,-506],[92,-4023],[70,-692],[-1279,320],[-748,372],[-373,657],[-644,139]],[[62713,15651],[255,397],[1328,2862],[451,611]],[[62713,15651],[-77,416],[-1245,1015],[-610,679],[-762,477]],[[60019,18238],[275,752],[287,1229],[351,567],[310,736]],[[60019,18238],[-1039,-226],[-755,-641],[-473,-1482],[-254,-499],[106,-910],[-160,-813],[-17,-657],[-360,-213],[-736,325]],[[56331,13122],[-541,832],[-246,-27],[-654,575],[64,536],[-264,276],[-272,-452],[-136,287]],[[56331,13122],[-177,-991],[-617,-1535],[-423,-274],[-679,-705],[-416,-716],[-981,-1005]],[[53038,7896],[-259,495]],[[52779,8391],[-305,88],[-297,431],[-227,619],[-455,163]],[[51495,9692],[226,1023],[253,679],[488,945],[1255,1849],[92,373]],[[53038,7896],[556,-1934],[-10,-619],[-189,-436],[-922,-1652],[-1034,-1224],[-532,-157],[-315,214],[-1527,385],[-258,513],[-1215,989]],[[47592,3975],[-145,524],[77,679]],[[47524,5178],[765,972],[68,211],[381,-79],[356,514],[525,519],[759,314],[997,741],[645,41],[658,-129],[101,109]],[[47592,3975],[-759,-98],[-632,-575],[-784,-486]],[[45417,2816],[-481,899],[-258,175],[-478,662]],[[44399,8595],[697,-65],[650,191],[848,-19],[367,143]],[[46961,8845],[291,89],[210,-546],[-143,-332],[143,-898],[-194,-484],[131,-200],[-254,-496],[-127,-581],[506,-219]],[[45417,2816],[-17,-856],[-714,-1938],[-269,-22],[-1412,880],[-994,68],[-1866,-32],[-1140,-269],[-189,84]],[[38816,731],[314,2493],[191,604],[191,1047],[77,990],[170,533],[433,713],[886,-16],[435,199]],[[38816,731],[-1675,292]],[[37141,1023],[95,251],[-104,1216],[250,1720],[-33,759],[66,1011],[-262,713],[-110,707],[-230,390],[-609,345],[-148,501],[-63,802]],[[35993,9438],[39,750]],[[37141,1023],[-472,214],[-624,534],[-465,206],[-171,497],[-510,668],[-175,1067],[-404,264],[-548,1279],[-382,260],[-407,-452],[-509,-46],[-170,193],[14,590],[-188,617],[-283,99],[74,276],[-315,91],[-311,710],[161,717]],[[31456,8807],[547,226],[461,21],[-150,336],[407,139],[236,-496],[274,333],[459,-349],[1024,-117],[21,268],[982,11],[276,259]],[[31456,8807],[-23,401],[-317,179],[70,685],[-122,285],[-412,158],[-186,398],[99,602]],[[30565,11515],[998,750]],[[30565,11515],[-254,-147],[-802,1077],[-1206,675],[-860,252],[-549,-118],[-287,-543],[-503,-392],[-365,67],[-34,405]],[[25705,12791],[-522,303],[64,189],[13,1338],[-400,332],[-129,610],[-166,0]],[[25705,12791],[-275,-256],[-66,-370],[-1440,-172],[-1064,-1213],[-635,-859],[-1048,242],[-1060,355],[78,994],[-119,1188],[-448,1265],[-205,1425],[133,34]],[[19556,15424],[83,195],[1248,-1],[720,88],[247,303]],[[19556,15424],[-619,643],[-502,237]],[[18435,16304],[-4,606],[-270,1358],[-222,719],[-366,739],[-31,1171],[-153,832],[642,705],[367,764],[205,1139],[311,497]],[[18435,16304],[-551,281],[-747,143],[-945,-129],[-1595,355],[-981,-270],[-302,279],[-1445,-857],[9,1385],[-277,433],[202,508],[121,778],[174,111],[-75,693],[336,34],[135,384],[-149,643],[-363,462],[-51,445],[-214,-140],[-195,490],[171,187],[-116,516]],[[11577,23035],[99,747],[30,1837],[92,19],[-53,2105],[196,647],[4,478],[215,797]],[[12160,29665],[134,630],[433,468],[327,956],[33,366]],[[13087,32085],[532,57],[257,-424],[449,-231],[6,232],[1290,-10],[4,-471],[491,-235],[1588,-60],[134,393],[269,116]],[[11577,23035],[-90,263],[-615,6],[-401,-178],[-1120,323],[-922,506],[-384,75],[-1316,-105],[-349,135],[320,1451],[-22,824],[-151,21],[85,563],[-259,464],[200,1130],[279,19],[121,641],[-317,91],[-170,557],[208,1046],[238,552],[928,1014]],[[7840,32433],[424,-125],[307,-347],[-6,-766],[312,-5],[556,-416],[854,-472],[4,-162],[541,-4],[-6,-169],[686,-82],[211,-233],[437,13]],[[10858,42315],[-43,-190]],[[10815,42125],[-367,130],[-751,-22],[-272,170],[-810,108]],[[8615,42511],[-161,391],[43,794],[-184,1209],[63,392],[-373,556],[126,303],[-570,-11],[-168,320],[-450,311],[121,873],[411,-155],[33,731],[279,171],[9,430],[355,521],[-98,103],[88,899],[322,77],[-124,1926]],[[8337,52352],[987,241]],[[10815,42125],[439,-442],[-124,-1428]],[[11130,40255],[-52,-626],[-541,-417],[-6,-267],[-549,-197]],[[9982,38748],[5,135],[-1162,-211]],[[8825,38672],[-233,631],[-647,461]],[[7945,39764],[-83,320],[355,1215],[328,202],[170,399],[-100,611]],[[8337,52352],[-648,775],[-237,-88],[-931,166],[-412,-18]],[[6109,53187],[-286,1122],[-60,1031],[-195,333]],[[5568,55673],[1396,1616],[1144,983],[551,-10]],[[6109,53187],[-343,-471],[-724,-174],[-264,-213],[-1074,-1225],[-327,-595],[-71,-632],[47,-1359],[-517,-921],[-637,92],[-474,486]],[[1725,48175],[205,452],[-43,425],[141,602],[112,1235],[269,438],[446,79],[278,-269],[272,1119],[-217,352],[-132,1243],[-164,663],[236,1880]],[[3128,56394],[393,-286],[594,-147],[594,14],[339,-356],[520,54]],[[1725,48175],[-251,326],[-1319,493],[-155,540],[387,352],[396,813],[-57,377],[340,725],[127,1714],[-127,1466],[168,3],[33,1071],[652,317]],[[1919,56372],[1209,22]],[[1919,56372],[80,1292],[264,834],[312,324],[160,656],[-44,457],[313,394],[720,-9],[443,179],[1224,234],[1721,751]],[[7112,61484],[379,-660],[654,-719],[395,-138]],[[14717,67508],[403,-647],[1237,-1218],[911,-1223],[61,-187]],[[7112,61484],[-3,2784],[269,866],[523,7],[932,475]],[[8833,65616],[332,-256],[389,278],[1241,-287],[370,327],[448,148],[667,862],[-357,874]],[[11923,67562],[359,-877],[665,305],[1316,279],[454,239]],[[8833,65616],[130,354],[684,1030],[336,963],[91,987],[1116,166],[355,-1068],[378,-486]],[[14717,67508],[-512,559],[-133,584],[397,1463],[466,1046],[584,746]],[[15519,71906],[738,-1280],[530,-729],[432,-1079],[473,-1508],[30,-696],[-328,-2282]],[[20366,68071],[-533,-572],[-453,-825],[-267,-1314]],[[15519,71906],[22,138],[891,506],[736,270],[1140,204],[728,240],[803,-4004],[527,-1189]],[[23433,67217],[187,-971],[-179,-969],[-46,-1084]],[[23395,64193],[-668,67],[-399,-149],[-712,-732],[-228,14],[-577,-450]],[[20366,68071],[438,-116],[1511,-174],[1097,9],[21,-573]],[[35781,72490],[32,-934],[229,-766],[384,-292],[515,-949],[-11,-603],[241,-659],[502,-283],[250,-567]],[[30954,66968],[-485,463],[-471,243],[-630,851],[-357,836]],[[29011,69361],[124,1911]],[[29135,71272],[709,-310],[629,283],[693,-177],[448,755],[783,234],[22,1081]],[[32419,73138],[1722,-80],[438,66],[583,-187],[16,-204],[603,-243]],[[31358,75693],[517,-1560],[188,-850],[356,-145]],[[29135,71272],[-223,242],[99,926],[79,1583],[406,7],[147,675],[249,226],[692,1072],[634,-75],[140,-235]],[[40049,74541],[-759,-477],[-897,144],[-812,-95],[-243,-284],[-854,-1432],[-703,93]],[[31358,75693],[607,742],[338,219],[1257,562],[1274,-97],[552,165],[1077,-34],[662,54],[726,-130],[774,833],[578,-160],[333,-626],[1139,-1174],[-626,-1506]],[[40049,74541],[167,-572],[610,-577],[585,-362]],[[41411,73030],[-433,-533],[301,-528],[-160,-686],[176,-318],[-76,-1186],[-585,-406]],[[44799,75752],[445,-840],[-285,-482],[197,-692],[477,267]],[[41411,73030],[757,727],[403,181],[556,465],[61,297],[385,240],[908,819],[318,-7]],[[48533,85959],[825,-1024],[84,-238],[654,-506],[957,-408],[883,-605]],[[44799,75752],[443,1364],[505,1931],[-180,480],[-318,163],[-377,785],[-404,1187],[-765,1695],[-592,1679],[-310,295],[307,2104],[256,790],[449,964],[856,406],[419,44]],[[45088,89639],[411,-242],[1324,-1266],[451,-229],[1081,-1435],[178,-508]],[[50384,89784],[-433,-631],[-615,-692],[-425,-879],[-378,-1623]],[[45088,89639],[939,539],[411,707],[680,-310],[443,-69],[248,730],[556,136],[954,-486],[613,-873],[452,-229]],[[51684,89668],[543,-45]],[[50384,89784],[737,-314],[563,198]],[[57189,93559],[-139,-429],[173,-761],[286,-703],[560,-747],[236,-148]],[[58305,90771],[-501,-764],[-290,-726],[-246,-252],[-1357,-1019],[-234,47],[-190,-17],[-89,-19]],[[51684,89668],[875,1615],[549,579],[105,628],[15,1063],[-282,430],[138,821],[514,863],[1348,741],[-38,-1109],[132,-647],[397,-897],[1752,-196]],[[61774,90251],[-220,496],[-988,239],[-24,-144],[-596,169],[-223,349],[-171,-182],[-477,247],[-349,-483],[-421,-171]],[[57189,93559],[289,1546],[-279,906],[-23,629],[527,24],[1030,-455],[690,-53],[732,1567],[117,1167],[336,716],[677,393],[482,-32],[392,-743],[230,69],[401,-775],[422,-123],[932,-971],[53,-1268],[-432,-1762],[105,-458],[-454,-1457],[-652,-1707],[-687,-255],[-303,-266]],[[61774,90251],[-470,-830],[-201,-1328]],[[67745,82461],[-555,151],[-193,268],[-425,0],[-836,605],[-460,173],[-1149,712],[-1115,1034],[-804,471],[-563,533]],[[61144,88072],[1652,-716],[767,472],[330,-16],[455,-292],[1049,-472],[607,1],[669,-464],[1837,-380],[769,-974],[-200,-324],[-464,-1556],[-290,-628],[-580,-262]],[[67745,82461],[-52,-753],[-204,-1243]],[[67489,80465],[-498,-713],[-90,-470],[57,-647],[-393,-574]],[[69882,77580],[-340,-207],[-621,317],[-419,-191],[-531,5],[-285,251],[-718,4],[-403,302]],[[67489,80465],[456,-28],[500,-289],[21,-387],[604,26],[786,-835],[26,-1372]],[[87817,67587],[-206,59],[4,764],[-416,79],[-211,-183],[-278,189],[-145,445],[-719,-40],[6,278],[428,105],[-77,310],[372,12],[4,399],[-874,53],[-229,763],[-318,312],[-281,-1100],[-418,-266],[7,-298],[-385,16],[-6,-1031],[-171,-656],[-158,-106]],[[82429,69870],[12,583],[-332,408],[-775,538],[7,652],[-125,86]],[[81216,72137],[253,645],[118,771],[285,263],[428,810],[186,559],[841,462],[45,496],[382,345],[417,-223],[273,-528],[334,-217],[642,-137],[1156,62],[642,-418],[205,-504],[498,-550],[56,-779],[410,-252],[-9,-1460],[216,-291],[142,-800],[-99,-11],[45,-978],[87,-14],[-26,-1041],[-926,-760]],[[87817,67587],[-380,-590],[-773,-827],[-444,-888],[-392,-443]],[[85828,64839],[-409,42]],[[85828,64839],[509,-595],[862,-816],[1056,-613],[217,-537],[539,-528],[-318,-501],[-777,-1554],[-246,-911],[-334,-389],[-174,-478],[-272,-244],[-162,-839]],[[86728,56834],[-43,-54]],[[89330,51148],[-111,-581],[-567,-1016],[-483,107]],[[88169,49658],[-86,488],[-297,-221],[-633,496]],[[86728,56834],[1053,-1057],[506,-1269],[502,-741],[-433,-241],[342,-614],[743,-461],[110,-424],[-329,-753],[108,-126]],[[90423,47525],[-997,-307],[-394,87]],[[89032,47305],[-400,636],[-303,872],[-160,845]],[[89330,51148],[1576,-1248],[-377,-1618],[-106,-757]],[[76539,66070],[-58,534],[-484,798],[-340,972],[-288,220],[-7,328]],[[75362,68922],[86,395],[583,543],[136,910],[-225,7],[73,1092],[-130,277]],[[75885,72146],[281,531],[18,417],[468,531],[626,527]],[[77278,74152],[307,-86],[1144,531],[472,-107],[431,-276],[539,-696],[476,-933],[569,-448]],[[33046,52832],[499,-1297],[349,-1520],[-243,-882],[-1339,-1450],[-737,-214],[-578,286],[-188,292]],[[30809,48047],[18,1193],[-152,404],[1,1014],[-88,-14],[63,992],[-285,652]],[[30366,52288],[353,136],[330,419],[100,434],[186,0]],[[30352,60612],[-283,108],[-131,400],[-299,112]],[[29639,61232],[-314,163],[-705,-15],[-255,-192]],[[28365,61188],[-21,352],[-271,235],[-135,791],[-601,1520],[-40,309]],[[27297,64395],[229,53],[443,958],[-39,1312],[-541,812],[-379,233],[714,1294],[745,348],[542,-44]],[[27154,64351],[143,44]],[[28365,61188],[-1167,-163],[-315,-238]],[[26883,60787],[-128,125],[137,543],[-978,400],[-80,298],[-415,414],[-709,336],[-999,828],[-316,462]],[[23433,67217],[1240,429],[986,-355],[228,-595],[-62,-1068],[179,-851],[212,-376],[281,-116],[657,66]],[[26888,58147],[-23,-769],[-349,-676],[-88,-552],[-603,-603],[2,-267],[-330,-264],[-159,-471],[-195,-43]],[[26883,60787],[-12,-351],[-541,-82],[-82,-359],[292,-344],[-1,-769],[275,-88],[74,-647]],[[29639,61232],[-248,-364],[-77,-671],[-178,-149],[-220,-1111],[-136,-9],[-13,-917],[-95,-172]],[[28672,57839],[-1705,138],[-79,170]],[[28672,57839],[-127,-870],[-128,-148],[-186,-1795],[149,-151],[-4,-716],[838,-688],[470,-562]],[[29684,52909],[-358,-174],[-663,-550],[-505,-88],[-222,-348],[-699,-25],[-222,162],[-585,-173]],[[30809,48047],[-50,-1517],[-377,-948]],[[30382,45582],[-212,116],[-963,39],[-58,800],[-160,3],[-133,649],[-537,502],[-437,82],[-57,318],[1446,-48],[1538,4]],[[30812,38982],[-7,108],[752,66],[348,1118],[343,609],[135,821],[-642,2032],[-201,301],[-100,865],[-623,341]],[[30817,45243],[-435,339]],[[28272,40558],[147,720],[0,1076],[-210,1109],[-809,443]],[[27400,43906],[409,388],[772,82],[1865,35],[371,832]],[[24077,38625],[240,398],[72,459],[268,214],[8,408],[353,320],[215,651],[35,943],[189,230],[122,1181],[355,492],[162,552]],[[26478,44349],[630,-152],[292,-291]],[[22921,39230],[135,242],[-30,1251],[-258,178],[-80,716],[239,1065],[349,394],[216,672]],[[23492,43748],[445,268],[104,316],[1748,19],[276,233]],[[20771,44779],[367,-47],[200,34],[0,-53],[269,15],[337,-236],[909,-298],[639,-446]],[[20916,38757],[-706,62],[-828,274]],[[19382,39093],[262,1244],[233,169],[87,728],[398,537],[-21,1588],[-474,399],[-18,356],[558,381],[298,0],[69,107],[-3,177]],[[20771,44779],[55,12]],[[20826,44791],[88,98],[-33,1870],[176,375]],[[19382,39093],[-828,57],[-327,-173],[-640,6],[-377,-349],[-376,0],[-368,-380]],[[16466,38254],[-333,133],[-229,392],[-237,1073]],[[15667,39852],[41,635],[495,242],[-73,713],[276,351],[-77,1286],[-155,-11],[66,1105]],[[16240,44173],[1024,-144],[1336,369],[670,38],[492,-468],[85,151],[558,378],[298,0],[69,108],[-3,177],[57,9]],[[16466,38254],[485,-1271],[313,-226],[0,665],[167,-115],[126,-1011],[-19,-568],[489,-500],[239,-1058],[1,-461],[-246,-807],[62,-1084]],[[13087,32085],[-346,849],[-159,1499],[-418,792],[-12,568]],[[12152,35793],[59,309]],[[12211,36102],[588,954],[1,1054],[-122,384],[18,686]],[[12696,39180],[1042,30],[201,307],[647,346],[1081,-11]],[[12211,36102],[-466,571],[-688,-6],[-596,1041],[-414,414],[-65,626]],[[11130,40255],[470,-217],[985,-92],[211,-423],[-100,-343]],[[15455,46140],[171,-530],[333,-398],[281,-1039]],[[8825,38672],[-460,-967],[82,-999],[349,-815],[339,-220]],[[9135,35671],[-354,-255],[-442,-84],[-602,-329],[-73,-865],[-183,-515]],[[7481,33623],[-1657,184],[-243,115],[-843,773],[-354,424],[-33,510],[323,177],[441,-81],[100,1267],[139,31],[95,2428],[-80,195],[1415,-176],[1161,294]],[[12152,35793],[-680,-5],[-605,322],[-253,-564],[-1479,125]],[[7840,32433],[-359,1190]],[[75885,72146],[-369,140]],[[75516,72286],[-207,616],[-309,298],[-1209,603],[-367,494],[-73,832],[428,285],[344,578],[163,1164],[-348,505],[138,500],[615,75],[337,511],[340,874]],[[75368,79621],[653,-182],[-63,-232],[282,-289],[-262,-1022],[216,-714],[-132,-171],[493,-2110],[723,-749]],[[75362,68922],[-853,218],[-413,441]],[[74096,69581],[-77,578],[-339,298],[-294,1027],[374,348]],[[73760,71832],[542,454],[1214,0]],[[74096,69581],[-91,-816],[-340,-155],[-615,654]],[[73050,69264],[-431,250],[-146,525],[-458,580]],[[72015,70619],[173,396],[515,155],[278,474],[779,188]],[[72015,70619],[-438,164],[-553,630]],[[71024,71413],[-193,152],[-158,1148],[-127,14],[-178,1240],[-66,1111],[65,1120],[227,151],[59,558]],[[70653,76907],[231,670],[621,-48],[346,481],[535,285],[644,1108],[1359,17],[979,201]],[[73050,69264],[-170,-848],[-212,-481],[-353,160],[64,-395],[-344,-19],[-438,-562],[95,-637]],[[71692,66482],[-209,153],[-841,-179],[-271,305],[-568,-18],[-121,300]],[[69682,67043],[-227,578],[-14,647],[154,12],[418,1036],[15,450],[-212,536],[-504,314]],[[69312,70616],[726,183],[179,316],[666,-84],[141,382]],[[69682,67043],[-98,-156],[-16,-1124],[227,-296],[-4,-567],[-478,-980],[-54,-901],[179,-383],[288,-73],[326,-464]],[[70052,62099],[-627,-280],[-609,-30],[-153,-281]],[[66287,70560],[484,276],[281,-345],[415,-66],[214,189],[484,-189],[477,-18],[221,241],[449,-32]],[[71692,66482],[15,-411],[268,-447],[285,-166],[-86,-346],[295,2],[-99,-557],[126,-145]],[[72496,64412],[-245,-178],[-428,-713],[-430,-263],[-617,-72],[-277,-234],[6,-312],[-453,-541]],[[76312,65826],[-570,-82],[-417,-558],[-489,-1260],[-653,-646],[-231,-417]],[[73952,62863],[-190,238],[-484,157],[8,197],[-790,957]],[[73209,60590],[484,-22],[494,381],[544,-385],[123,-481],[516,-55],[134,-675],[391,219],[17,-553],[285,317],[481,-162]],[[75517,56684],[-1027,295],[-1553,1189],[-438,601]],[[72499,58769],[198,172],[206,839],[306,810]],[[73209,60590],[-78,310],[301,958],[334,80],[208,475],[-22,450]],[[72499,58769],[-543,454],[-384,67],[-424,-231],[-557,-866]],[[70591,58193],[-516,550],[-715,338]],[[70031,51488],[0,1168],[288,527],[550,1341],[56,796],[-185,1107],[56,788],[-275,516],[70,462]],[[77771,46499],[-603,-543],[-381,-164],[-166,-483]],[[76621,45309],[-222,155],[-812,-444]],[[75587,45020],[-528,249],[-1513,424],[-450,424],[-262,40],[-95,631],[56,823],[-465,573],[-31,755],[-562,272],[-785,1190],[-355,296],[-566,791]],[[70031,51488],[-2,1171],[-2364,-1162]],[[64165,51336],[-519,902],[195,944]],[[63841,53182],[-4,570],[172,150],[179,1899]],[[64188,55801],[3203,2938],[633,446]],[[77953,40603],[-50,-468],[391,-508]],[[78294,39627],[-553,-2254],[-157,-1159]],[[77584,36214],[-799,172],[-865,-68],[-884,278],[-509,-577],[-1275,123],[-45,578],[-237,570]],[[72970,37290],[680,940],[-95,151],[662,696],[68,574],[206,428],[1278,1170]],[[75769,41249],[320,-212],[369,63],[557,435],[300,-436],[638,-496]],[[77584,36214],[216,-178],[38,-653],[298,-654],[65,-1621]],[[78201,33108],[-242,-234],[-408,-867],[-274,-178]],[[71981,38594],[240,119],[226,-247],[33,-679],[490,-497]],[[74833,43771],[426,-626],[178,-561],[162,-1194],[170,-141]],[[71981,38594],[236,454],[215,2773],[-71,219],[797,-163],[592,67],[10,462],[325,389],[117,495],[264,381],[367,100]],[[76621,45309],[409,-886],[459,-423],[-17,-258],[344,-190],[95,-736],[227,-289],[68,-750],[-253,-1174]],[[74833,43771],[393,707],[-167,351],[528,191]],[[80838,39787],[626,-1218],[1130,-1635],[1040,-1639],[73,-388]],[[83707,34907],[-122,-207],[-557,-269],[-1025,-910],[-572,-416],[-395,-43],[-144,-493]],[[80892,32569],[-865,339],[-893,-57],[-778,69],[-155,188]],[[78294,39627],[365,-114],[1059,-110],[540,130],[182,231],[398,23]],[[85587,44277],[357,-28],[508,-289],[858,40]],[[87310,44000],[440,-916],[385,-1106],[94,-986],[195,-941],[308,-167],[234,-431]],[[88966,39453],[-531,-661]],[[88435,38792],[-470,-1538],[0,-377]],[[87965,36877],[-30,-173],[-731,-376],[-158,-283],[-978,-579],[-751,26],[-240,-835],[-409,-246]],[[84668,34411],[-648,418],[-313,78]],[[80838,39787],[-97,1133],[312,713],[401,270]],[[84668,34411],[255,-1392],[24,-2645],[-684,-1764]],[[81643,29081],[-320,580],[-323,1248],[-108,1660]],[[87965,36877],[1602,-408],[880,-466],[663,-53],[1064,-577],[1565,-1629],[508,-620]],[[88435,38792],[1046,-581],[1461,-220],[614,-320],[1009,79],[129,240],[596,79]],[[97710,40899],[202,-1567],[-34,-616],[189,-1230],[328,-829],[117,-593],[181,-38],[111,-826],[-100,-1762]],[[88966,39453],[736,93],[822,461],[422,-94],[1631,1500],[164,851]],[[90423,47525],[264,-622],[1110,-709],[423,-175],[697,31],[838,-544]],[[87310,44000],[345,233],[657,1732],[216,223],[620,224],[61,248],[-177,645]],[[47085,10661],[90,-922]],[[47175,9739],[-214,-894]],[[43708,11551],[1012,-271],[775,238],[569,-342],[450,-59],[571,-456]],[[47175,9739],[1382,-213],[875,153],[765,-63],[1298,76]],[[47423,14645],[6,-351],[-403,-1354],[59,-2279]],[[47421,14645],[2,0]],[[47423,14645],[953,123],[792,-46],[673,137],[394,258],[682,691],[422,631]],[[47962,15660],[644,495],[419,1044],[304,969]],[[58536,34750],[118,509],[-204,689],[-304,602],[-51,587],[-215,578],[-146,-10],[-624,552],[338,876]],[[57448,39133],[1051,-165],[1120,-968],[173,-346],[439,-313],[475,-81]],[[57448,39133],[270,1295],[115,14],[2,1146],[190,590],[52,716]],[[58077,42894],[128,324],[681,-109],[413,-271],[1767,-219],[443,389],[545,170]],[[58077,42894],[-582,300],[-701,505]],[[56794,43699],[327,1733]],[[57121,45432],[525,1507],[264,505],[1574,1033]],[[56794,43699],[-509,-89],[-609,-388],[-220,9],[-468,-521],[-94,-717]],[[52000,46612],[-19,282],[309,396],[75,361],[480,538]],[[52845,48189],[1017,172],[709,-235],[770,-565],[0,-302],[273,-469],[683,-558],[-58,-380],[208,-336],[674,-84]],[[52887,54341],[876,-794],[641,-150]],[[54404,53397],[-157,-157],[-120,-1411],[-294,-401],[-276,-1335],[-363,-627],[-123,-650],[-286,-387],[60,-240]],[[57703,54912],[1029,-1334],[700,-637]],[[54404,53397],[1088,333],[573,606],[478,275],[746,120],[414,181]],[[57703,54912],[674,642]],[[58377,55554],[454,-437],[524,-310],[259,-314],[696,-437],[832,-150],[1067,-500],[628,6],[201,-147],[803,-83]],[[59303,57708],[1170,-695],[690,-9],[93,191],[462,45],[497,-364],[713,-842],[640,-309],[620,76]],[[58377,55554],[373,1042],[121,826],[-97,338]],[[58774,57760],[529,-52]],[[53978,60885],[383,-158],[204,-299],[665,-219],[525,-408],[751,-1070],[1199,-942],[942,-192],[127,163]],[[55079,62698],[208,-736],[501,-350],[542,48],[360,-568],[461,31],[542,-528],[288,-574],[521,-81],[344,-504],[188,14]],[[59034,59450],[257,-303],[90,-882],[-78,-557]],[[59034,59450],[106,115],[105,1298],[740,245],[652,464]],[[30366,52288],[-343,153],[-7,482],[-332,-14]],[[69882,77580],[322,-194],[147,-355],[302,-124]]],"transform":{"scale":[9.899998999989916e-06,6.814768147681486e-06],"translate":[75.3281,28.898770000000003]},"objects":{"villages":{"type":"GeometryCollection","geometries":[{"arcs":[[0,1,2]],"type":"Polygon","properties":{"n":"Kheri Roj (72)","c":61029,"d":"Hisar","s":"HARYANA"}},{"arcs":[[3,4,5,6,7,8,9,10]],"type":"Polygon","properties":{"n":"Kaimri(165)","c":60952,"d":"Hisar","s":"HARYANA"}},{"arcs":[[11,12,13,14]],"type":"Polygon","properties":{"n":"Mirpur(55)","c":60878,"d":"Hisar","s":"HARYANA"}},{"arcs":[[15,16,17,18,19,20,21]],"type":"Polygon","properties":{"n":"Kherampur(21)","c":60843,"d":"Hisar","s":"HARYANA"}},{"arcs":[[22,23,24,25,26]],"type":"Polygon","properties":{"n":"Khara Barwala(33)","c":60845,"d":"Hisar","s":"HARYANA"}},{"arcs":[[27,28,29,30,31]],"type":"Polygon","properties":{"n":"Gorchhi(20)","c":60919,"d":"Hisar","s":"HARYANA"}},{"arcs":[[32,33,34,35,36]],"type":"Polygon","properties":{"n":"Sundawas(48)","c":60904,"d":"Hisar","s":"HARYANA"}},{"arcs":[[37,38,39,-33,40]],"type":"Polygon","properties":{"n":"Bhiwani Ruhelan(50)","c":60917,"d":"Hisar","s":"HARYANA"}},{"arcs":[[-24,41,42,43,44,45]],"type":"Polygon","properties":{"n":"Mohabatpur(175)","c":60847,"d":"Hisar","s":"HARYANA"}},{"arcs":[[46,-42,-23,47,-17,48,49]],"type":"Polygon","properties":{"n":"Adampur (CT)","c":60865,"d":"Hisar","s":"HARYANA"}},{"arcs":[[-49,-16,50,51,52]],"type":"Polygon","properties":{"n":"Kohli(35)","c":60844,"d":"Hisar","s":"HARYANA"}},{"arcs":[[-52,53,54,55]],"type":"Polygon","properties":{"n":"Mahalsara(40)","c":60853,"d":"Hisar","s":"HARYANA"}},{"arcs":[[56,57,58,-55,59]],"type":"Polygon","properties":{"n":"Mothsara(221)","c":60854,"d":"Hisar","s":"HARYANA"}},{"arcs":[[-59,60,61,62,-50,-53,-56]],"type":"Polygon","properties":{"n":"Ladwi(41)","c":60852,"d":"Hisar","s":"HARYANA"}},{"arcs":[[63,64,65,66]],"type":"Polygon","properties":{"n":"Chikanwas(144)","c":60872,"d":"Hisar","s":"HARYANA"}},{"arcs":[[-67,67,68,-15,69,70,71]],"type":"Polygon","properties":{"n":"Landhari Sukh Lambran(140)","c":60874,"d":"Hisar","s":"HARYANA"}},{"arcs":[[72,73,74,75,76,-61,-58]],"type":"Polygon","properties":{"n":"Malapur(43)","c":60861,"d":"Hisar","s":"HARYANA"}},{"arcs":[[77,78,-71]],"type":"Polygon","properties":{"n":"Thaska(139)","c":60873,"d":"Hisar","s":"HARYANA"}},{"arcs":[[79,-78,-70,-14,80,81,82]],"type":"Polygon","properties":{"n":"Nang Thala(138)","c":60879,"d":"Hisar","s":"HARYANA"}},{"arcs":[[83,-83,84,85,86]],"type":"Polygon","properties":{"n":"Shamsukh(136)","c":60888,"d":"Hisar","s":"HARYANA"}},{"arcs":[[87,-38,88,89,90,91,-32]],"type":"Polygon","properties":{"n":"Rawalwas Kalan(51)","c":60916,"d":"Hisar","s":"HARYANA"}},{"arcs":[[92,93,94,-28,-92,95]],"type":"Polygon","properties":{"n":"Panihar Chak(17)","c":60914,"d":"Hisar","s":"HARYANA"}},{"arcs":[[96,97,98,99]],"type":"Polygon","properties":{"n":"Chiraud(14)","c":60929,"d":"Hisar","s":"HARYANA"}},{"arcs":[[100,101,102,103]],"type":"Polygon","properties":{"n":"Payal(12)","c":60927,"d":"Hisar","s":"HARYANA"}},{"arcs":[[104,-104,105,106]],"type":"Polygon","properties":{"n":"Chandnaud(11)","c":60926,"d":"Hisar","s":"HARYANA"}},{"arcs":[[107,108,-107,109,110,111,112]],"type":"Polygon","properties":{"n":"Harita (9)","c":60937,"d":"Hisar","s":"HARYANA"}},{"arcs":[[113,-111,114]],"type":"Polygon","properties":{"n":"Bharri(8)","c":60939,"d":"Hisar","s":"HARYANA"}},{"arcs":[[-108,115,116,117,118]],"type":"Polygon","properties":{"n":"Bure(4)","c":60936,"d":"Hisar","s":"HARYANA"}},{"arcs":[[119,-115,-110,-106,-103,120,121,122]],"type":"Polygon","properties":{"n":"Daha(10)","c":60925,"d":"Hisar","s":"HARYANA"}},{"arcs":[[123,124,125,126]],"type":"Polygon","properties":{"n":"Satrod Khurd (155) (CT)","c":61016,"d":"Hisar","s":"HARYANA"}},{"arcs":[[127,128,129,130,-124,131,132,133]],"type":"Polygon","properties":{"n":"Mirzapur(63)","c":60958,"d":"Hisar","s":"HARYANA"}},{"arcs":[[134,135,-129,136]],"type":"Polygon","properties":{"n":"Nayana(148)","c":60959,"d":"Hisar","s":"HARYANA"}},{"arcs":[[137,138,139,140,-6]],"type":"Polygon","properties":{"n":"Mirka(163)","c":60953,"d":"Hisar","s":"HARYANA"}},{"arcs":[[141,142,143,144,-7,-141]],"type":"Polygon","properties":{"n":"GANDHaNAGAR","c":0,"d":"Hisar","s":"HARYANA"}},{"arcs":[[-140,145,146,-142]],"type":"Polygon","properties":{"n":"MANGALI BRAHMNAN","c":0,"d":"Hisar","s":"HARYANA"}},{"arcs":[[147,148,149,150,151,152,153]],"type":"Polygon","properties":{"n":"Bhojraj(62)","c":60941,"d":"Hisar","s":"HARYANA"}},{"arcs":[[154,-152]],"type":"Polygon","properties":{"n":"Mangali Brahmnan(162)","c":60949,"d":"Hisar","s":"HARYANA"}},{"arcs":[[155,156,157,-154,158,159,160]],"type":"Polygon","properties":{"n":"Dahima(157)","c":60944,"d":"Hisar","s":"HARYANA"}},{"arcs":[[161,162,163,164,-156,165,166]],"type":"Polygon","properties":{"n":"Sultanpur(138)","c":61073,"d":"Hisar","s":"HARYANA"}},{"arcs":[[167,168,169,170,171]],"type":"Polygon","properties":{"n":"Kirtan(46)","c":60898,"d":"Hisar","s":"HARYANA"}},{"arcs":[[172,173,-89,-41,-37,174,-170]],"type":"Polygon","properties":{"n":"Siswala(49)","c":60905,"d":"Hisar","s":"HARYANA"}},{"arcs":[[175,176]],"type":"Polygon","properties":{"n":"Bir Hansi((120)","c":61080,"d":"Hisar","s":"HARYANA"}},{"arcs":[[177,-166,178,179,180]],"type":"Polygon","properties":{"n":"Bhagana(152)","c":60946,"d":"Hisar","s":"HARYANA"}},{"arcs":[[181,182,183,184,185]],"type":"Polygon","properties":{"n":"Kharbla(99)","c":61092,"d":"Hisar","s":"HARYANA"}},{"arcs":[[186,187,188,189,190,-176,191]],"type":"Polygon","properties":{"n":"Sheikhpura(121)","c":61081,"d":"Hisar","s":"HARYANA"}},{"arcs":[[192,193,194,195,196]],"type":"Polygon","properties":{"n":"Mehanda(129)","c":61088,"d":"Hisar","s":"HARYANA"}},{"arcs":[[197,198,199,200]],"type":"Polygon","properties":{"n":"Singhwa Ragho(23)","c":61056,"d":"Hisar","s":"HARYANA"}},{"arcs":[[201,202,203]],"type":"Polygon","properties":{"n":"Khera Rangran (63)","c":61106,"d":"Hisar","s":"HARYANA"}},{"arcs":[[204,205,206,207,208,-202]],"type":"Polygon","properties":{"n":"Mohla (62)","c":61107,"d":"Hisar","s":"HARYANA"}},{"arcs":[[209,210]],"type":"Polygon","properties":{"n":"Ghuskani(64)","c":61104,"d":"Hisar","s":"HARYANA"}},{"arcs":[[211,212,213,214,215,216,217]],"type":"Polygon","properties":{"n":"Balak(130)","c":60977,"d":"Hisar","s":"HARYANA"}},{"arcs":[[218,219,220,221,222,-218,223,224]],"type":"Polygon","properties":{"n":"Khedar(127)","c":60978,"d":"Hisar","s":"HARYANA"}},{"arcs":[[225,-225,226,227]],"type":"Polygon","properties":{"n":"Isharheri(126)","c":60979,"d":"Hisar","s":"HARYANA"}},{"arcs":[[228,229,-219,-226,230]],"type":"Polygon","properties":{"n":"Bhaini Badshahpur(125)","c":61001,"d":"Hisar","s":"HARYANA"}},{"arcs":[[-228,231,232,233,234,235,-231]],"type":"Polygon","properties":{"n":"Daulatpur(124)","c":61003,"d":"Hisar","s":"HARYANA"}},{"arcs":[[-229,-236,236,237]],"type":"Polygon","properties":{"n":"Nawagaon(123)","c":61000,"d":"Hisar","s":"HARYANA"}},{"arcs":[[238,239,240,-237,-235,241,242,243]],"type":"Polygon","properties":{"n":"Gaibipur(122)","c":60999,"d":"Hisar","s":"HARYANA"}},{"arcs":[[244,245,246,-244]],"type":"Polygon","properties":{"n":"Kallar Bhaini(119)","c":61012,"d":"Hisar","s":"HARYANA"}},{"arcs":[[-239,-247,247,248,249]],"type":"Polygon","properties":{"n":"Bobua(120)","c":60995,"d":"Hisar","s":"HARYANA"}},{"arcs":[[-240,-250,250,251,252]],"type":"Polygon","properties":{"n":"Kharkhara(121)","c":60998,"d":"Hisar","s":"HARYANA"}},{"arcs":[[253,-252,254,255,256]],"type":"Polygon","properties":{"n":"Sarera(73)","c":60997,"d":"Hisar","s":"HARYANA"}},{"arcs":[[257,258,259,260,261,262]],"type":"Polygon","properties":{"n":"Kinnar(5)","c":61024,"d":"Hisar","s":"HARYANA"}},{"arcs":[[263,264,-263,265]],"type":"Polygon","properties":{"n":"Gandas (6)","c":61023,"d":"Hisar","s":"HARYANA"}},{"arcs":[[266,267,268,-258,-265]],"type":"Polygon","properties":{"n":"Nara (4)","c":61025,"d":"Hisar","s":"HARYANA"}},{"arcs":[[269,270,-261,271,272,273]],"type":"Polygon","properties":{"n":"Kheri Lochap (77)","c":61031,"d":"Hisar","s":"HARYANA"}},{"arcs":[[274,275,-1,276,277,-272,-260]],"type":"Polygon","properties":{"n":"Rakhi Khas (76)","c":61030,"d":"Hisar","s":"HARYANA"}},{"arcs":[[278,279,280]],"type":"Polygon","properties":{"n":"Gamra (80)","c":61034,"d":"Hisar","s":"HARYANA"}},{"arcs":[[-223,281,-212]],"type":"Polygon","properties":{"n":"DHANDHIL","c":0,"d":"Hisar","s":"HARYANA"}},{"arcs":[[-85,-82,282,283,284,285]],"type":"Polygon","properties":{"n":"Sandol(137)","c":60885,"d":"Hisar","s":"HARYANA"}},{"arcs":[[-86,-286,286,-215,287,288]],"type":"Polygon","properties":{"n":"Kirori(135)","c":60886,"d":"Hisar","s":"HARYANA"}},{"arcs":[[289,-87,-289,290,291]],"type":"Polygon","properties":{"n":"Kirara(134)","c":60887,"d":"Hisar","s":"HARYANA"}},{"arcs":[[292,293,-292,294]],"type":"Polygon","properties":{"n":"Kheri Barki(133)","c":60974,"d":"Hisar","s":"HARYANA"}},{"arcs":[[295,-295,-291,-288,-214,296,297]],"type":"Polygon","properties":{"n":"Jeora(132)","c":60975,"d":"Hisar","s":"HARYANA"}},{"arcs":[[-297,-213,-282,-222,298,299]],"type":"Polygon","properties":{"n":"Bichpari(131)","c":60976,"d":"Hisar","s":"HARYANA"}},{"arcs":[[300,301,302,303,-299,-221,304]],"type":"Polygon","properties":{"n":"Sarsod(129)","c":60973,"d":"Hisar","s":"HARYANA"}},{"arcs":[[305,306,-130,-136,307]],"type":"Polygon","properties":{"n":"Kharar(149)","c":60956,"d":"Hisar","s":"HARYANA"}},{"arcs":[[308,309,310,-181,311,-306]],"type":"Polygon","properties":{"n":"Mayyer (151) (CT)","c":61019,"d":"Hisar","s":"HARYANA"}},{"arcs":[[312,-125,-131,-307,-312,-180,313]],"type":"Polygon","properties":{"n":"Satrod Kalan(153) (CT)","c":61018,"d":"Hisar","s":"HARYANA"}},{"arcs":[[-146,-139,314,-314,-179,-161,315,316]],"type":"Polygon","properties":{"n":"Ladwa (156)","c":60947,"d":"Hisar","s":"HARYANA"}},{"arcs":[[-160,317,-316]],"type":"Polygon","properties":{"n":"MANGALI BRAHMNAN","c":0,"d":"Hisar","s":"HARYANA"}},{"arcs":[[318,319,320,321,322,323,324]],"type":"Polygon","properties":{"n":"Arya Nagar(57)","c":60891,"d":"Hisar","s":"HARYANA"}},{"arcs":[[-325,325,326]],"type":"Polygon","properties":{"n":"Ludas(167)","c":60892,"d":"Hisar","s":"HARYANA"}},{"arcs":[[327,328,-326,-324,329,330,331]],"type":"Polygon","properties":{"n":"Shahpur(168)","c":60894,"d":"Hisar","s":"HARYANA"}},{"arcs":[[332,333,334,-331]],"type":"Polygon","properties":{"n":"Nathwana(55)","c":60907,"d":"Hisar","s":"HARYANA"}},{"arcs":[[335,336,337,-90,-174,-334]],"type":"Polygon","properties":{"n":"Rawalwas Khurd(52)","c":60906,"d":"Hisar","s":"HARYANA"}},{"arcs":[[-323,338,-336,-333,-330]],"type":"Polygon","properties":{"n":"Hindwan (56)","c":60908,"d":"Hisar","s":"HARYANA"}},{"arcs":[[339,340,-94,341,342]],"type":"Polygon","properties":{"n":"Bherian(16)","c":60913,"d":"Hisar","s":"HARYANA"}},{"arcs":[[-96,-91,-338,343]],"type":"Polygon","properties":{"n":"Dhiran Was(53)","c":60915,"d":"Hisar","s":"HARYANA"}},{"arcs":[[344,345,-342,-93,-344,-337,-339,-322]],"type":"Polygon","properties":{"n":"Patan(54)","c":60909,"d":"Hisar","s":"HARYANA"}},{"arcs":[[-321,346,347,348,-345]],"type":"Polygon","properties":{"n":"Tokas(58)","c":60910,"d":"Hisar","s":"HARYANA"}},{"arcs":[[349,350,-343,-346,-349]],"type":"Polygon","properties":{"n":"Muklan(59)","c":60912,"d":"Hisar","s":"HARYANA"}},{"arcs":[[351,352,353,354,-257]],"type":"Polygon","properties":{"n":"Badhawar(19)","c":60981,"d":"Hisar","s":"HARYANA"}},{"arcs":[[355,356,357,-353,358]],"type":"Polygon","properties":{"n":"Dhadh(18)","c":60982,"d":"Hisar","s":"HARYANA"}},{"arcs":[[359,-298,-300,-304,360,361]],"type":"Polygon","properties":{"n":"BADON","c":0,"d":"Hisar","s":"HARYANA"}},{"arcs":[[362,-361,-303,363,364]],"type":"Polygon","properties":{"n":"Badon Pati Doyan (68)","c":60967,"d":"Hisar","s":"HARYANA"}},{"arcs":[[365,366,367,368,-365]],"type":"Polygon","properties":{"n":"Bugana(71)","c":60969,"d":"Hisar","s":"HARYANA"}},{"arcs":[[369,370,371]],"type":"Polygon","properties":{"n":"Talwandi Rana (65)","c":60963,"d":"Hisar","s":"HARYANA"}},{"arcs":[[-293,-296,-360,372,373,374]],"type":"Polygon","properties":{"n":"Bahbalpur(67)","c":60966,"d":"Hisar","s":"HARYANA"}},{"arcs":[[-126,-313,-315,-138,-5,375]],"type":"Polygon","properties":{"n":"Dabra(164)","c":60954,"d":"Hisar","s":"HARYANA"}},{"arcs":[[376,-11,377,-347,-320]],"type":"Polygon","properties":{"n":"Gangwa (166) (CT)","c":61015,"d":"Hisar","s":"HARYANA"}},{"arcs":[[378,-350,-348,-378,-10,379]],"type":"Polygon","properties":{"n":"Dewe(60)","c":60911,"d":"Hisar","s":"HARYANA"}},{"arcs":[[-379,380,381,-97,382,-340,-351]],"type":"Polygon","properties":{"n":"Kaluwas(15)","c":60922,"d":"Hisar","s":"HARYANA"}},{"arcs":[[-380,-9,383,384,385,-381]],"type":"Polygon","properties":{"n":"Singhran(219)","c":60923,"d":"Hisar","s":"HARYANA"}},{"arcs":[[386,-373,-362,-363,-369,387]],"type":"Polygon","properties":{"n":"Dhingtana(70)","c":60965,"d":"Hisar","s":"HARYANA"}},{"arcs":[[-385,-144,388,389]],"type":"Polygon","properties":{"n":"Mangali Jhara(160)","c":60924,"d":"Hisar","s":"HARYANA"}},{"arcs":[[390,-122,391,-98,-382,-386,-390]],"type":"Polygon","properties":{"n":"Mangali Akalan(161)","c":60950,"d":"Hisar","s":"HARYANA"}},{"arcs":[[392]],"type":"Polygon","properties":{"n":"Mangali Mohbat(158)","c":60943,"d":"Hisar","s":"HARYANA"}},{"arcs":[[-317,-318,-159,-153,-155,-151,393,-123,-391,-389,-143,-147],[-393]],"type":"Polygon","properties":{"n":"Mangali Surtia(159)","c":60942,"d":"Hisar","s":"HARYANA"}},{"arcs":[[394,395,-197,396,-198,397,398]],"type":"Polygon","properties":{"n":"Masoodpur(85)","c":61058,"d":"Hisar","s":"HARYANA"}},{"arcs":[[399,-187,400,-193,-396,401]],"type":"Polygon","properties":{"n":"Sisai Bola(108)","c":61062,"d":"Hisar","s":"HARYANA"}},{"arcs":[[-276,402,403,404,-2]],"type":"Polygon","properties":{"n":"Milakpur (74)","c":61027,"d":"Hisar","s":"HARYANA"}},{"arcs":[[405,406,407,408,409]],"type":"Polygon","properties":{"n":"Narnaund (MC)","c":800406,"d":"Hisar","s":"HARYANA"}},{"arcs":[[410,411,-277,-3,-405,412,413,-407]],"type":"Polygon","properties":{"n":"Budana (89)","c":61036,"d":"Hisar","s":"HARYANA"}},{"arcs":[[-280,414,415,-273,-278,-412,416]],"type":"Polygon","properties":{"n":"Rakhi Shahpur (81)","c":61035,"d":"Hisar","s":"HARYANA"}},{"arcs":[[-374,-387,417,-372,418]],"type":"Polygon","properties":{"n":"Juglan(66)","c":60964,"d":"Hisar","s":"HARYANA"}},{"arcs":[[-388,-368,419,-133,420,-370,-418]],"type":"Polygon","properties":{"n":"Dhansu(64)","c":60962,"d":"Hisar","s":"HARYANA"}},{"arcs":[[421,422,423,424]],"type":"Polygon","properties":{"n":"Depal (118)","c":61070,"d":"Hisar","s":"HARYANA"}},{"arcs":[[425,426,-423,427,-310,428]],"type":"Polygon","properties":{"n":"Kutabpur(115)","c":61069,"d":"Hisar","s":"HARYANA"}},{"arcs":[[-422,429,-167,-178,-311,-428]],"type":"Polygon","properties":{"n":"Dhanderi(117)","c":61072,"d":"Hisar","s":"HARYANA"}},{"arcs":[[430,431,432,433,434]],"type":"Polygon","properties":{"n":"Khar Khara(127)","c":61085,"d":"Hisar","s":"HARYANA"}},{"arcs":[[435,436,437,-245,-243,438,439]],"type":"Polygon","properties":{"n":"Parbhuwala(116)","c":61011,"d":"Hisar","s":"HARYANA"}},{"arcs":[[-242,-234,440,441,442,-439]],"type":"Polygon","properties":{"n":"Bhairi Akbarpur(114)","c":61006,"d":"Hisar","s":"HARYANA"}},{"arcs":[[443,-211,444,445,446,447]],"type":"Polygon","properties":{"n":"Dharam Kheri(65)","c":61103,"d":"Hisar","s":"HARYANA"}},{"arcs":[[-447,448,449]],"type":"Polygon","properties":{"n":"Jamni Khera(66)","c":61102,"d":"Hisar","s":"HARYANA"}},{"arcs":[[450,451,-206,452]],"type":"Polygon","properties":{"n":"Bad Chhapar (61)","c":61108,"d":"Hisar","s":"HARYANA"}},{"arcs":[[-207,-452,453,454,455]],"type":"Polygon","properties":{"n":"Puthi Saman (60)","c":61109,"d":"Hisar","s":"HARYANA"}},{"arcs":[[-455,456,457,458]],"type":"Polygon","properties":{"n":"Singhwa Khas (59)","c":61112,"d":"Hisar","s":"HARYANA"}},{"arcs":[[-458,459,460,-183,461]],"type":"Polygon","properties":{"n":"Madan Heri (58)","c":61111,"d":"Hisar","s":"HARYANA"}},{"arcs":[[-461,462,463,464,-184]],"type":"Polygon","properties":{"n":"Sisar(100)","c":61091,"d":"Hisar","s":"HARYANA"}},{"arcs":[[-464,465,466,467]],"type":"Polygon","properties":{"n":"Sorkhi(130)","c":61089,"d":"Hisar","s":"HARYANA"}},{"arcs":[[468,-467,469,470,-431]],"type":"Polygon","properties":{"n":"Garhi(139)","c":61087,"d":"Hisar","s":"HARYANA"}},{"arcs":[[-189,471,-433,472]],"type":"Polygon","properties":{"n":"Jamawari(122)","c":61083,"d":"Hisar","s":"HARYANA"}},{"arcs":[[-432,-471,473,474,-190,-473]],"type":"Polygon","properties":{"n":"Dhana(128)","c":61086,"d":"Hisar","s":"HARYANA"}},{"arcs":[[-192,-177,-191,-475,475,476,477,478,-424,-427,479,480,-194,-401]],"type":"Polygon","properties":{"n":"Hansi (M Cl)","c":800407,"d":"Hisar","s":"HARYANA"}},{"arcs":[[481,482,-477]],"type":"Polygon","properties":{"n":"Hajampur(135)","c":61079,"d":"Hisar","s":"HARYANA"}},{"arcs":[[-483,483,484,-478]],"type":"Polygon","properties":{"n":"Putthi Mangalkhan(136)","c":61078,"d":"Hisar","s":"HARYANA"}},{"arcs":[[-485,485,486,-162,-430,-425,-479]],"type":"Polygon","properties":{"n":"Umra(137)","c":61077,"d":"Hisar","s":"HARYANA"}},{"arcs":[[487,488,489,490,-163,-487]],"type":"Polygon","properties":{"n":"Majod(111)","c":61065,"d":"Hisar","s":"HARYANA"}},{"arcs":[[-489,491,492,493]],"type":"Polygon","properties":{"n":"Nalwa(33)","c":60934,"d":"Hisar","s":"HARYANA"}},{"arcs":[[-493,494,495,-117,496,497]],"type":"Polygon","properties":{"n":"Dobeta(5)","c":60933,"d":"Hisar","s":"HARYANA"}},{"arcs":[[-496,498,499,-118]],"type":"Polygon","properties":{"n":"Saharwa(3)","c":60932,"d":"Hisar","s":"HARYANA"}},{"arcs":[[-101,-105,-109,-119,-500,500,501,502]],"type":"Polygon","properties":{"n":"Talwandi Rukka(2)","c":60931,"d":"Hisar","s":"HARYANA"}},{"arcs":[[-502,503,504]],"type":"Polygon","properties":{"n":"Talwandi Badshahpur(1)","c":60930,"d":"Hisar","s":"HARYANA"}},{"arcs":[[-121,-102,-503,-505,505,506,-99,-392]],"type":"Polygon","properties":{"n":"Rawat Khera(13)","c":60928,"d":"Hisar","s":"HARYANA"}},{"arcs":[[-383,-100,-507,507,508,-29,-95,-341]],"type":"Polygon","properties":{"n":"Chaudhriwas(18)","c":60921,"d":"Hisar","s":"HARYANA"}},{"arcs":[[-509,509,510,-30]],"type":"Polygon","properties":{"n":"Gawar(19)","c":60920,"d":"Hisar","s":"HARYANA"}},{"arcs":[[-88,-31,-511,511,512,-39]],"type":"Polygon","properties":{"n":"Sarsana(21)","c":60918,"d":"Hisar","s":"HARYANA"}},{"arcs":[[-34,-40,-513,513,514,515,516]],"type":"Polygon","properties":{"n":"Balsmand(22)","c":60903,"d":"Hisar","s":"HARYANA"}},{"arcs":[[-515,517,518]],"type":"Polygon","properties":{"n":"Burak(23)","c":60902,"d":"Hisar","s":"HARYANA"}},{"arcs":[[-45,519,520,521,522]],"type":"Polygon","properties":{"n":"Moda Khera(31)","c":60848,"d":"Hisar","s":"HARYANA"}},{"arcs":[[523,524,525,526,527,-521]],"type":"Polygon","properties":{"n":"Ghursal(30)","c":60866,"d":"Hisar","s":"HARYANA"}},{"arcs":[[-25,-46,-523,528,529,530]],"type":"Polygon","properties":{"n":"Daroli(32)","c":60846,"d":"Hisar","s":"HARYANA"}},{"arcs":[[-530,531,532,533]],"type":"Polygon","properties":{"n":"Chuli Kalan(7)","c":60838,"d":"Hisar","s":"HARYANA"}},{"arcs":[[-533,534,535]],"type":"Polygon","properties":{"n":"Chuli Khurd(6)","c":60837,"d":"Hisar","s":"HARYANA"}},{"arcs":[[-26,-531,-534,-536,536,537]],"type":"Polygon","properties":{"n":"Chuli Bagarian(8)","c":60839,"d":"Hisar","s":"HARYANA"}},{"arcs":[[538,-18,-48,-27,-538,539,540,541]],"type":"Polygon","properties":{"n":"Sadelpur(20)","c":60841,"d":"Hisar","s":"HARYANA"}},{"arcs":[[-541,542]],"type":"Polygon","properties":{"n":"Chabbarwal(19)","c":60840,"d":"Hisar","s":"HARYANA"}},{"arcs":[[-19,-539,543,544]],"type":"Polygon","properties":{"n":"Bhodia Khera Bishnoian(25)","c":60842,"d":"Hisar","s":"HARYANA"}},{"arcs":[[545,-20,-545,546]],"type":"Polygon","properties":{"n":"Bhana(24)","c":60858,"d":"Hisar","s":"HARYANA"}},{"arcs":[[547,548,-21,-546,549]],"type":"Polygon","properties":{"n":"Sarangpur(22)","c":60857,"d":"Hisar","s":"HARYANA"}},{"arcs":[[550,-283,-81,-13,551,552,553,554]],"type":"Polygon","properties":{"n":"Kuleri(56)","c":60880,"d":"Hisar","s":"HARYANA"}},{"arcs":[[555,-554,556]],"type":"Polygon","properties":{"n":"Sabarwas(92)","c":60881,"d":"Hisar","s":"HARYANA"}},{"arcs":[[557,-555,-556,558]],"type":"Polygon","properties":{"n":"Samani(53)","c":60882,"d":"Hisar","s":"HARYANA"}},{"arcs":[[559,560,-284,-551,-558]],"type":"Polygon","properties":{"n":"Kirmara(57)","c":60883,"d":"Hisar","s":"HARYANA"}},{"arcs":[[561,-216,-287,-285,-561,562]],"type":"Polygon","properties":{"n":"Kanoh(58)","c":60884,"d":"Hisar","s":"HARYANA"}},{"arcs":[[563,-232,-227,-224,-217,-562,564,565]],"type":"Polygon","properties":{"n":"Pabra(65)","c":61002,"d":"Hisar","s":"HARYANA"}},{"arcs":[[566,-566,567]],"type":"Polygon","properties":{"n":"Chamar Khera(67)","c":61004,"d":"Hisar","s":"HARYANA"}},{"arcs":[[568,-441,-233,-564,-567,569]],"type":"Polygon","properties":{"n":"Sahu (66)","c":61005,"d":"Hisar","s":"HARYANA"}},{"arcs":[[570,571,-442,-569,572]],"type":"Polygon","properties":{"n":"Uklana Mandi (CT)","c":61014,"d":"Hisar","s":"HARYANA"}},{"arcs":[[573,-571,574]],"type":"Polygon","properties":{"n":"Bithmara(85)","c":61009,"d":"Hisar","s":"HARYANA"}},{"arcs":[[575,-440,-443,-572,-574]],"type":"Polygon","properties":{"n":"Budha Khera(115)","c":61007,"d":"Hisar","s":"HARYANA"}},{"arcs":[[576,-437,577]],"type":"Polygon","properties":{"n":"Latani(117)","c":61013,"d":"Hisar","s":"HARYANA"}},{"arcs":[[578,579,-248,-246,-438,-577]],"type":"Polygon","properties":{"n":"Hasangarh(118)","c":60994,"d":"Hisar","s":"HARYANA"}},{"arcs":[[580,-580,581]],"type":"Polygon","properties":{"n":"Kumbha Khera(75)","c":60993,"d":"Hisar","s":"HARYANA"}},{"arcs":[[582,-267,-264,583,584]],"type":"Polygon","properties":{"n":"Koth Kalan (2)","c":61021,"d":"Hisar","s":"HARYANA"}},{"arcs":[[585,586,-268,-583]],"type":"Polygon","properties":{"n":"Koth Khurd (3)","c":61022,"d":"Hisar","s":"HARYANA"}},{"arcs":[[587,588,-403,-275,-259,-269,-587]],"type":"Polygon","properties":{"n":"Mirchpur (75)","c":61026,"d":"Hisar","s":"HARYANA"}},{"arcs":[[589,590,-413,-404,-589,591]],"type":"Polygon","properties":{"n":"Raj Thal (70)","c":61038,"d":"Hisar","s":"HARYANA"}},{"arcs":[[592,593,-590,594]],"type":"Polygon","properties":{"n":"Kagsar (68)","c":61039,"d":"Hisar","s":"HARYANA"}},{"arcs":[[-584,-266,-262,-271,595,596,597,598]],"type":"Polygon","properties":{"n":"Kapro (7)","c":61020,"d":"Hisar","s":"HARYANA"}},{"arcs":[[-65,599,600,601]],"type":"Polygon","properties":{"n":"Durjanpur(143)","c":60870,"d":"Hisar","s":"HARYANA"}},{"arcs":[[-552,-12,-69,602,603,604,605]],"type":"Polygon","properties":{"n":"Agroha(54)","c":60877,"d":"Hisar","s":"HARYANA"}},{"arcs":[[606,-605,607,608,-548,609]],"type":"Polygon","properties":{"n":"Khasa Mahajanan(96)","c":60859,"d":"Hisar","s":"HARYANA"}},{"arcs":[[610,-60,-54,-51,-22,-549,-609,611]],"type":"Polygon","properties":{"n":"Kalirawan(36)","c":60856,"d":"Hisar","s":"HARYANA"}},{"arcs":[[612,613,-612,-608,-604]],"type":"Polygon","properties":{"n":"Fransi(37)","c":60876,"d":"Hisar","s":"HARYANA"}},{"arcs":[[-57,-611,-614,614,615,-73]],"type":"Polygon","properties":{"n":"Asranwan(39)","c":60855,"d":"Hisar","s":"HARYANA"}},{"arcs":[[616,617]],"type":"Polygon","properties":{"n":"Inchha Kharkhari(44)","c":60864,"d":"Hisar","s":"HARYANA"}},{"arcs":[[-371,-421,-132,-127,-376,-4,-377,-319,-327,-329,618,619,-617,-600,-64,-72,-79,-80,-84,-290,-294,-375,-419]],"type":"Polygon","properties":{"n":"Hisar (M Cl)","c":800405,"d":"Hisar","s":"HARYANA"}},{"arcs":[[-328,620,621,-619]],"type":"Polygon","properties":{"n":"Neoli Kalan(169)","c":60893,"d":"Hisar","s":"HARYANA"}},{"arcs":[[-621,-332,-335,-173,-169,622,-75,623]],"type":"Polygon","properties":{"n":"Mater Sham(170)","c":60895,"d":"Hisar","s":"HARYANA"}},{"arcs":[[-623,-168,624,625,-76]],"type":"Polygon","properties":{"n":"Meengni Khera(171)","c":60896,"d":"Hisar","s":"HARYANA"}},{"arcs":[[626,-625,-172,627,628]],"type":"Polygon","properties":{"n":"Salemgarh(172)","c":60897,"d":"Hisar","s":"HARYANA"}},{"arcs":[[-626,-627,629,630,-62,-77]],"type":"Polygon","properties":{"n":"Jakhod Khera(42)","c":60862,"d":"Hisar","s":"HARYANA"}},{"arcs":[[631,632,633,634,-630,-629]],"type":"Polygon","properties":{"n":"Kabrer(173)","c":60850,"d":"Hisar","s":"HARYANA"}},{"arcs":[[-633,635,-35,-517,636,637,638,639]],"type":"Polygon","properties":{"n":"Dobhi(25)","c":60900,"d":"Hisar","s":"HARYANA"}},{"arcs":[[-639,640,-525,641]],"type":"Polygon","properties":{"n":"Telanwali(27)","c":60869,"d":"Hisar","s":"HARYANA"}},{"arcs":[[-640,-642,-524,-520,-44,642,-634]],"type":"Polygon","properties":{"n":"Bagla (26)","c":60849,"d":"Hisar","s":"HARYANA"}},{"arcs":[[643,644,645,-527]],"type":"Polygon","properties":{"n":"Chudhriwali(29)","c":60867,"d":"Hisar","s":"HARYANA"}},{"arcs":[[-638,646,-644,-526,-641]],"type":"Polygon","properties":{"n":"Kutia Kheri(28)","c":60868,"d":"Hisar","s":"HARYANA"}},{"arcs":[[-637,-516,-519,647,-645,-647]],"type":"Polygon","properties":{"n":"Bandaheri(24)","c":60901,"d":"Hisar","s":"HARYANA"}},{"arcs":[[-598,648,649,650]],"type":"Polygon","properties":{"n":"Sandlana(8)","c":60990,"d":"Hisar","s":"HARYANA"}},{"arcs":[[651,652,653,-649,-597]],"type":"Polygon","properties":{"n":"Sotha(11)","c":60989,"d":"Hisar","s":"HARYANA"}},{"arcs":[[654,655,656,-653]],"type":"Polygon","properties":{"n":"Bhada Khera(12)","c":60988,"d":"Hisar","s":"HARYANA"}},{"arcs":[[-654,-657,657,658,659,-650]],"type":"Polygon","properties":{"n":"Banbhori(10)","c":60991,"d":"Hisar","s":"HARYANA"}},{"arcs":[[-656,660,661,662,663,-658]],"type":"Polygon","properties":{"n":"Sarsana(14)","c":60987,"d":"Hisar","s":"HARYANA"}},{"arcs":[[-663,664,665,-359,-352,-256,666]],"type":"Polygon","properties":{"n":"Kharak(17)","c":60986,"d":"Hisar","s":"HARYANA"}},{"arcs":[[-662,667,668,-665]],"type":"Polygon","properties":{"n":"Gianpura(15)","c":60985,"d":"Hisar","s":"HARYANA"}},{"arcs":[[-596,-270,669,670,-668,-661,-655,-652]],"type":"Polygon","properties":{"n":"Panhari(13)","c":60984,"d":"Hisar","s":"HARYANA"}},{"arcs":[[671,-415,-279,672,673]],"type":"Polygon","properties":{"n":"Haibatpur (79)","c":61033,"d":"Hisar","s":"HARYANA"}},{"arcs":[[-274,-416,-672,674,-670]],"type":"Polygon","properties":{"n":"Kheri Jalib (78)","c":61032,"d":"Hisar","s":"HARYANA"}},{"arcs":[[-356,-666,-669,-671,-675,-674,675,676]],"type":"Polygon","properties":{"n":"Bayana Khera(16)","c":60983,"d":"Hisar","s":"HARYANA"}},{"arcs":[[677,-676,-673,-281,-417,-411,-406,678,679,680]],"type":"Polygon","properties":{"n":"Luhari Ragho (82)","c":61050,"d":"Hisar","s":"HARYANA"}},{"arcs":[[-678,681,-399,682,683,684,-357,-677]],"type":"Polygon","properties":{"n":"Data(83)","c":61051,"d":"Hisar","s":"HARYANA"}},{"arcs":[[685,686,687,688,689]],"type":"Polygon","properties":{"n":"Pali (124)","c":61044,"d":"Hisar","s":"HARYANA"}},{"arcs":[[-688,690,691,-434,-472,-188,-400,692]],"type":"Polygon","properties":{"n":"Kheri Gangan(123)","c":61082,"d":"Hisar","s":"HARYANA"}},{"arcs":[[693,-689,-693,694]],"type":"Polygon","properties":{"n":"Rajpura (107)","c":61045,"d":"Hisar","s":"HARYANA"}},{"arcs":[[-680,695,-690,-694,696]],"type":"Polygon","properties":{"n":"Madha (105)","c":61046,"d":"Hisar","s":"HARYANA"}},{"arcs":[[697,698,699,-691,-687,700]],"type":"Polygon","properties":{"n":"Thurana(103)","c":61095,"d":"Hisar","s":"HARYANA"}},{"arcs":[[701,702,703,704,705,706,-698,707,-409]],"type":"Polygon","properties":{"n":"Petwar (92)","c":61041,"d":"Hisar","s":"HARYANA"}},{"arcs":[[708,-186,709,-699,-707]],"type":"Polygon","properties":{"n":"Badala(102)","c":61096,"d":"Hisar","s":"HARYANA"}},{"arcs":[[710,-208,-456,-459,-462,-182,-709,-706]],"type":"Polygon","properties":{"n":"Bass Badshahpur (97)","c":61110,"d":"Hisar","s":"HARYANA"}},{"arcs":[[711,-203,-209,-711,-705]],"type":"Polygon","properties":{"n":"Bhaklana(94)","c":61100,"d":"Hisar","s":"HARYANA"}},{"arcs":[[-210,-444,712,-453,-205,-204,-712,-704,713,-445]],"type":"Polygon","properties":{"n":"Ugalan (93)","c":61105,"d":"Hisar","s":"HARYANA"}},{"arcs":[[714,-449,-446,-714,-703,715,-593]],"type":"Polygon","properties":{"n":"Khanda Kheri(67)","c":61101,"d":"Hisar","s":"HARYANA"}},{"arcs":[[-702,-408,-414,-591,-594,-716]],"type":"Polygon","properties":{"n":"Sulchani (69)","c":61040,"d":"Hisar","s":"HARYANA"}},{"arcs":[[716,717,-497,-116,-113,718]],"type":"Polygon","properties":{"n":"Badon Brahmanan(6)","c":60938,"d":"Hisar","s":"HARYANA"}},{"arcs":[[-490,-494,-498,-718,719]],"type":"Polygon","properties":{"n":"Balawas(32)","c":60935,"d":"Hisar","s":"HARYANA"}},{"arcs":[[720,-719,-112,-114,-120,-394,-150,721]],"type":"Polygon","properties":{"n":"Badon Rangran(7)","c":60940,"d":"Hisar","s":"HARYANA"}},{"arcs":[[-164,-491,-720,-717,-721,722]],"type":"Polygon","properties":{"n":"Kanwari(30)","c":61075,"d":"Hisar","s":"HARYANA"}},{"arcs":[[-165,-723,-722,-149,723,-157]],"type":"Polygon","properties":{"n":"Dhamian(29)","c":61074,"d":"Hisar","s":"HARYANA"}},{"arcs":[[-148,-158,-724]],"type":"Polygon","properties":{"n":"Guzar(61)","c":60945,"d":"Hisar","s":"HARYANA"}},{"arcs":[[-480,-426,724,725]],"type":"Polygon","properties":{"n":"Kulana(114)","c":61067,"d":"Hisar","s":"HARYANA"}},{"arcs":[[726,727,-195,-481,-726]],"type":"Polygon","properties":{"n":"Bhatla(113)","c":61066,"d":"Hisar","s":"HARYANA"}},{"arcs":[[-397,-196,-728,728,729,730,-199]],"type":"Polygon","properties":{"n":"Channot(112)","c":61057,"d":"Hisar","s":"HARYANA"}},{"arcs":[[-730,731,-137,-128,732,733]],"type":"Polygon","properties":{"n":"Kharkhari(27)","c":60961,"d":"Hisar","s":"HARYANA"}},{"arcs":[[-733,-134,-420,-367,734,735]],"type":"Polygon","properties":{"n":"Sulkhani(26)","c":60970,"d":"Hisar","s":"HARYANA"}},{"arcs":[[736,-200,-731,-734,-736,737]],"type":"Polygon","properties":{"n":"Ghirai(24)","c":61055,"d":"Hisar","s":"HARYANA"}},{"arcs":[[-683,-398,-201,-737,738,739]],"type":"Polygon","properties":{"n":"Sindhar(22)","c":61054,"d":"Hisar","s":"HARYANA"}},{"arcs":[[740,-684,-740,741,742]],"type":"Polygon","properties":{"n":"Khanpur(21)","c":61053,"d":"Hisar","s":"HARYANA"}},{"arcs":[[-742,-739,-738,-735,-366,-364,-302,743]],"type":"Polygon","properties":{"n":"Rajli(25)","c":60971,"d":"Hisar","s":"HARYANA"}},{"arcs":[[-743,-744,-301,744,745]],"type":"Polygon","properties":{"n":"Panghal(72)","c":60972,"d":"Hisar","s":"HARYANA"}},{"arcs":[[-685,-741,-746,746,-354,-358]],"type":"Polygon","properties":{"n":"Gurana(20)","c":61052,"d":"Hisar","s":"HARYANA"}},{"arcs":[[-747,-745,-305,-220,-230,-238,-241,-253,-254,-355]],"type":"Polygon","properties":{"n":"Barwala (MC)","c":800404,"d":"Hisar","s":"HARYANA"}},{"arcs":[[-697,-695,-402,-395,-682,-681]],"type":"Polygon","properties":{"n":"Tharwa(84)","c":61059,"d":"Hisar","s":"HARYANA"}},{"arcs":[[-686,-696,-679,-410,-708,-701]],"type":"Polygon","properties":{"n":"Majra (104)","c":61043,"d":"Hisar","s":"HARYANA"}},{"arcs":[[-729,-727,-725,-429,-309,-308,-135,-732]],"type":"Polygon","properties":{"n":"Khokha(28)","c":60960,"d":"Hisar","s":"HARYANA"}},{"arcs":[[-384,-8,-145]],"type":"Polygon","properties":{"n":"Hari Kot(220)","c":60951,"d":"Hisar","s":"HARYANA"}},{"arcs":[[-628,-171,-175,-36,-636,-632]],"type":"Polygon","properties":{"n":"Kharia(47)","c":60899,"d":"Hisar","s":"HARYANA"}},{"arcs":[[-68,-66,-602,747,-615,-613,-603]],"type":"Polygon","properties":{"n":"Jagan(141)","c":60871,"d":"Hisar","s":"HARYANA"}},{"arcs":[[-63,-631,-635,-643,-43,-47]],"type":"Polygon","properties":{"n":"Siswal(174)","c":60851,"d":"Hisar","s":"HARYANA"}},{"arcs":[[-601,-618,-620,-622,-624,-74,-616,-748]],"type":"Polygon","properties":{"n":"Neoli Khurd(45)","c":60863,"d":"Hisar","s":"HARYANA"}},{"arcs":[[748,-659,-664,-667,-255,-251,-249,-581]],"type":"Polygon","properties":{"n":"Madloda(74)","c":60996,"d":"Hisar","s":"HARYANA"}},{"arcs":[[-468,-469,-435,-692,-700,-710,-185,-465]],"type":"Polygon","properties":{"n":"Bhatol Jatan (10)","c":61093,"d":"Hisar","s":"HARYANA"}}]}}}