{"type":"Topology","arcs":[[[53569,8388],[120,-1256],[-153,-883]],[[53536,6249],[-1036,-2277],[-228,-1046],[-277,-38],[-443,976],[-855,801]],[[50697,4665],[313,2117],[-45,1735]],[[50965,8517],[1008,-178],[519,165],[1077,-116]],[[50697,4665],[-699,-993],[-842,-3672],[-523,729],[64,565],[-419,363],[15,1002],[295,905],[242,1554],[-1033,3670]],[[47797,8788],[1947,95],[322,-393],[235,469]],[[50301,8959],[664,-442]],[[57178,11054],[411,-639],[509,-1854],[762,-40],[-135,-653],[425,-1772],[771,-1264],[-11,-444],[-782,-1014],[-939,1163],[-1012,530],[-1340,-142],[-424,662],[-653,87],[-1224,575]],[[53569,8388],[996,2228],[-10,484],[618,309]],[[55173,11409],[2005,-355]],[[50301,8959],[169,177],[939,2918],[614,2344]],[[52023,14398],[648,814]],[[52671,15212],[610,-987],[313,-947],[491,-224],[1088,-1645]],[[47797,8788],[-903,-81]],[[46894,8707],[403,1937],[1641,1824],[371,894],[-247,1114],[539,146],[536,2038]],[[50137,16660],[773,-981],[477,-214],[636,-1067]],[[48745,19290],[555,-1833],[837,-797]],[[46894,8707],[-778,-1082],[-793,-795],[-1374,1099],[-958,-983],[-1472,590]],[[41519,7536],[460,1459],[420,3532],[1906,1537],[192,2344],[-268,432]],[[44229,16840],[1374,-45],[476,-406],[816,-122],[-111,2908]],[[46784,19175],[1961,115]],[[58391,18805],[-260,-883],[-1123,-2288],[-503,-1281],[-8,-2027],[774,-784]],[[57271,11542],[-93,-488]],[[52671,15212],[661,1475],[319,1992],[261,877]],[[53912,19556],[1038,-841],[1624,-351],[941,-57],[876,498]],[[58391,18805],[648,1990]],[[59039,20795],[325,-472],[421,-1499],[-969,-1312],[-463,-2824],[-555,-1404],[-239,-1471],[-288,-271]],[[28979,20757],[733,-7],[341,-1055],[-218,-987]],[[29835,18708],[-83,-1754],[544,-1823]],[[30296,15131],[-733,163],[-1576,-294],[-698,106]],[[27289,15106],[11,689],[-1707,1805],[248,1533],[511,1681]],[[26352,20814],[856,114],[1771,-171]],[[40034,12912],[-216,-1004],[-656,-1700]],[[39162,10208],[-1207,228],[-356,-211],[-1489,1433],[-1138,1639]],[[34972,13297],[-555,1900],[-287,509],[1772,3467]],[[35902,19173],[1303,2490]],[[37205,21663],[1652,-4418],[596,-310],[64,-1579],[516,-1003],[1,-1441]],[[24207,17135],[-1196,150],[-835,-1705],[-692,285],[-150,-476],[-1699,-1619],[-664,1826]],[[18971,15596],[607,683],[-38,1461],[377,841],[2351,2330]],[[22268,20911],[1059,1226]],[[23327,22137],[248,-1989],[477,-1558],[155,-1455]],[[34972,13297],[-2801,-83],[-1190,-197],[-658,1394],[-27,720]],[[29835,18708],[956,964],[1870,2960],[501,-410],[1290,-1613],[426,-208],[1024,-1228]],[[74319,22864],[-128,-541],[523,-884]],[[74714,21439],[-6,-1131],[-352,-1393],[-853,-382],[-204,647],[-469,-197]],[[72830,18983],[42,1989],[544,1596],[903,296]],[[58210,22374],[1115,-569]],[[59325,21805],[-286,-1010]],[[53912,19556],[884,2241],[364,1289]],[[55160,23086],[1985,-207],[1065,-505]],[[48745,19290],[847,481],[1074,2776],[455,856]],[[51121,23403],[1034,-1213],[1757,-2634]],[[25983,21697],[369,-883]],[[27289,15106],[-1513,636],[-626,867],[-943,526]],[[23327,22137],[-33,721],[300,733]],[[23594,23591],[1329,-133],[745,-943],[315,-818]],[[68392,23837],[480,-1319],[-125,-654]],[[68747,21864],[-278,-1315],[-621,-735],[-467,-1677],[-1606,-323],[38,1211]],[[65813,19025],[360,1698],[-260,1442],[627,1238]],[[66540,23403],[1385,567],[467,-133]],[[43876,24779],[15,-1725],[209,-1253],[772,-1419],[1582,-365]],[[46454,20017],[330,-842]],[[44229,16840],[-24,2743],[-1559,3190],[-15,617],[-658,1491]],[[41973,24881],[1903,-102]],[[41519,7536],[-1438,1065],[-919,1607]],[[40034,12912],[2000,2329],[-245,1216],[473,3816],[-347,636],[-82,1112],[-658,1146],[796,1714]],[[41971,24881],[2,0]],[[73390,24249],[289,-814],[640,-571]],[[72830,18983],[-344,-752],[-457,-167],[-894,980],[-1596,431],[-121,1157],[-347,1152],[-324,80]],[[68392,23837],[1234,917],[721,194],[1225,-71],[1818,-628]],[[49678,24674],[954,-630],[489,-641]],[[46454,20017],[374,1623],[1153,2547],[108,800]],[[48089,24987],[850,2],[739,-315]],[[22268,20911],[-2090,727],[-625,-72]],[[19553,21566],[-84,592],[742,706],[-170,1194],[-724,871]],[[19317,24929],[1241,229],[1292,-749],[556,66],[1188,-884]],[[43876,24779],[1516,24],[382,380]],[[45774,25183],[395,-535],[1920,339]],[[65906,23824],[634,-421]],[[65813,19025],[-1158,104],[-565,577],[-584,-89],[15,878],[-325,1741],[-406,1309],[-338,421]],[[62452,23966],[393,708],[671,-167],[571,746],[420,118],[1399,-1547]],[[41970,24881],[1,0]],[[37205,21663],[-334,753],[354,2169]],[[37225,24585],[822,247],[936,772],[1579,-167],[1408,-556]],[[77051,25699],[-150,-1590],[-736,-2803],[-380,229],[75,-950],[-433,-148],[-265,880],[-448,122]],[[74319,22864],[1268,1808],[1464,1027]],[[57576,26619],[409,-1639],[225,-2606]],[[55160,23086],[174,1548],[-175,1414]],[[55159,26048],[1326,583],[1091,-12]],[[61819,27802],[256,-3674]],[[62075,24128],[-288,78],[-711,-1025],[-778,383],[-410,-412],[-563,-1347]],[[57576,26619],[512,422],[537,1765]],[[58625,28806],[755,-169],[309,-496],[2130,-339]],[[19317,24929],[725,1930]],[[20042,26859],[767,-386],[277,866]],[[21086,27339],[795,-809],[396,14],[1399,954],[915,1797],[955,313]],[[25546,29608],[210,-280],[159,-1944],[344,-191],[-203,-843],[-93,-1905],[-308,-680],[328,-2068]],[[70942,29764],[654,-964],[1504,-1628]],[[73100,27172],[372,-746],[102,-1088],[-184,-1089]],[[65906,23824],[-85,1911],[360,577],[443,2623]],[[66624,28935],[990,-181],[863,1606]],[[68477,30360],[1344,-114],[1121,-482]],[[75400,30274],[143,-605],[910,-1968],[598,-2002]],[[73100,27172],[40,918],[896,1689]],[[74036,29779],[1058,1245]],[[75094,31024],[306,-750]],[[27332,29969],[123,-476],[1367,-509],[574,-655]],[[29396,28329],[139,-3102],[161,-418],[-717,-2089],[0,-1963]],[[25546,29608],[-63,1069]],[[25483,30677],[663,480]],[[26146,31157],[625,-1129],[561,-59]],[[41970,24881],[240,841],[-590,753],[-241,2378],[1096,996]],[[42475,29849],[947,331],[2322,1226]],[[45744,31406],[-330,-2113],[-24,-1806],[384,-2304]],[[21086,27339],[6,939],[342,366],[1186,48],[-330,516],[1105,2239]],[[23395,31447],[930,-582],[1158,-188]],[[37225,24585],[-823,234],[-248,504],[281,993],[-270,575]],[[36165,26891],[428,577],[442,2213],[366,-48],[596,845],[517,-46],[203,480]],[[38717,30912],[200,452],[887,-509],[805,742]],[[40609,31597],[1866,-1748]],[[49678,24674],[1741,4253],[438,2702]],[[51857,31629],[2519,-2730],[245,-1642],[538,-1209]],[[34672,28783],[1125,-928],[368,-964]],[[29396,28329],[129,34],[1552,3274]],[[31077,31637],[423,-203],[211,-795],[609,-774],[1580,-600],[772,-482]],[[34672,28783],[1284,2949]],[[35956,31732],[2761,-820]],[[45744,31406],[1992,806],[387,315]],[[48123,32527],[519,-374],[367,-930],[-446,-2596],[34,-396],[-508,-3244]],[[27332,29969],[901,1254],[420,1310]],[[28653,32533],[1360,30],[1064,-926]],[[16858,31466],[-179,-2655],[-310,-1977],[218,-2274],[490,-1609],[1078,-2765],[139,-734],[1224,1015],[35,1099]],[[18971,15596],[-1493,1087],[-1017,3642],[-934,2907],[-459,-110],[-258,928],[509,2287],[189,142],[461,2194],[-105,998],[79,1962],[-430,1112]],[[15513,32745],[690,97],[655,-1376]],[[21009,32576],[-379,-1683],[32,-1070],[-620,-2964]],[[16858,31466],[1832,727],[1145,1311]],[[19835,33504],[1174,-928]],[[62509,32597],[14,-886],[-545,-888],[83,-875],[-308,-1235],[66,-911]],[[58625,28806],[-430,1205]],[[58195,30011],[532,1345],[1070,978],[666,939],[24,526]],[[60487,33799],[1243,-147],[779,-1055]],[[70779,34070],[209,-1262],[-46,-3044]],[[68477,30360],[763,1581],[35,1064],[-333,405]],[[68942,33410],[342,622],[1495,38]],[[27430,34431],[1050,-1420],[173,-478]],[[26146,31157],[-134,433],[297,884],[245,2125]],[[26554,34599],[876,-168]],[[52272,33573],[-415,-1944]],[[48123,32527],[1259,1112],[812,1367]],[[50194,35006],[461,-35],[818,-1324],[799,-74]],[[79168,33132],[-365,-390],[-607,-1889],[-551,-840],[-246,423],[-446,-313],[-389,277],[-757,-737],[-407,611]],[[75094,31024],[1172,1384],[753,1757],[765,698]],[[77784,34863],[455,162],[446,-384],[483,-1509]],[[45723,34643],[-171,-956],[337,-919],[-145,-1362]],[[40609,31597],[-234,1238],[-326,252]],[[40049,33087],[116,1427],[1051,930]],[[41216,35444],[1720,-454],[1469,-72],[1318,-275]],[[36778,35446],[635,-220],[338,-554],[1755,-1699],[543,114]],[[35956,31732],[196,2017],[356,1849],[270,-152]],[[62452,23966],[-377,162]],[[62509,32597],[130,1797],[1986,2082]],[[64625,36476],[400,-1651],[411,-503],[27,-1051],[453,-761],[-260,-1287],[109,-652],[859,-1636]],[[55193,36512],[227,-1846],[888,-1471],[104,-457],[1061,-1283],[722,-1444]],[[52272,33573],[628,-319],[413,366],[1149,2465],[731,427]],[[15513,32745],[-479,321]],[[15034,33066],[179,1719],[296,708]],[[15509,35493],[434,48],[538,-604],[1905,1551],[1301,761]],[[19687,37249],[-90,-926],[274,-1363],[-36,-1456]],[[66913,37021],[1088,-2209],[941,-1402]],[[64625,36476],[1157,1188]],[[65782,37664],[1131,-643]],[[66913,37021],[572,211]],[[67485,37232],[1296,-86],[420,-829],[713,518],[329,958]],[[70243,37793],[980,-1732],[-42,-1112],[-402,-879]],[[23395,31447],[696,795],[-19,1219],[289,1146],[85,1494]],[[24446,36101],[220,527],[-57,1050]],[[24609,37678],[635,144],[835,-226],[248,-457],[349,-1754],[-122,-786]],[[21009,32576],[242,-28],[246,1101],[1233,1966],[-51,854],[-370,558],[421,975]],[[22730,38002],[564,-85],[-75,-437],[511,-998],[716,-381]],[[19035,38074],[451,-167],[201,-658]],[[15509,35493],[82,1036],[450,323],[-181,1082]],[[15860,37934],[493,303],[1832,80],[850,-243]],[[72293,38365],[1645,-221]],[[73938,38144],[333,-772],[-351,-482],[-213,-1985],[-2,-3978],[331,-1148]],[[70243,37793],[-114,357]],[[70129,38150],[2164,215]],[[24502,38528],[107,-850]],[[22730,38002],[595,425],[1177,101]],[[31170,37920],[512,-607]],[[31682,37313],[935,-1355]],[[32617,35958],[-47,-1235],[-443,-613],[-1050,-2473]],[[27430,34431],[241,2677],[-475,864],[66,525],[506,52],[1054,-923],[1258,65],[634,-310],[456,539]],[[41207,38116],[-342,-1475],[351,-1197]],[[36778,35446],[78,2693]],[[36856,38139],[212,943]],[[37068,39082],[1670,-816],[1273,80],[1196,-230]],[[32617,35958],[599,249],[1205,1516],[106,700],[485,687]],[[35012,39110],[424,-757],[1420,-214]],[[77140,37968],[815,-1230],[-171,-1875]],[[73938,38144],[423,1526]],[[74361,39670],[1271,-693],[1508,-1009]],[[50209,38795],[-552,-1074],[407,-313],[91,-2076]],[[50155,35332],[-1121,1474],[-329,813],[-38,1377],[395,1416]],[[49062,40412],[1147,-1617]],[[55702,40399],[200,-602],[1356,-1632],[494,-1364],[1217,294],[1125,-30]],[[60094,37065],[14,-1405],[379,-1861]],[[55193,36512],[416,1405],[-416,692]],[[55193,38609],[-6,1797],[515,-7]],[[48847,40687],[215,-275]],[[50155,35332],[39,-326]],[[45723,34643],[123,1310]],[[45846,35953],[272,1652],[1640,1906],[438,945]],[[48196,40456],[651,231]],[[13389,40418],[212,-359],[1380,-973],[879,-1152]],[[15034,33066],[-599,535],[-1408,374],[-791,-268],[-2597,-561],[-1129,-492],[-1318,2925]],[[7192,35579],[227,2061],[781,2812]],[[8200,40452],[2000,-791],[1329,237],[1119,1214]],[[12648,41112],[741,-694]],[[60094,37065],[1388,1468],[558,841],[793,1845]],[[62833,41219],[370,-1217],[12,-700],[489,-951],[1089,-74],[514,296],[475,-909]],[[91033,38750],[-789,-1050],[-1261,-129],[-954,642],[-1296,134]],[[86733,38347],[85,1255],[-193,491],[251,1129]],[[86876,41222],[1701,-18]],[[88577,41204],[1025,-116],[329,311]],[[89931,41399],[1102,-2649]],[[35012,39110],[-34,505],[1105,2046]],[[36083,41661],[295,-1137],[690,-1442]],[[93222,40439],[-495,-820],[-471,55],[-1223,-924]],[[89931,41399],[773,340]],[[90704,41739],[1016,-387],[865,208],[637,-1121]],[[48847,40687],[723,951],[1114,127]],[[50684,41765],[170,-1928],[-645,-1042]],[[19035,38074],[435,199],[-251,1930],[320,1646]],[[19539,41849],[561,-1167],[993,-655],[1253,-1344],[384,-681]],[[45846,35953],[-1265,2017],[221,1960],[-1391,2006]],[[43411,41936],[1,4]],[[43412,41940],[1150,17],[2236,-391],[767,233],[631,-1343]],[[74680,42103],[-319,-2433]],[[72293,38365],[664,2410],[1204,1493],[334,161]],[[74495,42429],[185,-326]],[[69110,42551],[927,-1782]],[[70037,40769],[-201,-1556],[293,-1063]],[[67485,37232],[-254,2108],[-26,1167],[355,1824]],[[67560,42331],[262,233],[1288,-13]],[[41207,38116],[662,2120]],[[41869,40236],[836,2438]],[[42705,42674],[706,-738]],[[7329,42655],[871,-2203]],[[7192,35579],[-1626,339],[-702,475],[-145,1543],[742,1066],[-381,1702],[411,687],[469,1416]],[[5960,42807],[798,-353],[571,201]],[[32259,42710],[-134,-1664],[-382,-1330],[110,-757],[-171,-1646]],[[31170,37920],[-483,2991],[753,1921]],[[31440,42832],[819,-122]],[[95364,43289],[352,-672],[2138,-1097]],[[97854,41520],[-70,-1169],[530,-2376],[95,-1159],[-1672,-296],[-762,691],[363,764],[-699,230],[-1068,1160],[-316,819],[-434,369],[-599,-114]],[[93222,40439],[385,1865],[418,272],[443,964]],[[94468,43540],[896,-251]],[[86022,42946],[854,-1724]],[[86733,38347],[-1793,-138],[-1556,226],[-1599,449]],[[81785,38884],[617,2356],[68,2078]],[[82470,43318],[1391,539]],[[83861,43857],[2161,-911]],[[32259,42710],[1786,110],[1152,1044]],[[35197,43864],[886,-2203]],[[24502,38528],[184,413],[-381,1346],[115,930],[-140,1666],[106,600]],[[24386,43483],[740,-234],[663,323],[756,-169],[2067,492]],[[28612,43895],[1209,-1086],[1619,23]],[[62835,41221],[-2,-2]],[[55702,40399],[1,0]],[[55703,40399],[929,890],[1255,264],[456,383],[1507,203]],[[59850,42139],[1227,226],[1142,-36],[616,-1108]],[[71519,43978],[1515,-381]],[[73034,43597],[1461,-1168]],[[70037,40769],[397,1120],[1037,1260],[48,829]],[[78342,43976],[-96,-962],[-636,-987],[-470,-4059]],[[74680,42103],[764,681],[501,1038]],[[75945,43822],[2397,154]],[[69110,42551],[523,968],[1166,713]],[[70799,44232],[720,-254]],[[64737,44690],[200,-775]],[[64937,43915],[-802,-1275],[-1300,-1419]],[[59850,42139],[-105,1539],[104,1034]],[[59849,44712],[1334,141],[1903,-311],[585,364],[1066,-216]],[[52601,43794],[341,-1492],[869,-2040],[1382,-1653]],[[50684,41765],[643,849],[-117,1347],[630,1180]],[[51840,45141],[234,-1021],[527,-326]],[[54965,45280],[963,-1480],[196,-1386],[-421,-2015]],[[52601,43794],[1931,1338],[433,148]],[[23718,45263],[273,-1646],[395,-134]],[[19539,41849],[38,715],[842,2799]],[[20419,45363],[1213,-358],[779,267],[1307,-9]],[[86022,42946],[1067,2423]],[[87089,45369],[301,-2376],[1187,-1789]],[[75248,45625],[-169,-1076],[866,-727]],[[73034,43597],[1138,1622],[482,463]],[[74654,45682],[594,-57]],[[90110,45377],[-278,-1932],[872,-1706]],[[87089,45369],[1252,270],[925,7],[844,-269]],[[28925,44488],[-313,-593]],[[23718,45263],[5,550]],[[23723,45813],[1410,142],[1290,-937],[1219,-65],[1283,-465]],[[95894,45973],[-593,-617],[-169,-719],[232,-1348]],[[94468,43540],[-1108,1846],[447,769],[658,372]],[[94465,46527],[1429,-554]],[[13389,40418],[501,-270],[787,1061]],[[14677,41209],[913,-231],[320,523],[48,1716],[358,613],[149,2116],[582,769]],[[17047,46715],[2142,-1004],[1230,-348]],[[90110,45377],[924,248],[685,-93],[1630,621],[294,605]],[[93643,46758],[822,-231]],[[15179,46331],[-186,-668],[-362,-3355],[46,-1099]],[[12648,41112],[-241,1073],[-26,1596],[242,1023],[1393,1986]],[[14016,46790],[1163,-459]],[[15179,46331],[561,513]],[[15740,46844],[1307,-129]],[[35197,43864],[-303,886],[195,2116]],[[35089,46866],[135,52]],[[35224,46918],[714,-1010],[1610,-956],[1359,-1154],[1133,-1475],[1035,-990],[794,-1097]],[[9648,46948],[579,-617],[553,-40]],[[10780,46291],[-508,-597],[-1126,-160],[-721,332],[-452,1084]],[[7973,46950],[1239,-253],[436,251]],[[81785,38884],[-1595,-5696],[-1022,-56]],[[78342,43976],[228,1095],[361,469],[1401,1154],[121,432]],[[80453,47126],[1567,-2751],[450,-1057]],[[98297,47014],[70,-979],[674,-417]],[[99041,45618],[-397,-2014],[-674,-613],[-116,-1471]],[[95894,45973],[896,392],[765,63],[212,807],[530,-221]],[[10780,46291],[490,-292]],[[11270,45999],[-398,-2216],[340,-733],[-181,-641],[-789,-416],[-968,290],[-632,980],[-478,-427],[-363,256],[-472,-437]],[[5960,42807],[266,473],[-537,1254],[-855,1072],[227,1852]],[[5061,47458],[1331,-928],[1581,420]],[[28520,46870],[684,-1892]],[[29204,44978],[-279,-490]],[[23723,45813],[266,1790]],[[23989,47603],[1821,-129],[541,-610],[2169,6]],[[55372,46794],[-407,-1514]],[[51840,45141],[330,1203],[608,1274]],[[52778,47618],[867,-86],[832,-611],[895,-127]],[[13916,47699],[100,-909]],[[11270,45999],[646,670],[48,1380]],[[11964,48049],[1317,-107],[635,-243]],[[32259,42710],[570,3170],[756,1514],[-140,658]],[[33445,48052],[1644,-1186]],[[29204,44978],[2257,1748],[962,457],[1022,869]],[[60070,45961],[-221,-1249]],[[59849,44712],[-815,500],[-1730,1373],[-238,1166]],[[57066,47751],[326,-141],[1291,456],[618,-1128],[769,-977]],[[55372,46794],[295,976]],[[55667,47770],[1177,400],[222,-419]],[[87204,48375],[-154,-1505],[39,-1501]],[[83861,43857],[0,1829],[239,862],[-539,1089],[366,1190]],[[83927,48827],[1304,227],[952,-1112],[421,-203],[600,636]],[[89866,49263],[472,-1634],[-228,-2252]],[[87204,48375],[964,1177],[1698,-289]],[[78152,49590],[2450,-701]],[[80602,48889],[-149,-1763]],[[75248,45625],[683,1606],[670,1074],[1551,1285]],[[65683,47159],[-285,-327],[-727,-1710],[66,-432]],[[60070,45961],[1202,1042],[358,1142]],[[61630,48145],[943,160],[1213,505],[615,791]],[[64401,49601],[256,-1678],[1026,-764]],[[55730,49823],[92,-417]],[[55822,49406],[-155,-1636]],[[52778,47618],[566,1194],[373,328]],[[53717,49140],[257,-256],[697,721],[1059,218]],[[69656,49749],[242,-1774],[510,-1486],[391,-2257]],[[67560,42331],[-72,605],[-969,759],[-1004,-186],[-578,406]],[[65683,47159],[899,747],[878,461],[864,974],[36,510]],[[68360,49851],[734,67]],[[69094,49918],[562,-169]],[[43354,49394],[538,-2334],[125,-1425],[483,-1169]],[[44500,44466],[-90,-554],[-998,-1972]],[[42705,42674],[-1267,583],[-600,1231],[-817,2122],[-35,1955],[139,1381]],[[40125,49946],[431,-195],[2798,-357]],[[31561,49614],[643,-981],[1241,-581]],[[28520,46870],[51,1093]],[[28571,47963],[185,892],[812,1255],[1993,-496]],[[98297,47014],[290,655],[-69,733],[749,2042]],[[99267,50444],[732,-262],[-958,-4564]],[[16385,49259],[-645,-2415]],[[13916,47699],[86,585],[1427,2239]],[[15429,50523],[956,-1264]],[[9648,46948],[473,2032],[1345,1500]],[[11466,50480],[598,-21],[181,-441],[-336,-1169],[55,-800]],[[38567,50398],[1558,-452]],[[35224,46918],[70,614],[1290,2346],[96,955]],[[36680,50833],[533,94],[1354,-529]],[[20751,49626],[-372,-1000],[40,-3263]],[[16385,49259],[729,1689],[884,317],[821,-575],[999,-1237],[933,173]],[[71269,51337],[2374,-1708]],[[73643,49629],[1128,-1795],[178,-766],[-295,-1386]],[[69656,49749],[544,108],[633,1340],[436,140]],[[20751,49626],[249,660],[-43,1556]],[[20957,51842],[1176,-2290],[778,-1181],[1078,-768]],[[93546,48730],[-119,-1215],[216,-757]],[[89866,49263],[558,21],[411,869],[-146,1759]],[[90689,51912],[851,-677],[903,-1471],[1103,-1034]],[[44500,44466],[1097,463],[1673,2357],[785,444]],[[48055,47730],[341,-484],[435,558],[-8,692],[521,-320],[-31,598],[-636,358],[1172,1017],[376,839],[656,581]],[[50881,51569],[538,357],[912,-987],[240,-727],[1146,-1072]],[[58718,52320],[1342,-220],[1067,-406]],[[61127,51694],[71,-1302],[432,-2247]],[[55822,49406],[1345,491],[253,602],[697,632],[162,1207],[439,-18]],[[78148,51774],[4,-2184]],[[73643,49629],[120,249],[1565,-315],[322,495],[403,2340]],[[76053,52398],[2095,-624]],[[64401,49601],[839,1964]],[[65240,51565],[397,869]],[[65637,52434],[1770,-1076],[953,-1507]],[[71269,51337],[1692,458],[823,1262]],[[73784,53057],[2269,-659]],[[62946,52801],[1542,-1207],[752,-29]],[[61127,51694],[1418,1391],[401,-284]],[[11466,50480],[566,1956],[-51,647]],[[11981,53083],[1663,-474],[1443,-1355],[342,-731]],[[83927,48827],[1077,2586]],[[85004,51413],[844,-142],[787,567],[1182,25],[695,864],[117,493]],[[88629,53220],[990,-816],[1070,-492]],[[93546,48730],[352,1520],[477,993],[-100,398],[565,1771]],[[94840,53412],[774,-936],[1295,-985],[1122,-370],[1236,-677]],[[51570,53117],[-689,-1548]],[[48055,47730],[40,436],[-533,382],[121,730],[-510,1321],[473,1809],[-156,816]],[[47490,53224],[242,191],[1236,-592],[947,331],[824,-278],[831,241]],[[80602,48889],[179,473],[934,935],[593,1185]],[[82308,51482],[678,-378],[420,509],[741,1616],[977,230]],[[85124,53459],[407,-444],[-527,-1602]],[[35831,52370],[-40,-1276],[889,-261]],[[31561,49614],[235,991],[467,825],[747,2084]],[[33010,53514],[29,95],[2274,-719],[518,-520]],[[43354,49394],[1000,1818],[277,1088],[-35,766]],[[44596,53066],[910,88],[948,-243],[727,1148]],[[47181,54059],[309,-835]],[[11977,53133],[4,-50]],[[5061,47458],[-669,1539],[247,860],[-1168,347],[196,934]],[[3667,51138],[2478,277],[1756,-210],[732,743]],[[8633,51948],[1430,1623],[1526,543]],[[11589,54114],[388,-981]],[[82144,51821],[164,-339]],[[78148,51774],[79,1290],[602,989]],[[78829,54053],[0,4]],[[78829,54057],[892,78],[1199,-674],[1224,-1640]],[[28571,47963],[-314,461],[-164,1454],[175,1442],[-530,1401]],[[27738,52721],[760,250],[1069,1498],[334,70]],[[29901,54539],[677,-302],[1097,347],[1335,-1070]],[[26625,53901],[366,-1023],[747,-157]],[[20957,51842],[-98,852]],[[20859,52694],[1278,406],[1895,1581],[866,-51],[1727,-729]],[[38567,50398],[253,1835],[-267,1852],[79,367]],[[38632,54452],[2204,874]],[[40836,55326],[-191,-2023],[28,-2214],[-548,-1143]],[[82144,51821],[723,1555],[709,1028],[1255,922]],[[84831,55326],[278,-874],[15,-993]],[[44695,54059],[-99,-993]],[[40836,55326],[951,54],[453,294]],[[42240,55674],[490,-627],[893,-94],[1072,-894]],[[65637,52434],[507,2259]],[[66144,54693],[1244,1226]],[[67388,55919],[293,-574],[1879,-1064]],[[69560,54281],[-315,-2181],[-151,-2182]],[[9756,56228],[402,-858],[882,-565],[549,-691]],[[8633,51948],[220,1868],[-326,1076],[-400,486]],[[8127,55378],[1629,850]],[[62946,52801],[283,2628]],[[63229,55429],[103,871]],[[63332,56300],[1716,-512],[1096,-1095]],[[75841,56169],[201,-867],[153,-1854],[-142,-1050]],[[73784,53057],[6,2178],[403,1095]],[[74193,56330],[881,131],[767,-292]],[[36179,56533],[880,-597],[1129,-463],[444,-1021]],[[35831,52370],[44,1727],[-152,1666]],[[35723,55763],[454,768]],[[36177,56531],[2,2]],[[47181,54059],[374,778],[874,381],[514,1105],[574,489]],[[49517,56812],[2290,-628],[701,118],[752,655]],[[53260,56957],[130,-684],[-727,-1127],[-1,-738],[-436,-101],[-84,-840],[-572,-350]],[[60858,55383],[12,-1129],[637,680],[1722,495]],[[58718,52320],[-968,1038],[-428,1008],[-667,636],[-63,1448],[282,964]],[[56874,57414],[890,-556],[904,-101],[221,-683],[441,-142],[272,541],[1256,-1090]],[[53260,56957],[1039,567]],[[54299,57524],[-349,-1308],[-11,-1664],[1293,-2685],[498,-2044]],[[84701,57315],[-153,-1341],[283,-648]],[[78829,54057],[529,2495],[1261,1154],[808,-311],[1647,-173],[479,374],[1148,-281]],[[29901,54539],[2156,3217]],[[32057,57756],[520,98],[872,-673],[1576,-1684],[698,266]],[[76792,57885],[1365,-260]],[[78157,57625],[167,-408],[157,-2915],[348,-249]],[[75841,56169],[951,1716]],[[90689,51912],[464,2376],[426,1382],[67,972],[378,1252]],[[92024,57894],[612,-535],[881,-1520],[305,-799],[1018,-1628]],[[73785,57300],[408,-970]],[[69560,54281],[1044,-275],[242,180],[1199,1884],[-258,993]],[[71787,57063],[221,730],[490,111],[331,-484],[956,-120]],[[3667,51138],[621,1979],[18,735]],[[4306,53852],[624,1271],[865,1095],[165,498],[-53,1556]],[[5907,58272],[553,-408],[677,-1465],[990,-1021]],[[19185,58118],[635,-408],[581,-1315]],[[20401,56395],[284,-1173],[174,-2528]],[[15429,50523],[-82,1564],[-222,721],[238,1729],[637,1196],[1409,700]],[[17409,56433],[252,-372],[439,546],[93,1557],[316,246],[676,-292]],[[49586,58535],[-238,-1121],[169,-602]],[[44695,54059],[589,125],[1679,2247],[362,797],[1085,1245]],[[48410,58473],[1176,62]],[[5834,58477],[73,-205]],[[4306,53852],[-862,937],[-175,1196],[-338,-292],[748,2896]],[[3679,58589],[2155,-112]],[[54299,57524],[658,186]],[[54957,57710],[523,-780],[-137,-917],[625,-466],[495,592],[409,1273],[664,1296]],[[57536,58708],[5,13]],[[57541,58721],[-142,-489],[-525,-818]],[[42240,55674],[624,1820]],[[42864,57494],[3615,1364],[1075,106],[856,-491]],[[31723,59279],[68,-1205],[266,-318]],[[26625,53901],[-454,3297]],[[26171,57198],[717,-74],[561,726],[797,454],[767,125],[1266,564]],[[30279,58993],[764,319],[680,-33]],[[88629,53220],[335,2241]],[[88964,55461],[471,894],[-27,1461],[-520,1498]],[[88888,59314],[1893,-530],[1243,-890]],[[88964,55461],[-1991,279],[-704,-383],[55,2271],[162,2061]],[[86486,59689],[342,-165],[2060,-210]],[[73785,57300],[604,1106]],[[74389,58406],[1116,1179],[1197,112]],[[76702,59697],[90,-1812]],[[76702,59697],[405,32]],[[77107,59729],[570,-32],[869,-776],[346,-721],[-735,-575]],[[9756,56228],[56,1556],[-820,879],[-255,1203]],[[8737,59866],[937,-186],[1309,-1114],[669,-1133],[1359,-746],[-30,-1558],[-1004,-1996]],[[84701,57315],[-143,1915],[364,723]],[[84922,59953],[1564,-264]],[[31723,59279],[2157,293],[490,286],[420,881]],[[34790,60739],[406,-274],[319,-817],[-64,-2564],[726,-553]],[[50296,58883],[-593,-51]],[[49703,58832],[-302,994],[-871,584],[-54,420]],[[48476,60830],[355,85],[1099,-594],[366,-1438]],[[60690,59704],[-130,-2224],[298,-2097]],[[57541,58721],[207,720],[-172,1740]],[[57576,61181],[150,-222],[1693,387]],[[59419,61346],[1271,-1642]],[[5834,58477],[885,330],[301,484],[394,1558],[919,890]],[[8333,61739],[-136,-1213],[540,-660]],[[53913,61356],[1039,-3316],[5,-330]],[[49586,58535],[117,297]],[[50296,58883],[822,366],[-440,1272],[315,421],[48,960]],[[51041,61902],[397,-82],[896,-1281],[939,-153],[518,279],[122,691]],[[59419,61346],[934,793],[423,4],[252,-1040],[-338,-1399]],[[53913,61356],[419,499],[1342,611]],[[55674,62466],[1232,-3215],[630,-543]],[[19185,58118],[47,2122],[214,694]],[[19446,60934],[459,1052],[1589,719]],[[21494,62705],[197,-824],[-246,-4051],[-1044,-1435]],[[64517,60120],[-96,-968],[-387,-1042]],[[64034,58110],[-702,-1810]],[[60690,59704],[902,904],[916,1812],[364,399]],[[62872,62819],[659,-1399],[986,-1300]],[[27167,63181],[-502,-827],[-62,-647],[-872,-1687],[-323,-1226],[78,-919],[685,-677]],[[21494,62705],[646,-87],[2030,404],[343,-181]],[[24513,62841],[933,293],[471,-137],[708,395],[542,-211]],[[57249,63606],[327,-2425]],[[55674,62466],[1575,1140]],[[10721,64141],[1205,-1026],[649,-2012],[1036,-776],[972,125]],[[14583,60452],[586,-920],[1873,-2048],[367,-1051]],[[8333,61739],[0,17]],[[8333,61756],[1164,970],[549,1343],[675,72]],[[76315,63200],[1280,-753]],[[77595,62447],[-259,-640],[-229,-2078]],[[74389,58406],[-715,691],[-71,463],[664,2257],[96,1007],[-201,955],[72,875]],[[74234,64654],[978,-814],[1103,-640]],[[74234,64656],[0,-2]],[[71787,57063],[-610,258],[-747,966],[-547,349]],[[69883,58636],[-13,0]],[[69870,58636],[980,1678],[545,1501],[1305,837],[630,977],[202,1249]],[[73532,64878],[702,-222]],[[69870,58636],[-239,848],[-840,877],[66,2830]],[[68857,63191],[839,1427]],[[69696,64618],[1369,-21],[1488,419],[979,-138]],[[31407,65047],[-847,-1870],[-992,-286],[-391,-976],[710,-1167],[392,-1755]],[[27167,63181],[772,-770]],[[27939,62411],[1007,1351],[1511,1076],[950,209]],[[39459,65066],[547,-169],[1597,-1302]],[[41603,63595],[-160,-797],[177,-1412],[651,-30],[363,-3418],[230,-444]],[[36179,56533],[902,1879],[-236,845],[476,53],[705,2558],[759,1535],[407,440]],[[39192,63843],[287,306],[-20,917]],[[81497,65090],[1616,-2455],[533,-1591],[550,-742],[726,-349]],[[77595,62447],[332,-224],[1211,-51],[698,578],[1241,2061],[420,279]],[[50640,63580],[145,-1247],[256,-431]],[[48476,60830],[-279,1287],[-679,472],[-486,1431],[228,1082]],[[47260,65102],[1034,-224],[502,-1063],[1367,-469],[477,234]],[[34790,60739],[-238,1406],[-108,1926]],[[34444,64071],[766,-882],[863,1370],[-179,1250],[507,6],[1051,-1123],[860,-97],[880,-752]],[[41603,63595],[1069,624]],[[42672,64219],[426,0],[1088,-660],[557,1163],[550,583],[152,700]],[[45445,66005],[1815,-903]],[[14583,60452],[369,492],[646,2630],[315,643],[111,1048],[359,753]],[[16383,66018],[155,-1552],[1115,-1900],[594,-110],[646,-592],[553,-930]],[[65337,66009],[284,-619],[1358,-1974]],[[66979,63416],[-292,-279],[-1028,-1918],[-1142,-1099]],[[62872,62819],[81,930],[-263,1404]],[[62690,65153],[1010,926],[880,182],[757,-252]],[[33904,65009],[540,-938]],[[31407,65047],[362,742]],[[31769,65789],[272,-141],[536,596],[-97,-712],[724,-573],[700,50]],[[3679,58589],[-259,237],[-308,2782],[-357,1698]],[[2755,63306],[167,1409],[553,1093],[1973,738],[1085,119]],[[6533,66665],[1335,-1725],[189,-2584],[276,-600]],[[26294,66641],[314,-2289],[1331,-1941]],[[24513,62841],[-80,714],[292,2044],[938,1476]],[[25663,67075],[631,-434]],[[50640,63580],[1519,996],[292,588],[-345,875]],[[52106,66039],[220,662],[1003,655]],[[53329,67356],[347,-584],[-134,-1519],[-458,-1396],[189,-841],[537,-955],[103,-705]],[[57249,63606],[-206,1904],[298,243]],[[57341,65753],[741,205],[485,575]],[[58567,66533],[1093,876],[601,234]],[[60261,67643],[2277,-2185],[152,-305]],[[16258,66326],[125,-308]],[[10721,64141],[888,1297],[498,1142],[-286,1089]],[[11821,67669],[1441,-926],[1441,-387],[1555,-30]],[[76315,63200],[1295,1442],[325,-7],[668,952],[265,1002],[720,1547]],[[79588,68136],[1236,-1698],[673,-1348]],[[20239,66829],[858,-1913],[397,-2211]],[[16258,66326],[-694,1784],[-65,694]],[[15499,68804],[1329,-1647],[949,-86],[816,209],[1646,-451]],[[42672,64219],[135,1509],[-57,2101]],[[42750,67829],[448,1171]],[[43198,69000],[2083,-2200],[164,-795]],[[41523,68085],[1227,-256]],[[39459,65066],[-214,1125],[203,3021]],[[39448,69212],[1422,-992],[653,-135]],[[26294,66641],[851,969],[327,1640]],[[27472,69250],[485,-1101],[660,-700],[2166,-706],[683,-408],[303,-546]],[[25364,68855],[291,-844],[8,-936]],[[20239,66829],[-153,580],[536,904],[1266,1269]],[[21888,69582],[1074,-429],[1197,395],[332,338]],[[24491,69886],[873,-1031]],[[69546,68461],[230,-2881],[-80,-962]],[[68857,63191],[-987,-135],[-891,360]],[[65337,66009],[377,506],[729,1615],[295,1782]],[[66738,69912],[1250,-275],[1558,-1176]],[[47260,65102],[960,3452],[-18,1613]],[[48202,70167],[1281,-1727],[726,-1403],[1156,-783],[741,-215]],[[6528,67705],[5,-1040]],[[2755,63306],[-1215,968],[-823,-42],[-717,585],[606,1590],[236,3997],[153,415]],[[995,70819],[438,-455],[3706,-2410],[1389,-249]],[[1670,71840],[785,-650],[686,-249],[1291,-78],[1347,-529]],[[5779,70334],[655,-1150],[94,-1479]],[[995,70819],[379,1111],[296,-90]],[[74234,64656],[816,1345],[274,1554],[-99,936],[527,2425],[1065,1048]],[[76817,71964],[875,-1590],[1896,-2238]],[[55316,71871],[-60,-2012],[102,-1742],[258,-1148],[750,-283],[975,-933]],[[53329,67356],[-318,613],[333,890],[-80,1084],[717,1226],[721,890],[614,-188]],[[11821,67669],[-669,1917],[-691,1243]],[[10461,70829],[1201,624],[2241,706],[481,-163]],[[14384,71996],[839,-63],[791,285]],[[16014,72218],[-521,-2095],[6,-1319]],[[71805,71776],[-1461,-1731],[-798,-1584]],[[66738,69912],[-133,1355],[1258,995]],[[67863,72262],[979,-723],[833,114],[683,981],[721,-179],[726,-679]],[[27575,70620],[-103,-1370]],[[25364,68855],[939,1038],[-427,2798]],[[25876,72691],[696,-600],[1003,-1471]],[[18110,72087],[1500,-197],[504,-867],[1774,-1441]],[[16014,72218],[141,642]],[[16155,72860],[485,-1471],[316,-209],[1154,907]],[[24491,69886],[553,1038],[512,2197]],[[25556,73121],[320,-430]],[[42581,73142],[249,-1250],[-228,-2122],[596,-770]],[[41523,68085],[-221,2184],[381,486],[-397,461],[134,970],[-593,994]],[[40827,73180],[585,-205],[1169,167]],[[39448,69212],[-627,366],[-287,680],[-560,461]],[[37974,70719],[390,837],[67,1734]],[[38431,73290],[847,-897],[1109,98],[440,689]],[[33904,65009],[-707,1446],[1131,1757],[399,2378],[-282,526],[225,2298]],[[34670,73414],[162,-268],[1016,-165],[677,-1848],[1449,-414]],[[71805,71776],[705,-156],[629,226],[658,793],[1209,940],[337,484]],[[75343,74063],[1474,-2099]],[[2842,74319],[2427,-2646],[550,-457]],[[5819,71216],[-40,-882]],[[1670,71840],[-188,1794],[270,749],[1090,-64]],[[9662,74146],[102,-1603],[697,-1714]],[[5819,71216],[495,349],[504,1253],[701,1006],[842,857]],[[8361,74681],[557,-22],[744,-513]],[[21888,69582],[461,2983]],[[22349,72565],[1265,1799]],[[23614,74364],[1300,327]],[[24914,74691],[642,-1570]],[[27575,70620],[543,2131]],[[28118,72751],[857,-34],[331,-330],[743,383],[541,-419],[1340,-232],[1332,1748],[316,904]],[[33578,74771],[828,-460],[264,-897]],[[22349,72565],[-1038,915],[-487,1156]],[[20824,74636],[1225,434],[1393,-419],[172,-287]],[[20651,74653],[173,-17]],[[18110,72087],[114,2441]],[[18224,74528],[676,709],[605,114],[1146,-698]],[[42581,73142],[1591,-671],[221,-763],[909,709],[560,1581],[-220,843]],[[45642,74841],[469,-302]],[[46111,74539],[559,-66],[1013,725],[905,307]],[[48588,75505],[-116,-1222],[-538,-2245],[268,-1871]],[[16155,72860],[-17,3347]],[[16138,76207],[484,-173],[887,260],[542,-400],[-132,-1101],[305,-265]],[[55316,71871],[-50,634],[345,501],[170,3063]],[[55781,76069],[792,-55],[565,343]],[[57138,76357],[1296,-1583],[-1082,-1685],[-224,-975],[580,-1399],[69,-831],[399,-900],[167,-1966],[224,-485]],[[42619,76621],[889,-1224],[1547,-243],[587,-313]],[[38431,73290],[115,1813],[1388,1580]],[[39934,76683],[491,-303],[1769,-108],[425,349]],[[14384,71996],[165,1391],[478,2124],[683,1364]],[[15710,76875],[428,-668]],[[15188,77670],[522,-795]],[[9662,74146],[1487,1471]],[[11149,75617],[1861,1860],[1008,-57],[1170,250]],[[28118,72751],[1144,2771]],[[29262,75522],[753,1467],[102,818],[411,-323],[344,589]],[[30872,78073],[756,-40],[410,-649],[363,-1391],[1177,-1222]],[[24914,74691],[1116,2215],[1143,1690]],[[27173,78596],[2089,-3074]],[[65700,78253],[314,-3154],[894,-1589],[955,-1248]],[[60261,67643],[352,2233],[1789,1775],[266,1713],[-73,5255]],[[62595,78619],[1656,-290],[1449,-76]],[[42631,77321],[-12,-700]],[[39934,76683],[12,750],[-433,1013]],[[39513,78446],[1628,327],[1490,-1452]],[[69040,78782],[879,-2224],[-22,-561],[-900,-1752],[-602,-750],[-532,-1233]],[[65700,78253],[2501,548],[839,-19]],[[74334,79310],[-99,-2086],[467,-2062],[641,-1099]],[[69040,78782],[937,239],[1151,-402],[895,533],[2311,158]],[[44964,79801],[1091,-1730],[68,-1109],[-261,-668],[273,-423],[-24,-1332]],[[42631,77321],[273,685],[148,1338]],[[43052,79344],[260,308],[1333,409],[319,-260]],[[8211,78572],[300,-1397],[-150,-2494]],[[2842,74319],[38,651],[1386,43],[445,1549],[371,3733]],[[5082,80295],[1262,-1509],[1029,-53],[267,-387],[571,226]],[[55139,77435],[15,-1213],[627,-153]],[[48588,75505],[869,3103],[580,1729]],[[50037,80337],[1891,-913],[674,-184],[885,298],[1044,-782],[608,-1321]],[[59437,80895],[1249,-1479],[846,-732],[1063,-65]],[[57138,76357],[1028,1017],[479,1556],[419,2116]],[[59064,81046],[373,-151]],[[15450,81107],[-604,-2480],[342,-957]],[[11149,75617],[677,2036],[436,773],[1863,2260],[313,664]],[[14438,81350],[1012,-243]],[[44964,79801],[315,1249]],[[45279,81050],[870,501],[421,-201],[-31,-873],[919,387],[612,659],[838,-374],[1129,-812]],[[55139,77435],[509,890],[286,1038],[37,1044],[1150,2230]],[[57121,82637],[976,-306],[8,-653],[959,-632]],[[43052,79344],[-773,1541],[296,913],[-117,584],[1127,-457],[877,736]],[[44462,82661],[773,-178],[44,-1433]],[[5082,80295],[350,892],[1260,1913],[691,700]],[[7383,83800],[213,-2475],[394,-1319],[221,-1434]],[[21126,80517],[-475,-5864]],[[15450,81107],[1992,2962]],[[17442,84069],[1094,-687],[0,-709],[1149,-1412],[1441,-744]],[[27173,78596],[-422,543],[745,478],[494,2562]],[[27990,82179],[669,181],[-39,723],[1355,1165]],[[29975,84248],[-9,-642],[1056,-2875],[278,-1988],[-428,-670]],[[72664,84293],[206,-1104],[513,-1524],[632,-1243],[319,-1112]],[[65700,78253],[520,1886],[595,3046]],[[66815,83185],[106,1710]],[[66921,84895],[930,47],[1153,-569],[462,419],[644,-153],[750,512],[760,-307],[183,-465],[861,-86]],[[21126,80517],[1190,732],[851,913],[764,1331]],[[23931,83493],[1709,1250],[276,558]],[[25916,85301],[1235,-1641],[839,-1481]],[[63583,84830],[26,-409],[-737,-2321],[-48,-839],[-381,-1625],[152,-1017]],[[59437,80895],[28,1370]],[[59465,82265],[1608,1759],[750,1300]],[[61823,85324],[1573,-76],[187,-418]],[[63583,84830],[480,350],[1157,74],[1595,-2069]],[[56591,83252],[530,-615]],[[50037,80337],[653,1208],[278,1095],[973,1245],[881,74],[750,704],[41,1291]],[[53613,85954],[3,2]],[[53616,85956],[602,-949],[1253,-526],[270,-971],[850,-258]],[[7383,83800],[923,1374],[1063,1097],[968,-1408],[33,-293],[1261,-2068],[810,-456],[1997,-696]],[[23018,84531],[-471,-722],[-817,-658],[-266,514],[-494,2004]],[[20970,85669],[1341,659]],[[22311,86328],[211,-1684],[496,-113]],[[62305,86075],[-482,-751]],[[59465,82265],[-162,309],[-592,2621],[393,279],[600,1150],[2601,-549]],[[44462,82661],[456,1035],[791,664],[682,117],[886,665],[86,1248],[276,632],[-308,429]],[[47331,87451],[1858,-398],[2208,-687],[2216,-412]],[[43011,83802],[845,-936],[606,-205]],[[39513,78446],[-660,2282],[-449,802],[-141,2930],[-168,1323],[-604,429],[-145,1564]],[[37346,87776],[1635,-737],[2306,-1461],[312,-1300],[462,-417],[950,-59]],[[33578,74771],[456,599],[899,378],[297,2065],[-160,1180],[257,2558],[-267,1435],[189,1712],[275,717],[1551,1632],[240,751]],[[37315,87798],[31,-22]],[[47325,87455],[6,-4]],[[43011,83802],[-460,858],[-403,3577],[2755,-292],[2422,-490]],[[58456,88687],[210,-1226],[-135,-1097],[-343,-27],[-165,-1305],[-622,-484],[-188,-609],[-457,-124],[-165,-563]],[[53616,85956],[209,2928]],[[53825,88884],[1010,82],[1646,-509],[1050,-95],[925,325]],[[20970,85669],[-570,2088],[1219,1277]],[[21619,89034],[692,-2706]],[[66768,88440],[47,-2666],[106,-879]],[[62305,86075],[292,659]],[[62597,86734],[886,2192]],[[63483,88926],[1214,747],[976,-220],[1095,-1013]],[[30188,87586],[-309,-2222],[333,-545],[-237,-571]],[[25916,85301],[-140,748],[144,3194],[273,875]],[[26193,90118],[2303,-1661],[1692,-871]],[[23018,84531],[913,-1038]],[[17442,84069],[969,1336],[-29,752],[853,2082],[1937,2032]],[[21172,90271],[447,-1237]],[[62597,86734],[-521,3664]],[[62076,90398],[1071,875]],[[63147,91273],[397,-79],[-61,-2268]],[[66768,88440],[1020,1175],[1402,1076]],[[69190,90691],[2227,816]],[[71417,91507],[294,-1352],[310,-501],[666,-2649],[-153,-1613],[130,-1099]],[[58456,88687],[600,3015]],[[59056,91702],[1827,-916],[1193,-388]],[[21172,90271],[1220,1249],[1158,539],[1062,-672],[976,-943],[605,-326]],[[53825,88884],[2093,3849]],[[55918,92733],[584,-101],[2554,-930]],[[51505,93338],[390,-247],[131,-1875],[397,-884],[1402,-1448]],[[47325,87455],[-143,5706],[178,283]],[[47360,93444],[1273,-1469],[1274,-886],[482,-11],[469,662],[647,1598]],[[37991,94594],[-270,-1448],[-144,-1664],[-83,-2657],[-179,-1027]],[[30188,87586],[1175,-135],[604,695],[320,-67],[-237,1130],[302,1687],[1081,1554],[1190,1047],[229,-36],[953,894],[902,272],[797,-295],[487,262]],[[63747,93820],[-602,-1317],[2,-1230]],[[62076,90398],[-221,1873],[136,2369]],[[61991,94640],[1756,-820]],[[65758,95837],[506,-990],[1763,-1987],[1163,-2169]],[[63747,93820],[379,2205],[1002,142],[630,-330]],[[65758,95837],[742,911]],[[66500,96748],[954,-353],[1252,-1148],[594,-340],[1431,-1918],[686,-1482]],[[54201,96864],[767,-1184],[651,-446],[344,-651],[-45,-1850]],[[51505,93338],[263,1093],[1305,2391],[632,454],[198,535]],[[53903,97811],[298,-947]],[[37991,94594],[703,-55],[910,2236],[913,1469],[1169,349],[2235,-2143],[486,15],[378,-565],[559,-48],[2016,-2408]],[[59665,98904],[-612,-1518],[582,-1025],[-204,-1640]],[[59431,94721],[456,-910],[-605,-1023],[-226,-1086]],[[54201,96864],[1033,125],[1476,423],[1618,1006],[372,786]],[[58700,99204],[965,-300]],[[61991,94640],[359,1345],[865,2475],[665,27],[496,867]],[[64376,99354],[282,-649],[1257,-1530],[585,-427]],[[59665,98904],[1576,454]],[[61241,99358],[-53,-4344],[-745,-725],[-1012,432]],[[61241,99358],[1351,-382],[724,67],[281,491],[779,-180]],[[53903,97811],[700,1209],[773,871],[520,-173],[730,281],[1412,-283],[662,-512]],[[64034,58110],[212,202],[1989,-847],[420,-846],[282,161],[453,-858]],[[67390,55922],[-2,-3]],[[69883,58636],[-51,-856],[-2039,-1801],[-403,-57]]],"transform":{"scale":[7.93327933279327e-06,5.269452694526942e-06],"translate":[78.51412,18.55076]},"objects":{"villages":{"type":"GeometryCollection","geometries":[{"arcs":[[0,1,2,3]],"type":"Polygon","properties":{"n":"Thippaipalle","c":572180,"d":"Jagitial","s":"TELANGANA"}},{"arcs":[[-3,4,5,6]],"type":"Polygon","properties":{"n":"Nallagonda","c":572179,"d":"Jagitial","s":"TELANGANA"}},{"arcs":[[7,-1,8,9]],"type":"Polygon","properties":{"n":"Namilikonda","c":572184,"d":"Jagitial","s":"TELANGANA"}},{"arcs":[[-9,-4,-7,10,11,12]],"type":"Polygon","properties":{"n":"Cheppial","c":572181,"d":"Jagitial","s":"TELANGANA"}},{"arcs":[[-11,-6,13,14,15]],"type":"Polygon","properties":{"n":"Kodimial","c":572177,"d":"Jagitial","s":"TELANGANA"}},{"arcs":[[16,-15,17,18,19,20]],"type":"Polygon","properties":{"n":"Kondapur","c":572178,"d":"Jagitial","s":"TELANGANA"}},{"arcs":[[21,22,-10,-13,23,24]],"type":"Polygon","properties":{"n":"Pudur","c":572182,"d":"Jagitial","s":"TELANGANA"}},{"arcs":[[-22,25,26]],"type":"Polygon","properties":{"n":"Gourapur","c":572183,"d":"Jagitial","s":"TELANGANA"}},{"arcs":[[27,28,29,30,31]],"type":"Polygon","properties":{"n":"Thurthi","c":572157,"d":"Jagitial","s":"TELANGANA"}},{"arcs":[[32,33,34,35,36]],"type":"Polygon","properties":{"n":"Surampeta","c":572170,"d":"Jagitial","s":"TELANGANA"}},{"arcs":[[37,38,39,40]],"type":"Polygon","properties":{"n":"Kalikota","c":572155,"d":"Jagitial","s":"TELANGANA"}},{"arcs":[[-35,41,-29,42]],"type":"Polygon","properties":{"n":"Pasnoor","c":572110,"d":"Jagitial","s":"TELANGANA"}},{"arcs":[[43,44,45]],"type":"Polygon","properties":{"n":"Narsimhunipeta","c":572200,"d":"Jagitial","s":"TELANGANA"}},{"arcs":[[46,47,-26,-25,48,49]],"type":"Polygon","properties":{"n":"Balwanthapur","c":572068,"d":"Jagitial","s":"TELANGANA"}},{"arcs":[[-24,-12,-16,-17,50,51]],"type":"Polygon","properties":{"n":"Nachupalle","c":572176,"d":"Jagitial","s":"TELANGANA"}},{"arcs":[[52,-31,53,-41,54,55]],"type":"Polygon","properties":{"n":"Ambaripet","c":572156,"d":"Jagitial","s":"TELANGANA"}},{"arcs":[[56,57,58,59]],"type":"Polygon","properties":{"n":"Nandagiri","c":572196,"d":"Jagitial","s":"TELANGANA"}},{"arcs":[[60,61,-20,62,63]],"type":"Polygon","properties":{"n":"Thiramalapur","c":572173,"d":"Jagitial","s":"TELANGANA"}},{"arcs":[[-63,-19,64,-33,65,66]],"type":"Polygon","properties":{"n":"Potharam","c":572172,"d":"Jagitial","s":"TELANGANA"}},{"arcs":[[67,-46,68,-57,69]],"type":"Polygon","properties":{"n":"Namapur","c":572199,"d":"Jagitial","s":"TELANGANA"}},{"arcs":[[70,-51,-21,-62,71,72]],"type":"Polygon","properties":{"n":"Ramsagar","c":572175,"d":"Jagitial","s":"TELANGANA"}},{"arcs":[[-55,-40,73,74,75]],"type":"Polygon","properties":{"n":"Ippapalle","c":572153,"d":"Jagitial","s":"TELANGANA"}},{"arcs":[[-72,-61,76,77]],"type":"Polygon","properties":{"n":"Sanivarampeta","c":572174,"d":"Jagitial","s":"TELANGANA"}},{"arcs":[[78,-59,79,80]],"type":"Polygon","properties":{"n":"Aithupalle","c":572195,"d":"Jagitial","s":"TELANGANA"}},{"arcs":[[81,-66,-37,82,83]],"type":"Polygon","properties":{"n":"Konapur","c":572171,"d":"Jagitial","s":"TELANGANA"}},{"arcs":[[84,-44,85]],"type":"Polygon","properties":{"n":"Keesulatapalle","c":572198,"d":"Jagitial","s":"TELANGANA"}},{"arcs":[[86,-50,87,88]],"type":"Polygon","properties":{"n":"Sarvapur","c":572066,"d":"Jagitial","s":"TELANGANA"}},{"arcs":[[89,90,-47,-87,91,92]],"type":"Polygon","properties":{"n":"Thatipalle","c":572065,"d":"Jagitial","s":"TELANGANA"}},{"arcs":[[-56,-76,93,94,95,96]],"type":"Polygon","properties":{"n":"Thandriyal","c":572152,"d":"Jagitial","s":"TELANGANA"}},{"arcs":[[97,98,-70,-60,-79,99,100,101]],"type":"Polygon","properties":{"n":"Pegadapalle","c":572197,"d":"Jagitial","s":"TELANGANA"}},{"arcs":[[102,-86,-68,-99,103,104,105]],"type":"Polygon","properties":{"n":"Yellapur","c":572190,"d":"Jagitial","s":"TELANGANA"}},{"arcs":[[106,107,-32,-53,-97,108,109,110]],"type":"Polygon","properties":{"n":"Gambhirpur","c":572151,"d":"Jagitial","s":"TELANGANA"}},{"arcs":[[-77,-64,-67,-82,111,112,113]],"type":"Polygon","properties":{"n":"Gorregundam","c":572056,"d":"Jagitial","s":"TELANGANA"}},{"arcs":[[-109,-96,114,115]],"type":"Polygon","properties":{"n":"Posanipeta","c":572150,"d":"Jagitial","s":"TELANGANA"}},{"arcs":[[-112,-84,116,117,118,119]],"type":"Polygon","properties":{"n":"Voddedu","c":572111,"d":"Jagitial","s":"TELANGANA"}},{"arcs":[[-88,-49,-52,-71,120,121]],"type":"Polygon","properties":{"n":"Muthyampeta","c":572067,"d":"Jagitial","s":"TELANGANA"}},{"arcs":[[122,-117,-83,-36,-43,-28,-108,123,124]],"type":"Polygon","properties":{"n":"Govindaram","c":572109,"d":"Jagitial","s":"TELANGANA"}},{"arcs":[[-118,-123,125,126]],"type":"Polygon","properties":{"n":"Raghojipeta","c":572105,"d":"Jagitial","s":"TELANGANA"}},{"arcs":[[-78,-114,127,128]],"type":"Polygon","properties":{"n":"Maddutla","c":572057,"d":"Jagitial","s":"TELANGANA"}},{"arcs":[[-124,-107,129,130]],"type":"Polygon","properties":{"n":"Lingampeta","c":572108,"d":"Jagitial","s":"TELANGANA"}},{"arcs":[[131,-74,-39,132,133]],"type":"Polygon","properties":{"n":"Potharam","c":572154,"d":"Jagitial","s":"TELANGANA"}},{"arcs":[[134,-94,-75,-132,135,136]],"type":"Polygon","properties":{"n":"Chinthakunta","c":572148,"d":"Jagitial","s":"TELANGANA"}},{"arcs":[[137,-93,138,139,140]],"type":"Polygon","properties":{"n":"Thakkallapalle","c":572064,"d":"Jagitial","s":"TELANGANA"}},{"arcs":[[141,-102,142,143]],"type":"Polygon","properties":{"n":"Vengalaipet","c":572192,"d":"Jagitial","s":"TELANGANA"}},{"arcs":[[144,-130,-111,145,146]],"type":"Polygon","properties":{"n":"Bommena","c":572141,"d":"Jagitial","s":"TELANGANA"}},{"arcs":[[147,-121,-73,-129,148,149]],"type":"Polygon","properties":{"n":"Nookapalle","c":572060,"d":"Jagitial","s":"TELANGANA"}},{"arcs":[[150,-106,151,152]],"type":"Polygon","properties":{"n":"Legalamarri","c":572189,"d":"Jagitial","s":"TELANGANA"}},{"arcs":[[153,-113,-120,154,155,156]],"type":"Polygon","properties":{"n":"Obulapur","c":572055,"d":"Jagitial","s":"TELANGANA"}},{"arcs":[[157,-155,-119,-127,158]],"type":"Polygon","properties":{"n":"Venkataraopeta","c":572104,"d":"Jagitial","s":"TELANGANA"}},{"arcs":[[-100,-81,159,-90,-138,160,161]],"type":"Polygon","properties":{"n":"Aravelli","c":572194,"d":"Jagitial","s":"TELANGANA"}},{"arcs":[[162,-139,-92,-89,-122,-148,163]],"type":"Polygon","properties":{"n":"Mallial","c":572061,"d":"Jagitial","s":"TELANGANA"}},{"arcs":[[-136,-134,164,165,166,167]],"type":"Polygon","properties":{"n":"Bhushanrao Peta","c":572147,"d":"Jagitial","s":"TELANGANA"}},{"arcs":[[168,-143,-101,-162,169,170]],"type":"Polygon","properties":{"n":"Bathkepalle","c":572193,"d":"Jagitial","s":"TELANGANA"}},{"arcs":[[-144,-169,171,172,173]],"type":"Polygon","properties":{"n":"Lingapur","c":572185,"d":"Jagitial","s":"TELANGANA"}},{"arcs":[[-146,-110,-116,174,175,176]],"type":"Polygon","properties":{"n":"Dulur","c":572142,"d":"Jagitial","s":"TELANGANA"}},{"arcs":[[-175,-115,-95,-135,177,178]],"type":"Polygon","properties":{"n":"Dumpeta","c":572149,"d":"Jagitial","s":"TELANGANA"}},{"arcs":[[179,-167,180,181]],"type":"Polygon","properties":{"n":"Ootpalle","c":572146,"d":"Jagitial","s":"TELANGANA"}},{"arcs":[[182,183,-104,-98,-142,-174,184,185]],"type":"Polygon","properties":{"n":"Nancherla","c":572191,"d":"Jagitial","s":"TELANGANA"}},{"arcs":[[186,-176,-179,187]],"type":"Polygon","properties":{"n":"Naga Mallappakunta","c":572143,"d":"Jagitial","s":"TELANGANA"}},{"arcs":[[188,189,190,-131,-145,191]],"type":"Polygon","properties":{"n":"Mannnegudem","c":572107,"d":"Jagitial","s":"TELANGANA"}},{"arcs":[[192,-156,-158,193,194,195]],"type":"Polygon","properties":{"n":"Kacharam","c":572103,"d":"Jagitial","s":"TELANGANA"}},{"arcs":[[-194,-159,-126,-125,-191,196,197]],"type":"Polygon","properties":{"n":"Bheemaram","c":572106,"d":"Jagitial","s":"TELANGANA"}},{"arcs":[[198,-152,-105,-184,199,200]],"type":"Polygon","properties":{"n":"Devikonda","c":572188,"d":"Jagitial","s":"TELANGANA"}},{"arcs":[[201,202,203]],"type":"Polygon","properties":{"n":"Rajaram","c":572059,"d":"Jagitial","s":"TELANGANA"}},{"arcs":[[204,205,-140,-163,206,207]],"type":"Polygon","properties":{"n":"Manala","c":572062,"d":"Jagitial","s":"TELANGANA"}},{"arcs":[[208,-203,209,-149,-128,-154,210,211,212]],"type":"Polygon","properties":{"n":"Potharam","c":572058,"d":"Jagitial","s":"TELANGANA"}},{"arcs":[[213,-181,-166,214,215,216,217]],"type":"Polygon","properties":{"n":"Athmakur","c":572137,"d":"Jagitial","s":"TELANGANA"}},{"arcs":[[-170,-161,-141,-206,218,219]],"type":"Polygon","properties":{"n":"Myadampalle","c":572063,"d":"Jagitial","s":"TELANGANA"}},{"arcs":[[220,221,222,223,224]],"type":"Polygon","properties":{"n":"Pathagudur","c":571733,"d":"Jagitial","s":"TELANGANA"}},{"arcs":[[-195,-198,225,226]],"type":"Polygon","properties":{"n":"Rangapur","c":572102,"d":"Jagitial","s":"TELANGANA"}},{"arcs":[[227,-225,228,229]],"type":"Polygon","properties":{"n":"Suraram","c":571734,"d":"Jagitial","s":"TELANGANA"}},{"arcs":[[-204,-209,230,231]],"type":"Polygon","properties":{"n":"Dharur (Part)","c":572087,"d":"Jagitial","s":"TELANGANA"}},{"arcs":[[-178,-137,-168,-180,232,233]],"type":"Polygon","properties":{"n":"Kathlapur","c":572144,"d":"Jagitial","s":"TELANGANA"}},{"arcs":[[-212,234,235,236]],"type":"Polygon","properties":{"n":"Anthargaon","c":572086,"d":"Jagitial","s":"TELANGANA"}},{"arcs":[[237,-200,-183,238,239]],"type":"Polygon","properties":{"n":"Laxmipur","c":572187,"d":"Jagitial","s":"TELANGANA"}},{"arcs":[[240,241,-185,-173,242,243]],"type":"Polygon","properties":{"n":"Aggimalla","c":572049,"d":"Jagitial","s":"TELANGANA"}},{"arcs":[[-235,-211,-157,-193,244,245,246]],"type":"Polygon","properties":{"n":"Rampur","c":572054,"d":"Jagitial","s":"TELANGANA"}},{"arcs":[[247,-216,248,249]],"type":"Polygon","properties":{"n":"Rangarao Peta","c":572136,"d":"Jagitial","s":"TELANGANA"}},{"arcs":[[250,-189,251,252]],"type":"Polygon","properties":{"n":"Dammannapeta","c":572100,"d":"Jagitial","s":"TELANGANA"}},{"arcs":[[253,254,255,256]],"type":"Polygon","properties":{"n":"Maredupalle","c":571735,"d":"Jagitial","s":"TELANGANA"}},{"arcs":[[257,-222,258,259,260,261]],"type":"Polygon","properties":{"n":"Endapalle","c":571732,"d":"Jagitial","s":"TELANGANA"}},{"arcs":[[-226,-197,-190,-251,262,263]],"type":"Polygon","properties":{"n":"Kalvakota","c":572101,"d":"Jagitial","s":"TELANGANA"}},{"arcs":[[-252,-192,-147,-177,-187,264,265,266]],"type":"Polygon","properties":{"n":"Thakkallapalle","c":572140,"d":"Jagitial","s":"TELANGANA"}},{"arcs":[[267,-219,-205,268,269,270]],"type":"Polygon","properties":{"n":"Raghavapatnam","c":572047,"d":"Jagitial","s":"TELANGANA"}},{"arcs":[[271,272,-239,-186,-242,273]],"type":"Polygon","properties":{"n":"Thirmalapuram","c":572186,"d":"Jagitial","s":"TELANGANA"}},{"arcs":[[274,-201,-238,275,276]],"type":"Polygon","properties":{"n":"Athmakur","c":572053,"d":"Jagitial","s":"TELANGANA"}},{"arcs":[[-274,-241,277,278]],"type":"Polygon","properties":{"n":"Gunjapadugu","c":572050,"d":"Jagitial","s":"TELANGANA"}},{"arcs":[[279,280,-271,281,282]],"type":"Polygon","properties":{"n":"Ibrahim Nagar","c":572046,"d":"Jagitial","s":"TELANGANA"}},{"arcs":[[283,-207,-164,-150,-210,-202,-232,284,285]],"type":"Polygon","properties":{"n":"Narsingapur (Part)","c":572088,"d":"Jagitial","s":"TELANGANA"}},{"arcs":[[286,-269,-208,-284,287]],"type":"Polygon","properties":{"n":"Eldurthi","c":572089,"d":"Jagitial","s":"TELANGANA"}},{"arcs":[[288,-265,-188,-234,289,290]],"type":"Polygon","properties":{"n":"Sirkonda","c":572139,"d":"Jagitial","s":"TELANGANA"}},{"arcs":[[-223,-258,291,292]],"type":"Polygon","properties":{"n":"Kothapet","c":571731,"d":"Jagitial","s":"TELANGANA"}},{"arcs":[[293,-276,-240,-273,294,295]],"type":"Polygon","properties":{"n":"Bheemraj Palle","c":572051,"d":"Jagitial","s":"TELANGANA"}},{"arcs":[[296,-229,-224,-293,297]],"type":"Polygon","properties":{"n":"Padkal","c":571730,"d":"Jagitial","s":"TELANGANA"}},{"arcs":[[298,-266,-289,299,300]],"type":"Polygon","properties":{"n":"Nagulpeta","c":572121,"d":"Jagitial","s":"TELANGANA"}},{"arcs":[[301,-257,302,303]],"type":"Polygon","properties":{"n":"Sanabanda","c":571728,"d":"Jagitial","s":"TELANGANA"}},{"arcs":[[-290,-233,-182,-214,304,305,306]],"type":"Polygon","properties":{"n":"Peggerla","c":572145,"d":"Jagitial","s":"TELANGANA"}},{"arcs":[[-303,-256,-230,-297,307,308]],"type":"Polygon","properties":{"n":"Godiselapet","c":571729,"d":"Jagitial","s":"TELANGANA"}},{"arcs":[[309,-305,-218,310,311]],"type":"Polygon","properties":{"n":"Jaggasagar","c":572134,"d":"Jagitial","s":"TELANGANA"}},{"arcs":[[-306,-310,312,313]],"type":"Polygon","properties":{"n":"Kondrikarla","c":572138,"d":"Jagitial","s":"TELANGANA"}},{"arcs":[[-245,-196,-227,-264,314,315,316]],"type":"Polygon","properties":{"n":"Kondapur","c":572097,"d":"Jagitial","s":"TELANGANA"}},{"arcs":[[317,318,319]],"type":"Polygon","properties":{"n":"Vittampeta","c":572132,"d":"Jagitial","s":"TELANGANA"}},{"arcs":[[-260,320,-153,-199,-275,321,322]],"type":"Polygon","properties":{"n":"Gullakota","c":571721,"d":"Jagitial","s":"TELANGANA"}},{"arcs":[[323,324,-254,-302,325]],"type":"Polygon","properties":{"n":"Munjampalle","c":571727,"d":"Jagitial","s":"TELANGANA"}},{"arcs":[[-319,326,327,-250,328,329]],"type":"Polygon","properties":{"n":"Metlachittapur","c":572133,"d":"Jagitial","s":"TELANGANA"}},{"arcs":[[330,331,-301,332,333]],"type":"Polygon","properties":{"n":"Sangem","c":572122,"d":"Jagitial","s":"TELANGANA"}},{"arcs":[[334,-288,-286,335,336]],"type":"Polygon","properties":{"n":"Mothe (R)(Part)","c":572090,"d":"Jagitial","s":"TELANGANA"}},{"arcs":[[337,-311,-217,-248,-328,338,339]],"type":"Polygon","properties":{"n":"Ramlachakkapeta","c":572135,"d":"Jagitial","s":"TELANGANA"}},{"arcs":[[-315,-263,340,341]],"type":"Polygon","properties":{"n":"Vallampalle","c":572098,"d":"Jagitial","s":"TELANGANA"}},{"arcs":[[-341,-253,-267,-299,-332,342]],"type":"Polygon","properties":{"n":"Machapur","c":572099,"d":"Jagitial","s":"TELANGANA"}},{"arcs":[[343,344,345]],"type":"Polygon","properties":{"n":"Dharmaram","c":572092,"d":"Jagitial","s":"TELANGANA"}},{"arcs":[[-345,-282,-270,-287,-335,346,347]],"type":"Polygon","properties":{"n":"Jabithapur","c":572091,"d":"Jagitial","s":"TELANGANA"}},{"arcs":[[348,-292,-262,349,350]],"type":"Polygon","properties":{"n":"Ambaripeta","c":571722,"d":"Jagitial","s":"TELANGANA"}},{"arcs":[[351,-298,-349,352]],"type":"Polygon","properties":{"n":"Sankenapalle","c":571723,"d":"Jagitial","s":"TELANGANA"}},{"arcs":[[353,354,-322,-277,-294,355]],"type":"Polygon","properties":{"n":"Chendoli","c":572052,"d":"Jagitial","s":"TELANGANA"}},{"arcs":[[356,-283,-344,357,358,359]],"type":"Polygon","properties":{"n":"Thirmalapuram","c":572045,"d":"Jagitial","s":"TELANGANA"}},{"arcs":[[360,361,-347,-337,362,363]],"type":"Polygon","properties":{"n":"Thimmapur","c":572080,"d":"Jagitial","s":"TELANGANA"}},{"arcs":[[364,-278,-244,365,-280,-357,366,367,368]],"type":"Polygon","properties":{"n":"Gollapalle","c":572042,"d":"Jagitial","s":"TELANGANA"}},{"arcs":[[369,370,-236,-247,371,372]],"type":"Polygon","properties":{"n":"Tatipalle","c":572085,"d":"Jagitial","s":"TELANGANA"}},{"arcs":[[373,-343,-331,374,375]],"type":"Polygon","properties":{"n":"Gumlapur","c":572123,"d":"Jagitial","s":"TELANGANA"}},{"arcs":[[-324,376,377]],"type":"Polygon","properties":{"n":"Undeda","c":571726,"d":"Jagitial","s":"TELANGANA"}},{"arcs":[[378,-313,-312,-338,379,380]],"type":"Polygon","properties":{"n":"Masaipeta","c":572130,"d":"Jagitial","s":"TELANGANA"}},{"arcs":[[-339,-327,-318,381,382]],"type":"Polygon","properties":{"n":"Ramchandrampeta","c":572131,"d":"Jagitial","s":"TELANGANA"}},{"arcs":[[383,-372,-246,-317,384,385]],"type":"Polygon","properties":{"n":"Medipalle","c":572096,"d":"Jagitial","s":"TELANGANA"}},{"arcs":[[386,-307,-314,-379,387]],"type":"Polygon","properties":{"n":"Peddapur","c":572119,"d":"Jagitial","s":"TELANGANA"}},{"arcs":[[388,389,-295,-272,-279,-365,390]],"type":"Polygon","properties":{"n":"Chilwakodur","c":572041,"d":"Jagitial","s":"TELANGANA"}},{"arcs":[[-333,-300,-291,-387,391,392]],"type":"Polygon","properties":{"n":"Yakeenpur","c":572120,"d":"Jagitial","s":"TELANGANA"}},{"arcs":[[393,-308,-352,394,395]],"type":"Polygon","properties":{"n":"Paidipalle","c":571724,"d":"Jagitial","s":"TELANGANA"}},{"arcs":[[-363,-336,-285,-231,-213,-237,-371,396,397,398]],"type":"Polygon","properties":{"n":"Jagtial (M + OG)","c":802908,"d":"Jagitial","s":"TELANGANA"}},{"arcs":[[399,400,-358,-346,-348,-362,401]],"type":"Polygon","properties":{"n":"Lakshmipuram","c":572079,"d":"Jagitial","s":"TELANGANA"}},{"arcs":[[402,-356,-296,-390,403,404]],"type":"Polygon","properties":{"n":"Datnur","c":572039,"d":"Jagitial","s":"TELANGANA"}},{"arcs":[[-367,-360,405,406,407]],"type":"Polygon","properties":{"n":"Rapalle","c":572043,"d":"Jagitial","s":"TELANGANA"}},{"arcs":[[-404,-389,408,409]],"type":"Polygon","properties":{"n":"Abbapuram","c":572040,"d":"Jagitial","s":"TELANGANA"}},{"arcs":[[410,-406,-359,-401,411]],"type":"Polygon","properties":{"n":"Vengalapuram","c":572044,"d":"Jagitial","s":"TELANGANA"}},{"arcs":[[-380,-340,-383,412,413]],"type":"Polygon","properties":{"n":"Vellulla","c":572129,"d":"Jagitial","s":"TELANGANA"}},{"arcs":[[-395,-353,-351,414,415,416]],"type":"Polygon","properties":{"n":"Kishanraopeta","c":571718,"d":"Jagitial","s":"TELANGANA"}},{"arcs":[[-377,-326,-304,-309,-394,417,418]],"type":"Polygon","properties":{"n":"Cheggaon","c":571725,"d":"Jagitial","s":"TELANGANA"}},{"arcs":[[419,-398,420,421]],"type":"Polygon","properties":{"n":"Kandlapalle (Part)","c":572082,"d":"Jagitial","s":"TELANGANA"}},{"arcs":[[-415,-350,-261,-323,-355,422,423,424]],"type":"Polygon","properties":{"n":"Kondapur","c":571720,"d":"Jagitial","s":"TELANGANA"}},{"arcs":[[425,-385,-316,-342,-374,426,427]],"type":"Polygon","properties":{"n":"Mohanrao Peta","c":572125,"d":"Jagitial","s":"TELANGANA"}},{"arcs":[[-421,-397,-370,428,429,430]],"type":"Polygon","properties":{"n":"Chelgal","c":572083,"d":"Jagitial","s":"TELANGANA"}},{"arcs":[[431,-413,-382,-320,-330,432,433,434,435]],"type":"Polygon","properties":{"n":"Bandalingapur","c":571620,"d":"Jagitial","s":"TELANGANA"}},{"arcs":[[436,-423,-354,-403,437,438,439]],"type":"Polygon","properties":{"n":"Jagdevpeta","c":571712,"d":"Jagitial","s":"TELANGANA"}},{"arcs":[[-427,-376,440,441,442]],"type":"Polygon","properties":{"n":"Venkatapur","c":572124,"d":"Jagitial","s":"TELANGANA"}},{"arcs":[[443,-441,-375,-334,-393,444,445]],"type":"Polygon","properties":{"n":"Koratla (M)","c":802909,"d":"Jagitial","s":"TELANGANA"}},{"arcs":[[-384,446,447,448]],"type":"Polygon","properties":{"n":"Thombarao Peta","c":572095,"d":"Jagitial","s":"TELANGANA"}},{"arcs":[[-424,-437,449,450]],"type":"Polygon","properties":{"n":"Sakapuram","c":571719,"d":"Jagitial","s":"TELANGANA"}},{"arcs":[[451,-429,-373,-449,452,453]],"type":"Polygon","properties":{"n":"Morapalle","c":572084,"d":"Jagitial","s":"TELANGANA"}},{"arcs":[[-408,454,455,456,457,-368]],"type":"Polygon","properties":{"n":"Israjpalle","c":572034,"d":"Jagitial","s":"TELANGANA"}},{"arcs":[[458,-435,459,460]],"type":"Polygon","properties":{"n":"Maidpalle (W)","c":571621,"d":"Jagitial","s":"TELANGANA"}},{"arcs":[[-455,-407,-411,461,462,463]],"type":"Polygon","properties":{"n":"Gangapuram","c":572032,"d":"Jagitial","s":"TELANGANA"}},{"arcs":[[464,-410,465,466]],"type":"Polygon","properties":{"n":"Bonkur","c":572037,"d":"Jagitial","s":"TELANGANA"}},{"arcs":[[467,-447,-386,-426,468,469,470]],"type":"Polygon","properties":{"n":"Katlakunta","c":572093,"d":"Jagitial","s":"TELANGANA"}},{"arcs":[[-422,-431,471,472,473]],"type":"Polygon","properties":{"n":"Porandla","c":572070,"d":"Jagitial","s":"TELANGANA"}},{"arcs":[[474,-462,-412,-400,475,476]],"type":"Polygon","properties":{"n":"Anantharam","c":572078,"d":"Jagitial","s":"TELANGANA"}},{"arcs":[[-364,-399,-420,-474,477,478]],"type":"Polygon","properties":{"n":"Thippannapet (Part)","c":572071,"d":"Jagitial","s":"TELANGANA"}},{"arcs":[[479,-450,-440,480]],"type":"Polygon","properties":{"n":"Velgatoor","c":571713,"d":"Jagitial","s":"TELANGANA"}},{"arcs":[[-469,-428,-443,481,482]],"type":"Polygon","properties":{"n":"Chinnametpalle","c":572117,"d":"Jagitial","s":"TELANGANA"}},{"arcs":[[483,484,-438,-405,-465,485]],"type":"Polygon","properties":{"n":"Lothunur","c":572038,"d":"Jagitial","s":"TELANGANA"}},{"arcs":[[-418,-396,486,487]],"type":"Polygon","properties":{"n":"Ramnoor","c":571717,"d":"Jagitial","s":"TELANGANA"}},{"arcs":[[488,-466,-409,-391,-369,-458,489,490]],"type":"Polygon","properties":{"n":"Vengumatla","c":572036,"d":"Jagitial","s":"TELANGANA"}},{"arcs":[[-460,-434,491,492,493]],"type":"Polygon","properties":{"n":"Rajeswara Rao Pet","c":571619,"d":"Jagitial","s":"TELANGANA"}},{"arcs":[[494,495,-445,-392,-388,-381,496,497]],"type":"Polygon","properties":{"n":"Choulamaddi","c":572128,"d":"Jagitial","s":"TELANGANA"}},{"arcs":[[498,-472,-430,-452,499,500]],"type":"Polygon","properties":{"n":"Kannapur","c":572069,"d":"Jagitial","s":"TELANGANA"}},{"arcs":[[501,-493,502,503]],"type":"Polygon","properties":{"n":"Errapur","c":571618,"d":"Jagitial","s":"TELANGANA"}},{"arcs":[[-476,-402,-361,-479,504,505,506,507]],"type":"Polygon","properties":{"n":"Polasa","c":572072,"d":"Jagitial","s":"TELANGANA"}},{"arcs":[[-500,-454,508,509]],"type":"Polygon","properties":{"n":"Kistampet","c":571663,"d":"Jagitial","s":"TELANGANA"}},{"arcs":[[510,-482,-442,-444,511,512,513]],"type":"Polygon","properties":{"n":"Madhapur","c":572118,"d":"Jagitial","s":"TELANGANA"}},{"arcs":[[-487,-417,514,515,516]],"type":"Polygon","properties":{"n":"Muthunur","c":571716,"d":"Jagitial","s":"TELANGANA"}},{"arcs":[[-516,517,518]],"type":"Polygon","properties":{"n":"Mukktraopet","c":571715,"d":"Jagitial","s":"TELANGANA"}},{"arcs":[[-486,-467,-489,519,520,521]],"type":"Polygon","properties":{"n":"Sirikonda","c":571707,"d":"Jagitial","s":"TELANGANA"}},{"arcs":[[-484,-522,522,523]],"type":"Polygon","properties":{"n":"Beersani","c":571708,"d":"Jagitial","s":"TELANGANA"}},{"arcs":[[-436,-459,524,525]],"type":"Polygon","properties":{"n":"Venkatraopet","c":572126,"d":"Jagitial","s":"TELANGANA"}},{"arcs":[[-518,-515,-416,-425,-451,-480,526,527]],"type":"Polygon","properties":{"n":"Kapparaopeta","c":571714,"d":"Jagitial","s":"TELANGANA"}},{"arcs":[[-470,-483,-511,528,529]],"type":"Polygon","properties":{"n":"Joganpalle","c":572116,"d":"Jagitial","s":"TELANGANA"}},{"arcs":[[530,531,532]],"type":"Polygon","properties":{"n":"Latchakkapet","c":571683,"d":"Jagitial","s":"TELANGANA"}},{"arcs":[[533,-477,-508,534,535,536]],"type":"Polygon","properties":{"n":"Thakkallapalle","c":572074,"d":"Jagitial","s":"TELANGANA"}},{"arcs":[[-525,-461,-494,-502,537,538]],"type":"Polygon","properties":{"n":"Ammakkapet","c":571617,"d":"Jagitial","s":"TELANGANA"}},{"arcs":[[539,-505,-478,-473,-499,540,-531,541,542]],"type":"Polygon","properties":{"n":"Konapur","c":571684,"d":"Jagitial","s":"TELANGANA"}},{"arcs":[[-537,543]],"type":"Polygon","properties":{"n":"Somanpalle","c":572076,"d":"Jagitial","s":"TELANGANA"}},{"arcs":[[-506,-540,544,545]],"type":"Polygon","properties":{"n":"Gullapeta","c":572073,"d":"Jagitial","s":"TELANGANA"}},{"arcs":[[-495,546,547,548]],"type":"Polygon","properties":{"n":"Yousufnagar","c":572112,"d":"Jagitial","s":"TELANGANA"}},{"arcs":[[549,550,-463,-475,-534,551,552]],"type":"Polygon","properties":{"n":"Kalleda","c":572077,"d":"Jagitial","s":"TELANGANA"}},{"arcs":[[553,-512,-446,-496,-549,554,555]],"type":"Polygon","properties":{"n":"Ailapur","c":572113,"d":"Jagitial","s":"TELANGANA"}},{"arcs":[[556,-535,-507,-546,557]],"type":"Polygon","properties":{"n":"Arpapalle","c":571687,"d":"Jagitial","s":"TELANGANA"}},{"arcs":[[558,559,-497,-414,-432,-526,-539,560,561]],"type":"Polygon","properties":{"n":"Metpalle (M)","c":802910,"d":"Jagitial","s":"TELANGANA"}},{"arcs":[[562,563,-523,-521,564,565]],"type":"Polygon","properties":{"n":"Madnoor","c":571709,"d":"Jagitial","s":"TELANGANA"}},{"arcs":[[566,-565,-520,-491,567,568,569,570]],"type":"Polygon","properties":{"n":"Gopulapur","c":571706,"d":"Jagitial","s":"TELANGANA"}},{"arcs":[[-570,571,572,573]],"type":"Polygon","properties":{"n":"Sirivanchakota","c":571705,"d":"Jagitial","s":"TELANGANA"}},{"arcs":[[574,-513,-554,575,576]],"type":"Polygon","properties":{"n":"Kallur","c":572114,"d":"Jagitial","s":"TELANGANA"}},{"arcs":[[577,578,-509,-453,-448,-468,579,580]],"type":"Polygon","properties":{"n":"Pormalla","c":572094,"d":"Jagitial","s":"TELANGANA"}},{"arcs":[[581,-527,-481,-439,-485,-524,-564,582]],"type":"Polygon","properties":{"n":"Stambampalle","c":571711,"d":"Jagitial","s":"TELANGANA"}},{"arcs":[[583,-542,-533,584,585]],"type":"Polygon","properties":{"n":"Nagunur","c":571682,"d":"Jagitial","s":"TELANGANA"}},{"arcs":[[-580,-471,-530,586,587]],"type":"Polygon","properties":{"n":"Mahitapur","c":571659,"d":"Jagitial","s":"TELANGANA"}},{"arcs":[[-585,-532,-541,-501,-510,-579,588,589,590]],"type":"Polygon","properties":{"n":"Allipur","c":571662,"d":"Jagitial","s":"TELANGANA"}},{"arcs":[[-547,-498,-560,591,592]],"type":"Polygon","properties":{"n":"Vempet","c":572127,"d":"Jagitial","s":"TELANGANA"}},{"arcs":[[593,594,-553,595,596]],"type":"Polygon","properties":{"n":"Chinnapur","c":571703,"d":"Jagitial","s":"TELANGANA"}},{"arcs":[[597,-587,-529,-514,-575,598,599]],"type":"Polygon","properties":{"n":"Paidimadugu","c":572115,"d":"Jagitial","s":"TELANGANA"}},{"arcs":[[-561,-538,-504,600,601,602]],"type":"Polygon","properties":{"n":"Dabba","c":571616,"d":"Jagitial","s":"TELANGANA"}},{"arcs":[[603,-576,-556,604,605]],"type":"Polygon","properties":{"n":"Dharmaram","c":571642,"d":"Jagitial","s":"TELANGANA"}},{"arcs":[[-543,-584,606,607,608]],"type":"Polygon","properties":{"n":"Pembetla","c":571685,"d":"Jagitial","s":"TELANGANA"}},{"arcs":[[-596,-552,-544,-536,-557,609,610,611,612]],"type":"Polygon","properties":{"n":"Habsipur","c":572075,"d":"Jagitial","s":"TELANGANA"}},{"arcs":[[613,-592,-559,614,615]],"type":"Polygon","properties":{"n":"Godur","c":571613,"d":"Jagitial","s":"TELANGANA"}},{"arcs":[[-583,-563,616,617]],"type":"Polygon","properties":{"n":"Raipatnam","c":571710,"d":"Jagitial","s":"TELANGANA"}},{"arcs":[[618,-548,-593,-614,619,620]],"type":"Polygon","properties":{"n":"Muthampet","c":571640,"d":"Jagitial","s":"TELANGANA"}},{"arcs":[[-590,621,622,623]],"type":"Polygon","properties":{"n":"Uppumadige","c":571661,"d":"Jagitial","s":"TELANGANA"}},{"arcs":[[624,-622,-589,-578,625,626]],"type":"Polygon","properties":{"n":"Kummaripalle","c":571660,"d":"Jagitial","s":"TELANGANA"}},{"arcs":[[-599,-577,-604,627,628]],"type":"Polygon","properties":{"n":"Sataram","c":571643,"d":"Jagitial","s":"TELANGANA"}},{"arcs":[[629,-605,-555,-619,630,631,632]],"type":"Polygon","properties":{"n":"Chittapur","c":571641,"d":"Jagitial","s":"TELANGANA"}},{"arcs":[[633,-573,634,-594,635,636]],"type":"Polygon","properties":{"n":"Velgonda","c":571702,"d":"Jagitial","s":"TELANGANA"}},{"arcs":[[-607,-586,637,638]],"type":"Polygon","properties":{"n":"Rangapet","c":571681,"d":"Jagitial","s":"TELANGANA"}},{"arcs":[[639,-602,640,641]],"type":"Polygon","properties":{"n":"Varshakonda","c":571615,"d":"Jagitial","s":"TELANGANA"}},{"arcs":[[642,643,-642,644]],"type":"Polygon","properties":{"n":"Komatikondapur","c":571604,"d":"Jagitial","s":"TELANGANA"}},{"arcs":[[-617,-566,-567,645,646]],"type":"Polygon","properties":{"n":"Timmapur","c":571699,"d":"Jagitial","s":"TELANGANA"}},{"arcs":[[647,-610,-558,-545,-609,648]],"type":"Polygon","properties":{"n":"Laxmidevipalle","c":571686,"d":"Jagitial","s":"TELANGANA"}},{"arcs":[[-620,-616,649,650,651,652]],"type":"Polygon","properties":{"n":"Timmapur","c":571612,"d":"Jagitial","s":"TELANGANA"}},{"arcs":[[653,-637,654,655]],"type":"Polygon","properties":{"n":"Nagaram","c":571701,"d":"Jagitial","s":"TELANGANA"}},{"arcs":[[656,-628,-606,-630,657,658]],"type":"Polygon","properties":{"n":"Gundampalle","c":571636,"d":"Jagitial","s":"TELANGANA"}},{"arcs":[[659,-631,-621,-653,660,661]],"type":"Polygon","properties":{"n":"Raghavapeta","c":571639,"d":"Jagitial","s":"TELANGANA"}},{"arcs":[[-658,-633,662,663]],"type":"Polygon","properties":{"n":"Ramdaspeta","c":571637,"d":"Jagitial","s":"TELANGANA"}},{"arcs":[[664,-623,-625,665,666]],"type":"Polygon","properties":{"n":"Veerapur","c":571654,"d":"Jagitial","s":"TELANGANA"}},{"arcs":[[-666,-627,667,668,669]],"type":"Polygon","properties":{"n":"Ramajipet","c":571656,"d":"Jagitial","s":"TELANGANA"}},{"arcs":[[-668,-626,-581,-588,-598,670,671]],"type":"Polygon","properties":{"n":"Raikal","c":571657,"d":"Jagitial","s":"TELANGANA"}},{"arcs":[[-646,-571,-574,-634,-654,672,673]],"type":"Polygon","properties":{"n":"Kamalapur","c":571700,"d":"Jagitial","s":"TELANGANA"}},{"arcs":[[674,675,-643,676]],"type":"Polygon","properties":{"n":"Kamala Nagar","c":571609,"d":"Jagitial","s":"TELANGANA"}},{"arcs":[[677,-650,-615,-562,-603,-640,-644,-676,678,679]],"type":"Polygon","properties":{"n":"Ibrahimpatnam","c":571614,"d":"Jagitial","s":"TELANGANA"}},{"arcs":[[-663,-632,680,681,682,683]],"type":"Polygon","properties":{"n":"Laxmipur","c":571638,"d":"Jagitial","s":"TELANGANA"}},{"arcs":[[-671,-600,-629,-657,684,685,686]],"type":"Polygon","properties":{"n":"Itkyal","c":571658,"d":"Jagitial","s":"TELANGANA"}},{"arcs":[[-682,687,688]],"type":"Polygon","properties":{"n":"Indira Nagar","c":571633,"d":"Jagitial","s":"TELANGANA"}},{"arcs":[[689,-688,-681,-660,690,691]],"type":"Polygon","properties":{"n":"Sirpur","c":571632,"d":"Jagitial","s":"TELANGANA"}},{"arcs":[[-638,-591,-624,-665,692,693,694,695]],"type":"Polygon","properties":{"n":"Alur","c":571653,"d":"Jagitial","s":"TELANGANA"}},{"arcs":[[-691,-662,696,697]],"type":"Polygon","properties":{"n":"Nadukuda","c":571631,"d":"Jagitial","s":"TELANGANA"}},{"arcs":[[-611,-648,698,699,700]],"type":"Polygon","properties":{"n":"Sarangapur","c":571678,"d":"Jagitial","s":"TELANGANA"}},{"arcs":[[701,-693,-667,-670,702,703]],"type":"Polygon","properties":{"n":"Bhoopathipur","c":571655,"d":"Jagitial","s":"TELANGANA"}},{"arcs":[[-697,-661,-652,704,705]],"type":"Polygon","properties":{"n":"Fakir Kondapur","c":571611,"d":"Jagitial","s":"TELANGANA"}},{"arcs":[[706,-705,-651,-678,707,708]],"type":"Polygon","properties":{"n":"Yamapur","c":571610,"d":"Jagitial","s":"TELANGANA"}},{"arcs":[[-686,709,710,711]],"type":"Polygon","properties":{"n":"Regunta","c":571635,"d":"Jagitial","s":"TELANGANA"}},{"arcs":[[-710,-685,-659,-664,-684,712,713]],"type":"Polygon","properties":{"n":"Adavimadhapur","c":571634,"d":"Jagitial","s":"TELANGANA"}},{"arcs":[[714,-655,-636,-597,-613,715,716]],"type":"Polygon","properties":{"n":"Nerella","c":571696,"d":"Jagitial","s":"TELANGANA"}},{"arcs":[[717,-704,718,719]],"type":"Polygon","properties":{"n":"Oddelingapur","c":571651,"d":"Jagitial","s":"TELANGANA"}},{"arcs":[[720,-715,721]],"type":"Polygon","properties":{"n":"Thummenala","c":571697,"d":"Jagitial","s":"TELANGANA"}},{"arcs":[[722,-673,-656,-721,723]],"type":"Polygon","properties":{"n":"Dharmapuri","c":571698,"d":"Jagitial","s":"TELANGANA"}},{"arcs":[[724,-694,-702,-718,725,726]],"type":"Polygon","properties":{"n":"Dharmajipet","c":571652,"d":"Jagitial","s":"TELANGANA"}},{"arcs":[[727,-679,-675,728,729]],"type":"Polygon","properties":{"n":"Erdandi","c":571605,"d":"Jagitial","s":"TELANGANA"}},{"arcs":[[730,-699,-649,-608,-639,-696,731,732]],"type":"Polygon","properties":{"n":"Rechapalle","c":571680,"d":"Jagitial","s":"TELANGANA"}},{"arcs":[[733,-716,-612,-701,734,735]],"type":"Polygon","properties":{"n":"Battapalle","c":571688,"d":"Jagitial","s":"TELANGANA"}},{"arcs":[[736,-709,737,738]],"type":"Polygon","properties":{"n":"Bardipur","c":571606,"d":"Jagitial","s":"TELANGANA"}},{"arcs":[[-732,-695,-725,739,740]],"type":"Polygon","properties":{"n":"Tatlavai","c":571647,"d":"Jagitial","s":"TELANGANA"}},{"arcs":[[-735,-700,-731,741,742]],"type":"Polygon","properties":{"n":"Potharam","c":571677,"d":"Jagitial","s":"TELANGANA"}},{"arcs":[[-740,-727,743,744]],"type":"Polygon","properties":{"n":"Vasthapur","c":571648,"d":"Jagitial","s":"TELANGANA"}},{"arcs":[[-730,745,746]],"type":"Polygon","properties":{"n":"Mularampur","c":571607,"d":"Jagitial","s":"TELANGANA"}},{"arcs":[[747,-692,-698,-706,-707,-737,748,749]],"type":"Polygon","properties":{"n":"Mogalpet","c":571630,"d":"Jagitial","s":"TELANGANA"}},{"arcs":[[-711,-714,750,751,752]],"type":"Polygon","properties":{"n":"Gorrepalle","c":571628,"d":"Jagitial","s":"TELANGANA"}},{"arcs":[[753,-724,-722,754,755,756]],"type":"Polygon","properties":{"n":"Rajaram","c":571694,"d":"Jagitial","s":"TELANGANA"}},{"arcs":[[-751,-713,-683,-689,-690,-748,757,758,759]],"type":"Polygon","properties":{"n":"Mallapur","c":571629,"d":"Jagitial","s":"TELANGANA"}},{"arcs":[[760,-734,761,762,763]],"type":"Polygon","properties":{"n":"Beerpur","c":571676,"d":"Jagitial","s":"TELANGANA"}},{"arcs":[[-755,-717,-761,764]],"type":"Polygon","properties":{"n":"Donoor","c":571695,"d":"Jagitial","s":"TELANGANA"}},{"arcs":[[765,-742,-733,766,767,768]],"type":"Polygon","properties":{"n":"Ganeshpalle","c":571679,"d":"Jagitial","s":"TELANGANA"}},{"arcs":[[-738,-708,-680,-728,-747,769]],"type":"Polygon","properties":{"n":"Vemulakurthi","c":571608,"d":"Jagitial","s":"TELANGANA"}},{"arcs":[[770,771,772]],"type":"Polygon","properties":{"n":"Sri Rampur","c":571624,"d":"Jagitial","s":"TELANGANA"}},{"arcs":[[773,-763,774]],"type":"Polygon","properties":{"n":"Narsimlapalle","c":571675,"d":"Jagitial","s":"TELANGANA"}},{"arcs":[[-767,-741,-745,775,776]],"type":"Polygon","properties":{"n":"Katkapur","c":571646,"d":"Jagitial","s":"TELANGANA"}},{"arcs":[[777,-744,-726,-720,778,779]],"type":"Polygon","properties":{"n":"Chintalur","c":571649,"d":"Jagitial","s":"TELANGANA"}},{"arcs":[[-779,-719,-703,-669,-672,-687,780,781]],"type":"Polygon","properties":{"n":"Mootapalle","c":571650,"d":"Jagitial","s":"TELANGANA"}},{"arcs":[[782,-776,-778,783]],"type":"Polygon","properties":{"n":"Devanpalle","c":571645,"d":"Jagitial","s":"TELANGANA"}},{"arcs":[[784,-769,785,786]],"type":"Polygon","properties":{"n":"Cherlapalle","c":571674,"d":"Jagitial","s":"TELANGANA"}},{"arcs":[[-772,787,788]],"type":"Polygon","properties":{"n":"Sangem","c":571623,"d":"Jagitial","s":"TELANGANA"}},{"arcs":[[789,-756,-765,-764,-774,790,791,792]],"type":"Polygon","properties":{"n":"Theegala Dharmaram","c":571692,"d":"Jagitial","s":"TELANGANA"}},{"arcs":[[793,-752,-760,794,795]],"type":"Polygon","properties":{"n":"Valgonda","c":571626,"d":"Jagitial","s":"TELANGANA"}},{"arcs":[[-788,-771,796,-758,-750,797,798]],"type":"Polygon","properties":{"n":"Obblapur","c":571622,"d":"Jagitial","s":"TELANGANA"}},{"arcs":[[-792,799,800,801]],"type":"Polygon","properties":{"n":"Mothinagar","c":571671,"d":"Jagitial","s":"TELANGANA"}},{"arcs":[[-757,-790,802,803,804]],"type":"Polygon","properties":{"n":"Jaina","c":571693,"d":"Jagitial","s":"TELANGANA"}},{"arcs":[[-800,-791,-775,-762,-736,-743,-766,-785,805,806]],"type":"Polygon","properties":{"n":"Thungur","c":571672,"d":"Jagitial","s":"TELANGANA"}},{"arcs":[[-795,-759,-797,-773,-789,-799,807]],"type":"Polygon","properties":{"n":"Damarajapalle","c":571625,"d":"Jagitial","s":"TELANGANA"}},{"arcs":[[-806,-787,808,809]],"type":"Polygon","properties":{"n":"Kandlapalle","c":571673,"d":"Jagitial","s":"TELANGANA"}},{"arcs":[[810,-786,-768,-777,-783,811,812]],"type":"Polygon","properties":{"n":"Rangasagar","c":571664,"d":"Jagitial","s":"TELANGANA"}},{"arcs":[[813,-781,-712,-753,-794,814]],"type":"Polygon","properties":{"n":"Vempalli Venkata Raopeta","c":571627,"d":"Jagitial","s":"TELANGANA"}},{"arcs":[[815,-801,816,817]],"type":"Polygon","properties":{"n":"Komanpalle","c":571670,"d":"Jagitial","s":"TELANGANA"}},{"arcs":[[818,-803,-793,-802,-816,819]],"type":"Polygon","properties":{"n":"Donthapur","c":571690,"d":"Jagitial","s":"TELANGANA"}},{"arcs":[[-804,-819,820,821]],"type":"Polygon","properties":{"n":"Maggidi","c":571691,"d":"Jagitial","s":"TELANGANA"}},{"arcs":[[822,-809,-811,823,824]],"type":"Polygon","properties":{"n":"Mangela","c":571665,"d":"Jagitial","s":"TELANGANA"}},{"arcs":[[-812,-784,-780,-782,-814,825]],"type":"Polygon","properties":{"n":"Bornapalle","c":571644,"d":"Jagitial","s":"TELANGANA"}},{"arcs":[[826,827,-810,-823,828,829]],"type":"Polygon","properties":{"n":"Thalladharmaram","c":571667,"d":"Jagitial","s":"TELANGANA"}},{"arcs":[[-821,-820,-818,830,831]],"type":"Polygon","properties":{"n":"Arepalle","c":571689,"d":"Jagitial","s":"TELANGANA"}},{"arcs":[[-827,832,833]],"type":"Polygon","properties":{"n":"Rekulapalle","c":571668,"d":"Jagitial","s":"TELANGANA"}},{"arcs":[[-831,-817,-807,-828,-834,834]],"type":"Polygon","properties":{"n":"Kolvai","c":571669,"d":"Jagitial","s":"TELANGANA"}},{"arcs":[[-829,-825,835]],"type":"Polygon","properties":{"n":"Kammunur","c":571666,"d":"Jagitial","s":"TELANGANA"}},{"arcs":[[-456,-464,-551,836,837]],"type":"Polygon","properties":{"n":"Yeshwanthraopet","c":572033,"d":"Jagitial","s":"TELANGANA"}},{"arcs":[[-569,838,-837,-550,-595,-635,-572]],"type":"Polygon","properties":{"n":"Buggaram","c":571704,"d":"Jagitial","s":"TELANGANA"}},{"arcs":[[-490,-457,-838,-839,-568]],"type":"Polygon","properties":{"n":"Shakalla","c":572035,"d":"Jagitial","s":"TELANGANA"}},{"arcs":[[-268,-281,-366,-243,-172,-171,-220]],"type":"Polygon","properties":{"n":"Raghavapatnam","c":572048,"d":"Jagitial","s":"TELANGANA"}}]}}}