{"type":"Topology","arcs":[[[13856,4599],[463,-860],[145,-813],[-37,-644]],[[14427,2282],[-438,-452],[-871,223],[-781,416],[115,383],[883,1605]],[[13335,4457],[521,142]],[[16320,4484],[605,-324],[507,-490],[-101,-1486],[-313,-1399]],[[17018,785],[-1023,989],[-994,486],[-574,22]],[[13856,4599],[1291,82],[252,194],[625,12],[296,-403]],[[17677,5538],[-980,-401],[-377,-653]],[[13335,4457],[-728,513],[-263,477],[-764,331],[-228,466]],[[11352,6244],[232,-463],[764,-331],[460,548],[1872,872],[717,221]],[[15397,7091],[641,-765],[211,66],[1428,-854]],[[20088,7242],[1178,-442],[476,19],[976,-206]],[[22718,6613],[571,608],[828,-103],[188,-299],[67,-985]],[[24372,5834],[-961,-1147],[-371,-112],[-1188,195],[-838,-457],[-1029,-844],[-366,-817],[-42,-1565],[-853,-679],[-861,-76],[-845,453]],[[17677,5538],[759,1291],[311,197]],[[18747,7026],[729,234]],[[19476,7260],[612,-18]],[[15397,7091],[799,1138],[1074,-192],[870,-394],[607,-617]],[[14453,9410],[450,-375]],[[14903,9035],[454,-378],[40,-1566]],[[11352,6244],[144,1319],[294,997],[-85,482],[145,582]],[[11850,9624],[1049,-543],[1393,-52],[161,381]],[[17346,10073],[371,-514],[584,-267],[1175,-2032]],[[14903,9035],[872,601],[862,738]],[[16637,10374],[709,-301]],[[25452,9913],[866,-262],[564,-859],[-62,-853]],[[26820,7939],[-652,-952],[-1029,-92],[-767,-1061]],[[22718,6613],[24,1705],[-92,1555]],[[22650,9873],[978,494],[1255,-114],[569,-340]],[[30298,8000],[-844,-334],[-466,223],[-1917,163]],[[27071,8052],[-49,882],[-318,421],[-194,873],[224,298],[455,-695],[1214,-67],[100,310],[462,107],[500,682]],[[29465,10863],[798,-2058],[35,-805]],[[14453,9410],[-38,757],[502,1363]],[[14917,11530],[411,56]],[[15328,11586],[49,-239],[387,512],[158,-368],[604,-499],[111,-618]],[[19611,12406],[363,-2004],[178,-519],[146,-1422],[-210,-1219]],[[17346,10073],[-200,1059],[1056,1550]],[[18202,12682],[401,-279],[1008,3]],[[19611,12406],[179,607]],[[19790,13013],[627,-721],[962,-747],[-56,-614],[299,-701],[1028,-357]],[[27071,8052],[-251,-113]],[[25452,9913],[426,1924],[734,1082],[324,696]],[[26936,13615],[89,-451],[737,-822],[1703,-1479]],[[15762,14817],[-57,-499],[331,-269],[37,-525],[-370,-1517],[-375,-421]],[[14917,11530],[-670,2233]],[[14247,13763],[657,1267],[858,-213]],[[13850,14183],[147,-473],[250,53]],[[11850,9624],[229,2241],[-1126,3483]],[[10953,15348],[412,-238],[759,-94],[996,-728],[730,-105]],[[19717,15246],[324,-452],[-39,-826],[-212,-955]],[[18202,12682],[-91,1246],[185,269],[-2,1525]],[[18294,15722],[1423,-476]],[[26673,16258],[133,-650],[591,-885],[-156,-901],[-305,-207]],[[19717,15246],[354,816]],[[20071,16062],[924,-133],[1137,159],[924,706]],[[23056,16794],[1015,-197],[900,162],[1028,-375],[674,-126]],[[12708,17394],[412,-214],[560,-591]],[[13680,16589],[281,-785],[82,-851],[-193,-770]],[[10953,15348],[-807,334],[515,1696]],[[10661,17378],[1078,-410],[183,376],[786,50]],[[17811,17890],[483,-2168]],[[15762,14817],[229,515],[-102,944],[985,766],[217,1014]],[[17091,18056],[720,-166]],[[13680,16589],[524,199],[1175,857]],[[15379,17645],[287,-601],[508,327],[-69,486],[234,673]],[[16339,18530],[752,-474]],[[12708,17394],[188,1119],[230,720]],[[13126,19233],[733,102]],[[13859,19335],[500,-611],[942,-418],[78,-661]],[[17811,17890],[301,711],[499,686],[1130,-43],[304,259],[617,70]],[[20662,19573],[-269,-874],[-136,-1726],[-186,-911]],[[10661,17378],[498,1413],[64,1115]],[[11223,19906],[995,-481],[746,-22],[162,-170]],[[20662,19573],[119,505],[234,-70]],[[21015,20008],[942,-188],[485,337]],[[22442,20157],[180,-314],[108,-1127],[-32,-1088],[358,-834]],[[25584,20347],[194,-1192],[578,-637],[800,-403]],[[27156,18115],[106,-379],[-589,-1478]],[[22442,20157],[539,257],[115,318],[940,-195],[276,233],[349,-330],[923,-93]],[[27156,18115],[-49,597],[292,1089]],[[27399,19801],[403,4],[276,916],[475,-166],[10,365],[944,-126],[152,-568],[-246,-883],[29,-751],[442,-1254],[-166,-863],[-466,-1025],[144,-1089],[-94,-2723],[163,-775]],[[25584,20347],[211,209],[195,862]],[[25990,21418],[1168,-792],[241,-825]],[[15690,21516],[433,-133],[218,-905]],[[16341,20478],[130,-1479],[-132,-469]],[[13859,19335],[437,901],[161,862],[-63,581]],[[14394,21679],[432,299],[864,-462]],[[22124,21526],[-1109,-1518]],[[16341,20478],[736,389],[147,724],[415,391],[227,501]],[[17866,22483],[596,-352],[532,313],[-74,-1112],[569,254],[554,-356],[-33,657],[472,331],[1216,-379],[426,-313]],[[24449,23056],[-220,-790],[1037,13],[641,-372]],[[25907,21907],[83,-489]],[[22124,21526],[414,369],[590,947],[1321,214]],[[11223,19906],[0,286],[-1587,657],[151,355],[-53,1587],[78,575]],[[9812,23366],[714,314],[729,108]],[[11255,23788],[341,-143],[489,-901],[1036,-374],[1273,-691]],[[18185,24763],[-67,-1863],[-252,-417]],[[15690,21516],[408,939],[-116,963],[550,53],[-78,1375],[119,350]],[[16573,25196],[373,-328],[1239,-105]],[[19922,25561],[-132,-623],[345,-129],[897,-967],[554,-304],[538,-2012]],[[18185,24763],[-57,419],[652,416]],[[18780,25598],[517,-218],[625,181]],[[24003,25580],[720,-76],[560,-481],[716,53]],[[25999,25076],[-18,-1789],[-1132,927],[-400,-1158]],[[19922,25561],[-26,649]],[[19896,26210],[1499,-476],[1173,-1015],[616,-254],[133,-423],[248,872],[210,26],[228,640]],[[27687,25844],[2423,-1151]],[[30110,24693],[22,-817],[-286,-146],[-682,222],[-821,-585],[-95,-758],[-448,221],[-1339,95],[-252,-187]],[[26209,22738],[215,1361],[-23,665],[193,902],[-44,535]],[[26550,26201],[1137,-357]],[[26209,22738],[-302,-831]],[[25999,25076],[10,1520],[541,-395]],[[16573,25196],[-232,129],[-239,1112]],[[16102,26437],[381,492],[608,-123],[423,236]],[[17514,27042],[212,-917],[1054,-527]],[[31691,26377],[-467,-868],[-428,968]],[[30796,26477],[522,804]],[[31318,27281],[227,-227],[146,-677]],[[33194,27720],[544,-449],[384,-798],[645,477]],[[34767,26950],[-382,-1274],[31,-548],[362,-1058],[311,-98],[323,-481]],[[35412,23491],[-26,-1308],[1440,-715],[1261,-395],[1219,-1396],[392,-12],[290,-327],[148,330],[616,122],[483,-662],[686,24],[759,-1011],[307,186],[292,-688],[452,-505],[-48,-1166],[176,-651],[1059,-429],[581,170],[938,-422],[659,-636],[360,232],[1253,-55],[185,-293],[8,-666],[620,-1048],[139,-651],[300,-419],[-131,-642],[-4,-1301],[-302,-917],[-138,-971],[-183,-294]],[[49203,6975],[-664,770],[-17,827],[-1075,686],[-951,386],[-1524,-62],[-629,-303],[-580,-808],[-340,-1077],[-481,-686],[-399,-231],[-1070,-1109],[-1115,-901],[-517,-263],[-856,166],[-975,733],[-835,483],[-2017,701],[-1724,901],[-1168,217],[-602,312],[-1366,283]],[[30110,24693],[-234,495],[-8,717],[214,277]],[[30082,26182],[714,295]],[[31691,26377],[586,244],[684,21],[60,1095],[173,-17]],[[65378,16862],[-594,-240],[-171,-510],[68,-758],[397,-1929],[308,-2065],[99,-1409],[-80,-919],[-410,-1483],[-889,-1278],[-286,-744],[-669,-981],[-766,-442],[-624,-623],[-350,-965],[-360,-506],[-604,-433],[-752,-165],[-954,-406],[-839,58],[-495,-144],[-889,-858],[-477,-62],[-564,647],[-488,805],[-706,242],[-900,524],[-528,87],[-1603,927],[-755,1344],[-395,1047],[-899,1352]],[[35412,23491],[666,581],[2533,-675],[1115,-248],[1409,254],[538,309],[364,607],[289,817],[-108,841],[373,947],[299,242],[273,869]],[[43163,28035],[775,-717],[27,-180],[1101,-649],[180,-369],[853,-426],[67,-325],[-645,-284],[-702,-817],[-280,-620],[957,-600],[976,101],[1389,-488],[821,-34],[1236,-1073],[256,883],[-264,1099],[618,177],[1029,-162],[283,-367],[1072,-481],[-158,-195],[555,-333],[443,-1131],[-27,-904],[557,-731],[-8,-407],[597,361],[889,-290],[880,463],[270,-850],[290,-315],[736,-163],[633,-1569],[402,-194],[850,564],[675,11],[738,-576],[839,36],[444,502],[610,265],[386,432],[506,-351],[706,599],[519,-635],[134,-430]],[[30917,27816],[401,-535]],[[30082,26182],[-403,916],[40,1177]],[[29719,28275],[635,-97],[563,-362]],[[11255,23788],[448,528],[1413,1109],[-108,385],[-148,1996]],[[12860,27806],[462,-66],[1003,676]],[[14325,28416],[154,-22],[948,-1101],[-151,-451],[309,82],[517,-487]],[[34818,28070],[-51,-1120]],[[33194,27720],[689,448],[281,393]],[[34164,28561],[654,-491]],[[24901,28112],[-938,-1627]],[[23963,26485],[23,1863]],[[23986,28348],[474,505],[441,-741]],[[24003,25580],[-221,614],[181,291]],[[24901,28112],[298,240],[1243,68],[599,447]],[[27041,28867],[446,-559],[200,-2464]],[[9812,23366],[-535,251],[-745,702],[368,700],[-85,906],[-652,717],[668,947]],[[8831,27589],[1122,-140],[510,400],[321,1497]],[[10784,29346],[514,85]],[[11298,29431],[187,-282],[1375,-1343]],[[18063,29470],[570,-6]],[[18633,29464],[239,-136],[328,-1594],[-129,-1078],[-291,-1058]],[[17514,27042],[-172,1198],[721,1230]],[[33783,29168],[381,-607]],[[30917,27816],[-241,375],[433,573],[320,1008],[388,-16],[179,-323],[1207,-292],[580,27]],[[22292,29922],[928,-549],[354,-925],[412,-100]],[[19896,26210],[-95,1137],[117,1190],[-55,898],[261,462]],[[20124,29897],[1102,120],[50,-184],[1016,89]],[[62317,30124],[65,-540],[507,-1816],[368,-69],[59,-698],[-424,-123],[-504,167],[-414,1147],[-674,857],[100,912],[349,240],[568,-77]],[[8831,27589],[49,731],[-119,813],[101,431],[-139,958]],[[8723,30522],[481,-142],[1580,-1034]],[[18633,29464],[365,896],[1186,140],[-3,219]],[[20181,30719],[155,-356],[-212,-466]],[[14108,32127],[249,-79],[14,-1440],[-157,-950],[111,-1242]],[[11298,29431],[-8,1331]],[[11290,30762],[979,941],[515,-179],[799,666],[525,-63]],[[24282,31992],[436,-33],[944,-733]],[[25662,31226],[129,-594],[442,-529],[780,-280]],[[27013,29823],[28,-956]],[[22292,29922],[451,1097],[201,943]],[[22944,31962],[298,436],[500,-365],[540,-41]],[[21576,33081],[1368,-1119]],[[20181,30719],[67,1244]],[[20248,31963],[435,916],[893,202]],[[18063,29470],[-256,1042],[-175,-10],[-377,672],[-182,1426],[-7,741]],[[17066,33341],[388,-559],[1753,-784],[1041,-35]],[[10151,33925],[1180,-1279]],[[11331,32646],[-41,-1884]],[[8723,30522],[-15,29]],[[8708,30551],[479,716],[650,1728],[19,967]],[[9856,33962],[295,-37]],[[8708,30551],[-1507,364],[-1529,495],[-210,1637]],[[5462,33047],[1496,617],[249,291],[1175,144],[1474,-137]],[[17082,33921],[-16,-580]],[[14108,32127],[527,1422]],[[14635,33549],[994,183],[1090,411],[363,-222]],[[37099,33694],[-336,-716],[-572,-242],[-357,-545],[-609,-98]],[[35225,32093],[-209,162],[-269,1320],[231,410]],[[34978,33985],[773,257],[887,-508],[461,-40]],[[34402,34143],[576,-158]],[[35225,32093],[268,-1241],[485,82],[-137,-1200],[-367,166],[-443,-638],[-213,-1192]],[[33783,29168],[-63,668],[-483,974],[-370,1030],[55,881],[168,317],[-79,748],[102,710]],[[33113,34496],[1289,-353]],[[29781,34534],[20,-89]],[[29801,34445],[-439,-393],[38,-446],[438,-1018],[-168,-681],[-529,-761],[366,-1273],[-116,-778],[328,-820]],[[27013,29823],[466,1286],[256,290],[49,2105],[-54,1214]],[[27730,34718],[2051,-184]],[[25662,31226],[690,1709],[816,1358],[556,431]],[[27724,34724],[6,-6]],[[13798,34131],[837,-582]],[[11331,32646],[1145,1486],[329,671]],[[12805,34803],[312,-507],[498,-325],[183,160]],[[38905,34921],[-60,-899],[333,-1527],[499,387],[363,1210],[704,175]],[[40744,34267],[198,139],[609,-702]],[[41551,33704],[284,-1426],[716,51]],[[42551,32329],[-109,-1360],[318,-308],[396,-7],[597,-876],[-590,-1743]],[[37099,33694],[318,1114]],[[37417,34808],[240,202]],[[37657,35010],[270,-120],[978,31]],[[42767,35027],[-249,-535],[33,-2163]],[[41551,33704],[480,1263],[720,94]],[[42751,35061],[16,-34]],[[29801,34445],[395,521],[394,139]],[[30590,35105],[587,-95],[297,-256],[1639,-258]],[[34402,34143],[845,1204]],[[35247,35347],[228,-41],[428,477],[1263,-1208],[251,233]],[[10151,33925],[190,869]],[[10341,34794],[356,1054]],[[10697,35848],[794,-372],[443,-451],[455,29],[416,-251]],[[17242,34814],[-160,-893]],[[13798,34131],[-102,955],[386,658]],[[14082,35744],[1372,233],[900,44]],[[16354,36021],[290,-843],[598,-364]],[[38820,36089],[-147,-461],[232,-707]],[[37657,35010],[26,734],[-386,516]],[[37297,36260],[1064,92],[459,-263]],[[46929,36151],[-128,-746],[128,-210],[1296,-90]],[[48225,35105],[-483,-863],[397,-902],[-199,-889],[-406,-549],[-827,546],[-606,234],[-180,865]],[[45921,33547],[40,2486],[73,453],[895,-335]],[[35247,35347],[218,558]],[[35465,35905],[500,497],[249,-40]],[[36214,36362],[673,93]],[[36887,36455],[410,-195]],[[21530,35387],[-244,-774],[339,-603],[-49,-929]],[[17242,34814],[683,751],[292,63],[121,608]],[[18338,36236],[683,529]],[[19021,36765],[411,-102],[759,-612],[1339,-664]],[[27724,34724],[-223,397],[-13,1236],[-226,390]],[[27262,36747],[974,286]],[[28236,37033],[1439,-2240],[106,-259]],[[5462,33047],[9,1409],[174,852],[403,1105],[1007,369],[401,352]],[[7456,37134],[632,-749],[713,-154],[969,-1336],[571,-101]],[[33113,34496],[599,1250],[-402,968]],[[33310,36714],[551,128],[612,469]],[[34473,37311],[688,-623],[304,-783]],[[24282,31992],[-36,568],[260,1015],[10,562],[-213,853],[119,1166],[-100,452]],[[24322,36608],[573,339],[661,601]],[[25556,37548],[798,-689],[908,-112]],[[43282,37616],[584,-487],[188,-989],[29,-1071]],[[44083,35069],[-270,417],[-831,-1],[-215,-458]],[[42751,35061],[-615,2509]],[[42136,37570],[362,133],[784,-87]],[[91303,37722],[609,-73],[-46,-587],[95,-1637],[-99,-823],[-655,-93],[-21,3225],[117,-12]],[[23014,37457],[1308,-849]],[[21530,35387],[144,366],[155,1263],[-483,905]],[[21346,37921],[1485,-654],[183,190]],[[7456,37134],[380,280],[89,645],[1739,-407],[335,356],[399,-196],[102,-863],[248,-717],[-51,-384]],[[19021,36765],[544,378],[-22,278],[658,291],[205,496],[940,-287]],[[30590,35105],[238,28],[335,551],[236,2021]],[[31399,37705],[1137,749],[334,32]],[[32870,38486],[281,-1423],[159,-349]],[[38820,36089],[404,1165],[-171,679]],[[39053,37933],[666,531]],[[39719,38464],[186,95]],[[39905,38559],[492,-979],[148,-553],[-191,-1586],[390,-1174]],[[16354,36021],[114,1742],[541,798]],[[17009,38561],[-143,-669],[428,-305],[35,-468],[562,-206],[447,-677]],[[37391,38699],[643,-145],[778,-617],[241,-4]],[[36887,36455],[504,2244]],[[32870,38486],[528,374]],[[33398,38860],[621,-736],[454,-813]],[[17009,38563],[0,-2]],[[14082,35744],[-108,390],[64,855],[403,2400],[2568,-826]],[[23166,39749],[-6,-815],[-198,-311],[52,-1166]],[[21346,37921],[358,478],[358,1333]],[[22062,39732],[1104,17]],[[37195,39786],[196,-1087]],[[36214,36362],[-327,1757],[-282,783]],[[35605,38902],[-37,839],[1627,45]],[[46071,40251],[256,-1623],[-47,-837],[649,-1640]],[[45921,33547],[-340,361],[-904,65],[-594,1096]],[[43282,37616],[-268,1080],[-327,874],[61,695]],[[42748,40265],[716,-176],[1139,42],[977,375]],[[45580,40506],[491,-255]],[[33398,38860],[-95,264],[347,642],[180,1167]],[[33830,40933],[467,-116],[687,-760],[-104,-532],[725,-623]],[[48241,39482],[139,-450],[-132,-728],[467,-525],[-345,-710],[318,-881],[-463,-1083]],[[46071,40251],[1041,700]],[[47112,40951],[533,-192],[497,-717],[99,-560]],[[40972,41209],[499,-1068],[410,-1442],[-40,-932],[295,-197]],[[39905,38559],[543,531],[-69,1804],[593,315]],[[40972,41209],[123,240]],[[41095,41449],[1117,-470],[536,-714]],[[20485,41614],[780,-403],[122,-751],[675,-728]],[[17009,38563],[-126,815],[583,289],[147,1077],[337,742],[453,-206]],[[18403,41280],[1611,426],[471,-92]],[[28482,40727],[-401,-1166],[161,-1126],[-6,-1402]],[[25556,37548],[142,662],[-156,1793],[490,836],[-132,935]],[[25900,41774],[1157,-500],[335,335],[483,-508],[607,-374]],[[36355,41207],[333,-746],[507,-675]],[[33830,40933],[313,290]],[[34143,41223],[377,652],[589,184]],[[35109,42059],[508,-187],[738,-665]],[[31033,40998],[185,-1717],[226,-848],[-45,-728]],[[28482,40727],[311,1160],[454,284]],[[29247,42171],[1317,-759],[469,-414]],[[23166,39749],[-180,741],[279,989],[400,757],[476,-166],[1062,206]],[[25203,42276],[697,-502]],[[31033,40998],[562,357],[2062,922],[535,9]],[[34192,42286],[-49,-1063]],[[37443,42623],[380,-1465],[500,-1084],[679,-867],[717,-743]],[[36355,41207],[-125,965],[530,621],[466,69]],[[37226,42862],[217,-239]],[[40491,42250],[604,-801]],[[37443,42623],[98,137],[986,-51],[579,469],[644,-537],[264,-470],[477,79]],[[41212,43187],[185,-1267],[1094,292],[1984,-1043],[351,-91],[754,-572]],[[40491,42250],[-191,956]],[[40300,43206],[358,265],[554,-284]],[[48305,43081],[460,-21],[204,-857],[279,-490]],[[49248,41713],[-1096,-1272],[89,-959]],[[47112,40951],[-291,936]],[[46821,41887],[265,992],[661,545]],[[47747,43424],[558,-343]],[[41212,43187],[681,431],[535,101],[616,-231],[160,311]],[[43204,43799],[2198,-1275],[781,-822],[638,185]],[[73302,43853],[540,-2032],[-108,-143],[253,-1205]],[[73987,40473],[-1156,-1152],[-1130,-252],[-405,331]],[[71296,39400],[135,409],[177,1674],[-29,940],[155,1386]],[[71734,43809],[656,155],[912,-111]],[[25204,43807],[-169,-1221],[168,-310]],[[20485,41614],[458,414],[555,980],[109,1412]],[[21607,44420],[920,87],[1256,-105],[611,107],[810,-702]],[[71296,39400],[-1087,1002],[-637,336],[-60,757],[-506,-96],[-104,433],[555,249],[6,543]],[[69463,42624],[650,2010]],[[70113,44634],[346,-254],[1275,-571]],[[58890,40748],[-305,132],[-838,-46],[-868,113],[-448,672],[498,1075],[-252,446],[125,934],[399,424],[1265,75],[851,296]],[[59317,44869],[265,-45],[27,-467],[268,-27],[107,-538],[-150,-656],[406,-42],[-490,-405],[-863,-54],[-93,-1468],[96,-419]],[[61140,44740],[351,-1948],[22,-582],[401,-743]],[[61914,41467],[-347,-643],[-628,-337],[-757,-75],[-1292,336]],[[59317,44869],[197,190]],[[59514,45059],[681,-233],[945,-86]],[[36603,45306],[112,-1164],[511,-1280]],[[35109,42059],[606,1780],[32,746],[809,752]],[[36556,45337],[47,-31]],[[34192,42286],[91,895],[-183,1707]],[[34100,44888],[533,645],[870,224],[1053,-420]],[[36603,45306],[-1,4]],[[36602,45310],[831,-404],[1170,627],[1004,433]],[[39607,45966],[54,-1392],[363,-1498],[276,130]],[[50522,42959],[-823,-184],[-62,-746],[-389,-316]],[[48305,43081],[155,438],[-366,530],[-66,1820]],[[48028,45869],[1524,189]],[[49552,46058],[248,-1523],[257,-677],[47,-646],[418,-253]],[[47747,43424],[-741,854],[-838,307],[-89,1655]],[[46079,46240],[683,-11],[1266,-360]],[[82413,40533],[-1539,-1043],[-345,-3],[-226,876],[11,817],[181,1696],[313,1519]],[[80808,44395],[727,-458],[505,-564],[596,614],[547,875],[388,293],[647,1315]],[[84218,46470],[-59,-2107],[-119,-850],[-472,-565],[-738,-1527],[-376,-471],[-41,-417]],[[42699,45310],[83,-1197],[422,-314]],[[39607,45966],[952,89],[1779,470]],[[42338,46525],[361,-1215]],[[84853,43657],[-395,1012],[62,1073],[314,811]],[[84834,46553],[230,-302],[306,-1112],[-66,-570],[-451,-912]],[[51550,46485],[685,-448],[158,-700],[304,-314]],[[52697,45023],[-573,-527],[-425,-1148],[-1177,-389]],[[49552,46058],[414,629]],[[49966,46687],[744,-387],[158,-452],[643,420],[39,217]],[[62139,46717],[-179,-2154],[-820,177]],[[59514,45059],[573,294],[836,1351],[1216,13]],[[81799,28332],[-143,394],[-450,260],[-241,432],[24,541],[321,1013],[-111,997],[-331,420],[-844,-3],[-701,-367],[-464,-914],[-147,-34],[-558,860],[-1111,-282],[-812,345],[-684,-189],[-1072,280],[-445,322],[-630,-19],[35,345],[-588,1803],[99,1121],[275,246],[-46,655],[584,822],[-66,1532],[110,739],[-133,489],[317,333]],[[73302,43853],[-50,377],[333,172],[234,1894],[483,537],[997,-1],[25,245]],[[75324,47077],[2556,-20],[601,-908],[218,219],[1049,-213],[381,37]],[[80129,46192],[-44,-437],[503,-684],[220,-676]],[[82413,40533],[795,-1386],[221,163],[703,-49],[780,300]],[[84912,39561],[358,-136],[611,454],[267,569],[593,-1076],[-137,445],[763,2399],[280,191],[-438,842],[439,192],[-19,1075],[-179,491],[524,638],[672,537],[863,173],[975,-35],[1262,258],[988,931]],[[92734,47509],[126,-243],[-33,-1410],[119,-543],[721,-234],[329,-344],[17,-421],[566,-700],[751,-34],[811,-874],[384,-147],[662,465],[742,-802],[330,-828],[620,-512],[286,-436],[811,-696],[23,-1364],[-259,-1147],[31,-772],[-89,-3109],[-425,-1155],[-164,-1896],[-33,-1372],[-235,-1489],[-475,-996],[-801,-638],[-1114,-409],[-2097,-934],[-1139,-67],[-1126,708],[-1799,1929],[-835,-9],[-562,-347],[-401,-576],[-723,76],[-769,644],[-397,107],[-868,-375],[-1396,1118],[-728,290],[-1796,365]],[[46026,46913],[53,-673]],[[42699,45310],[507,1322],[198,931]],[[43404,47563],[2282,-389],[340,-261]],[[20820,48123],[72,-2042],[521,-1059]],[[21413,45022],[194,-602]],[[21607,44420],[-1188,-273],[-1466,311]],[[18953,44458],[-46,814],[-377,798]],[[18530,46070],[399,792],[537,563],[301,603]],[[19767,48028],[1053,95]],[[25204,43807],[74,698],[-312,72],[-396,2081],[-330,476]],[[24240,47134],[1099,843]],[[25339,47977],[402,-497],[591,-336],[516,82],[1073,656],[677,259]],[[28598,48141],[144,-180],[21,-968],[-242,-2113],[30,-500],[506,-164],[351,-1405],[-161,-640]],[[29247,42171],[485,413],[433,981],[730,341],[-12,544],[-378,147],[341,1040],[108,739],[-356,100],[82,504]],[[30680,46980],[668,-263],[880,104],[527,1492]],[[32755,48313],[809,-432],[279,-349],[257,-2644]],[[52886,48018],[15,-2108],[-68,-748]],[[52833,45162],[-136,-139]],[[51550,46485],[-261,539],[102,349],[707,473],[223,464],[565,-292]],[[21413,45022],[756,1187],[948,2302]],[[23117,48511],[1123,-1377]],[[28598,48141],[-16,568]],[[28582,48709],[448,-89],[480,-512],[542,-833],[628,-295]],[[42338,46525],[-523,422],[-1579,211],[898,1250],[752,462]],[[41886,48870],[989,-990],[529,-317]],[[70113,44634],[-68,433],[229,986],[-80,796]],[[70194,46849],[423,517],[398,1169],[24,468]],[[71039,49003],[1279,-380],[3006,-1546]],[[22926,49310],[191,-799]],[[20820,48123],[1043,1714]],[[21863,49837],[1063,-527]],[[36602,45310],[-100,1885],[-274,1563]],[[36228,48758],[1272,887],[908,358]],[[38408,50003],[281,-1303],[394,-340],[-140,-437],[74,-641],[768,-1030],[-178,-286]],[[49771,49496],[195,-2809]],[[46026,46913],[2,7]],[[46028,46920],[992,1368],[1035,1055],[1024,703]],[[49079,50046],[692,-550]],[[32543,48672],[212,-359]],[[28582,48709],[-252,1460]],[[28330,50169],[2288,-622],[1279,-440],[646,-435]],[[26483,49967],[-451,-549],[-693,-1441]],[[23117,48511],[1398,870],[893,923]],[[25408,50304],[1075,-337]],[[84853,43657],[67,-768],[-127,-798],[81,-487],[462,-596],[-262,-558],[-162,-889]],[[84218,46470],[120,1903],[-62,865],[94,815],[192,257]],[[84562,50310],[5,4]],[[84567,50314],[504,-829],[-213,-503],[52,-1343],[-76,-1086]],[[55196,50009],[139,-1406],[319,-343],[528,-1587]],[[56182,46673],[-823,-642],[-1336,-150],[-145,263],[-1045,-982]],[[52886,48018],[901,1030],[35,1318]],[[53822,50366],[696,-567],[678,210]],[[35686,50388],[-514,-858],[445,-446],[611,-326]],[[32543,48672],[475,435],[1444,455],[640,690]],[[35102,50252],[584,136]],[[16694,50518],[563,-768],[977,-659],[139,35],[1314,-928]],[[19687,48198],[80,-170]],[[18530,46070],[-620,429],[-565,156],[-694,883],[-628,-19],[-359,440]],[[15664,47959],[-76,1923],[-173,696]],[[15415,50578],[1279,-60]],[[26483,49967],[612,659]],[[27095,50626],[365,-239],[870,-218]],[[15664,47959],[-304,-481],[-827,139],[-869,1134]],[[13664,48751],[180,959],[438,1358]],[[14282,51068],[584,-76],[549,-414]],[[47883,50873],[1196,-827]],[[46028,46920],[28,225],[-387,1646],[-438,1283],[166,1038]],[[45397,51112],[1029,-68],[661,-721],[327,-76],[469,626]],[[41886,48870],[268,550],[894,1379],[388,400]],[[43436,51199],[1961,-87]],[[38408,50003],[-41,718],[-306,408]],[[38061,51129],[1605,423]],[[39666,51552],[832,170],[969,43]],[[41467,51765],[286,-5],[1683,-561]],[[35686,50388],[434,1157]],[[36120,51545],[860,237],[344,321]],[[37324,52103],[737,-974]],[[80129,46192],[252,2040],[146,2284],[182,681],[-32,653],[182,467]],[[80859,52317],[1862,-752],[1076,-1101],[765,-154]],[[53279,50433],[543,-67]],[[49771,49496],[1486,2955]],[[51257,52451],[1227,-297],[498,-1225],[297,-496]],[[25507,52757],[133,-1464],[-232,-989]],[[22926,49310],[646,1334],[1407,1779],[-33,349]],[[24946,52772],[561,-15]],[[18103,52689],[1388,35]],[[19491,52724],[130,-638],[-348,-1368],[123,-1420],[291,-1100]],[[16694,50518],[397,766],[-524,911],[135,567]],[[16702,52762],[1401,-73]],[[84567,50314],[816,1581],[-150,1053]],[[85233,52948],[663,-384],[849,-1605],[687,-802],[711,-132],[828,64],[217,-160],[379,-912],[592,-715],[1206,-353],[765,-617],[604,177]],[[27561,52951],[-223,-389],[-185,-888],[-58,-1048]],[[25507,52757],[2054,194]],[[21869,52494],[213,-897],[87,-1075],[-306,-685]],[[19491,52724],[396,324]],[[19887,53048],[318,-352],[1664,-202]],[[27561,52951],[217,107]],[[27778,53058],[588,-240],[-84,-606],[247,-1354],[-199,-689]],[[14282,51068],[91,694],[-94,1349]],[[14279,53111],[589,-159],[941,990]],[[15809,53942],[893,-1180]],[[55196,50009],[-68,632],[432,1415]],[[55560,52056],[987,-493],[424,-758],[179,-2579],[1124,640],[380,737],[194,697],[2202,3736]],[[61050,54036],[8,6]],[[61058,54042],[494,-737],[198,-1027],[-280,-427],[-782,-289],[-411,-438],[161,-397],[-106,-1158],[-651,-285],[-76,-441],[188,-768],[-603,-94],[-189,-487],[-7,-669],[-309,309],[-1484,661],[-305,-310],[-152,-838],[-562,26]],[[11332,54112],[427,-1278],[271,-374],[-678,-834],[-1001,-112],[-1145,-461],[-482,-42]],[[8724,51011],[-26,568],[204,728],[-10,957]],[[8892,53264],[643,-104],[802,916],[606,-113],[389,149]],[[35041,54252],[73,-283],[2017,78]],[[37131,54047],[28,-1654],[165,-290]],[[36120,51545],[-962,709],[-1067,1560]],[[34091,53814],[224,240],[726,198]],[[70475,54036],[-226,-367],[-127,-1098],[174,-485],[-106,-580],[131,-705],[718,-1798]],[[70194,46849],[-287,124],[-238,584],[-465,-83],[-530,463],[-564,243]],[[68110,48180],[86,519],[-426,1582],[-829,610],[161,1046],[-231,423],[53,904],[540,813],[847,295],[41,250],[1266,-157],[196,118],[661,-547]],[[54197,54285],[50,-651],[-234,-1032],[119,-314],[-853,-1855]],[[51257,52451],[83,1200]],[[51340,53651],[31,972]],[[51371,54623],[873,-76],[932,197]],[[53176,54744],[491,-553],[530,94]],[[39291,54204],[151,-2160],[224,-492]],[[37131,54047],[391,764]],[[37522,54811],[1769,-607]],[[35102,50252],[-163,137],[-1209,223],[-767,699],[-71,947],[143,1045],[242,730],[-205,13],[-237,787]],[[32835,54833],[349,0],[615,-942],[292,-77]],[[8205,53642],[-1316,-100],[-359,63]],[[6530,53605],[337,961],[390,461]],[[7257,55027],[795,-114],[222,-251],[-69,-1020]],[[73327,55045],[1066,-571],[2670,-626],[758,524]],[[77821,54372],[2283,-561],[329,-884],[426,-610]],[[70475,54036],[310,-6],[345,-613],[235,-843],[616,-362],[778,546],[-38,640],[369,1235],[237,412]],[[55560,52056],[1396,3169]],[[56956,55225],[574,-162],[199,-482],[416,178],[782,-22],[789,371],[104,-639],[266,-332],[964,-101]],[[47883,50873],[-477,1518],[-459,851],[-57,1091]],[[46890,54333],[842,607],[93,282],[639,-134],[240,-1042],[819,659],[750,-289],[1067,-765]],[[40102,55624],[1227,-641]],[[41329,54983],[263,-1338],[-125,-1880]],[[39291,54204],[413,330],[370,1095]],[[40074,55629],[28,-5]],[[15809,53942],[315,628],[922,1133]],[[17046,55703],[574,-1237],[370,-1061],[113,-716]],[[28133,55378],[420,-137]],[[28553,55241],[-110,-1829],[-665,-354]],[[24946,52772],[-67,783],[864,939],[170,1341]],[[25913,55835],[2220,-457]],[[14227,55192],[-324,-1447],[376,-634]],[[13664,48751],[-711,669],[-1202,349],[-966,-732],[-1011,-322],[-825,-59],[29,800],[-254,1555]],[[11332,54112],[252,57],[22,1041],[423,219],[92,397]],[[12121,55826],[1000,50],[689,-281],[417,-403]],[[32959,55939],[1400,-352],[731,-2]],[[35090,55585],[-49,-1333]],[[32835,54833],[124,1106]],[[6530,53605],[-398,161]],[[6132,53766],[-138,765],[58,714],[335,801]],[[6387,56046],[382,-25],[488,-994]],[[25684,55836],[229,-1]],[[21869,52494],[217,1180],[597,1428],[352,489],[66,501]],[[23101,56092],[618,-7],[1965,-249]],[[28553,55241],[907,190],[1411,656],[903,124]],[[31774,56211],[736,-65],[449,-207]],[[19887,53048],[850,1554],[529,1283],[177,766]],[[21443,56651],[599,-408],[1059,-151]],[[56566,55458],[-1584,18],[-399,-222],[-16,-659],[-370,-310]],[[53176,54744],[-413,421],[217,1275]],[[52980,56440],[317,-54],[207,-734],[221,495],[294,-147],[152,426],[379,-37],[433,459]],[[54983,56848],[1581,-1049],[2,-341]],[[52154,56985],[826,-545]],[[51371,54623],[211,1626]],[[51582,56249],[572,736]],[[6132,53766],[-1202,313],[-746,297],[-692,662],[-829,560],[100,391]],[[2763,55989],[1034,1223]],[[3797,57212],[793,-81],[1502,-749],[295,-336]],[[37522,54811],[33,738],[238,1664]],[[37793,57213],[2263,10]],[[40056,57223],[-139,-1033],[157,-561]],[[17046,55703],[674,753]],[[17720,56456],[719,214],[646,25],[175,-178],[609,274],[698,604]],[[20567,57395],[876,-744]],[[14227,55192],[445,761],[459,308],[4,908],[271,472]],[[15406,57641],[639,-1198],[1158,104],[517,-91]],[[77821,54372],[306,1536],[1088,1699],[25,214]],[[79240,57821],[1260,-1055],[802,-470],[773,-921],[1199,-583],[902,-1112],[675,-649],[382,-83]],[[40102,55624],[363,1680],[405,325],[1466,140],[181,131]],[[42517,57900],[66,-1452],[-1254,-1465]],[[33828,57741],[849,129],[425,-1054]],[[35102,56816],[-12,-1231]],[[31774,56211],[-151,433],[323,1259]],[[31946,57903],[1027,-260],[855,98]],[[35102,56816],[1764,761],[354,365]],[[37220,57942],[573,-729]],[[54963,57227],[20,-379]],[[52154,56985],[-74,1274],[146,274]],[[52226,58533],[335,-449],[702,-190],[1369,-620],[331,-47]],[[57836,56596],[-626,622],[176,1267],[1206,310]],[[58592,58795],[12,-1190],[-109,-768],[-473,-368],[-186,127]],[[25684,55836],[-14,931],[202,1372]],[[25872,58139],[1298,557]],[[27170,58696],[1410,387]],[[28580,59083],[-399,-2231],[-48,-1474]],[[8032,58597],[-1008,-1930],[-637,-621]],[[3797,57212],[556,750],[574,435],[1275,91],[666,626]],[[6868,59114],[633,-541],[531,24]],[[24817,59197],[1055,-1058]],[[21443,56651],[222,864],[188,1557]],[[21853,59072],[1333,137],[1631,-12]],[[46892,54337],[-2,-4]],[[42517,57900],[888,240],[21,1085]],[[43426,59225],[500,41]],[[43926,59266],[621,41],[855,-266],[297,-1773],[659,-2125],[534,-806]],[[39640,59418],[458,-1457],[-42,-738]],[[37220,57942],[364,944],[399,289],[548,-182],[394,428]],[[38925,59421],[715,-3]],[[48380,59061],[508,-278],[143,-543]],[[49031,58240],[-1012,-463],[-337,-336],[-644,204]],[[47038,57645],[70,1777]],[[47108,59422],[1272,-361]],[[11841,58223],[-50,-527],[161,-875],[214,-230],[-45,-765]],[[8892,53264],[-476,-42],[-211,420]],[[8032,58597],[518,300]],[[8550,58897],[669,-154],[508,724],[341,18]],[[10068,59485],[789,-566],[489,-126],[495,-570]],[[13939,59473],[210,-425]],[[14149,59048],[1257,-1407]],[[11841,58223],[502,-131],[564,934],[689,502],[343,-55]],[[21457,59669],[396,-597]],[[20567,57395],[-499,567],[317,1152]],[[20385,59114],[1072,555]],[[41264,59756],[554,-290],[699,-1566]],[[39640,59418],[1292,169],[332,169]],[[17732,60001],[1067,-699],[602,34],[984,-222]],[[17720,56456],[-561,1547],[-80,705],[314,1376]],[[17393,60084],[339,-83]],[[52226,58533],[82,883],[596,493]],[[52904,59909],[197,238],[1091,-305],[477,-262],[294,-2353]],[[69521,60131],[709,-161],[231,141]],[[70461,60111],[27,-344],[692,-3336],[531,-716],[1616,-670]],[[68110,48180],[-1194,-35],[-1351,1050],[-370,-221],[-651,288],[-1300,-1125],[-167,-657],[-1028,75],[90,-838]],[[61914,41467],[1119,629],[555,726],[731,193],[1544,209],[1443,-415],[1059,130],[636,-65],[462,-250]],[[81799,28332],[-1207,-52],[-429,-158],[-924,-1726],[-1064,-1761],[-400,-164],[-821,163],[-1096,-258],[-997,-671],[-1000,-284],[-1142,-708],[-395,-413],[-804,-428],[-544,-674],[-17,-1007],[515,-1275],[527,-2173],[573,-832],[120,-1026],[-251,-1122],[57,-1911],[-375,-705],[-1042,-631],[-855,-1060],[-634,-158],[-39,873],[-229,1115],[-599,1994],[-254,2174],[-320,938],[-314,287],[-1289,386],[-1172,-203]],[[61058,54042],[339,1918],[206,466],[-166,1991]],[[61437,58417],[1071,-492],[890,-668],[781,788],[788,83],[1464,-174],[1185,128],[1544,1684],[101,439],[260,-74]],[[34831,60284],[557,2],[454,-455],[790,-255],[334,152]],[[36966,59728],[401,203],[764,-302]],[[38131,59629],[794,-208]],[[33828,57741],[284,1569],[-1074,-255],[86,1456]],[[33124,60511],[850,-321],[857,94]],[[14149,59048],[293,709],[17,529],[291,666]],[[14750,60952],[536,29],[152,300]],[[15438,61281],[648,-127],[687,-523],[45,-361],[575,-186]],[[26642,61195],[-24,-1587],[214,-451],[231,82],[107,-543]],[[24817,59197],[510,2339]],[[25327,61536],[1315,-341]],[[6868,59114],[5,1922]],[[6873,61036],[711,541]],[[7584,61577],[492,-1815],[248,-199],[226,-666]],[[9867,61322],[201,-1837]],[[7584,61577],[78,143]],[[7662,61720],[638,-187],[517,186],[1050,-397]],[[13119,61146],[376,-229],[370,-636],[74,-808]],[[9867,61322],[1033,443],[444,11]],[[11344,61776],[1775,-630]],[[62198,61709],[-149,-705],[54,-1045],[-473,-304],[-193,-1238]],[[56956,55225],[-1,0]],[[56955,55225],[243,555],[638,816]],[[58592,58795],[399,724],[707,831],[811,1441]],[[60509,61791],[260,-281],[448,101],[571,-246],[410,344]],[[30846,61598],[38,-669],[-170,-1395],[-242,-893],[359,11],[878,363],[413,33],[-176,-1145]],[[28580,59083],[32,2008],[-112,735]],[[28500,61826],[3,0]],[[28503,61826],[1336,97],[1007,-325]],[[52078,61812],[30,-1231],[201,5],[595,-677]],[[51582,56249],[-219,692],[-1145,102],[-680,1087],[-507,110]],[[48380,59061],[447,972],[17,843]],[[48844,60876],[112,292],[-224,523],[443,254]],[[49175,61945],[1041,-448],[-11,397],[298,66]],[[50503,61960],[935,141],[640,-289]],[[20385,59114],[191,3073]],[[20576,62187],[463,-287],[158,-464],[419,-327],[31,-620],[-190,-820]],[[20474,62262],[102,-75]],[[17732,60001],[581,1410]],[[18313,61411],[869,86],[1292,765]],[[45467,62335],[75,-1391],[448,-609],[416,-176],[313,-532],[389,-205]],[[47038,57645],[-25,-1453],[-127,-624],[6,-1231]],[[43926,59266],[332,854],[322,376],[150,647],[-19,957]],[[44711,62100],[756,235]],[[41264,59756],[420,383],[200,639]],[[41884,60778],[268,782],[526,675]],[[42678,62235],[457,105]],[[43135,62340],[407,-1308],[-116,-1807]],[[43135,62340],[1015,-67],[561,-173]],[[4169,62100],[1365,-382],[455,-425],[884,-257]],[[2763,55989],[-555,249],[-85,333],[-2123,1551],[333,983],[53,1175]],[[386,60280],[1063,22],[976,180],[137,781],[329,855],[306,273],[972,-291]],[[13119,61146],[1,919],[514,438]],[[13634,62503],[272,-247],[-357,-319],[332,-616],[869,-369]],[[30846,61598],[69,589],[590,344]],[[31505,62531],[204,-383],[1415,-1637]],[[27237,63045],[840,-576],[423,-643]],[[26642,61195],[341,343],[-75,870],[273,682]],[[27181,63090],[56,-45]],[[25327,61536],[403,1818]],[[25730,63354],[1149,-9],[302,-255]],[[40043,63451],[-29,-599],[622,-796],[351,-1160],[897,-118]],[[38131,59629],[719,937],[137,1009],[-153,650],[157,391],[-53,737]],[[38938,63353],[1105,98]],[[33623,63504],[874,-361],[349,-1124]],[[34846,62019],[-15,-1735]],[[31505,62531],[-1,2]],[[31504,62533],[848,269],[485,-74],[786,776]],[[70461,60111],[933,408],[276,670],[138,757],[-125,665],[218,831],[321,228]],[[72222,63670],[244,-1035],[429,-602],[1114,-1107],[1552,-886],[944,-681],[999,-240],[813,-388],[923,-910]],[[48844,60876],[-754,182],[-485,677],[53,1325],[516,644]],[[48174,63704],[153,-475],[-12,-951],[860,-333]],[[13132,63747],[2548,-1248]],[[15680,62499],[-242,-1218]],[[13634,62503],[16,456],[-660,654]],[[12990,63613],[142,134]],[[11344,61776],[375,932],[231,1196]],[[11950,63904],[490,-283],[550,-8]],[[22891,63522],[456,-203],[205,418],[710,97]],[[24262,63834],[1468,-480]],[[20474,62262],[157,1333],[-41,531]],[[20590,64126],[1558,-512],[743,-92]],[[52858,64133],[-23,-741],[-757,-1580]],[[50503,61960],[-34,1280]],[[50469,63240],[282,449],[379,-224],[360,735],[748,-142],[620,75]],[[15680,62499],[394,688],[43,922]],[[16117,64109],[890,190]],[[17007,64299],[-5,-1483],[375,-546],[936,-859]],[[56955,55225],[-389,233]],[[52858,64133],[1656,362],[538,-28],[724,-271],[2109,-280],[781,-201],[830,-392],[1013,-1532]],[[45467,62335],[407,579],[606,387]],[[46480,63301],[600,254],[667,857]],[[47747,64412],[444,222],[-17,-930]],[[36966,59728],[-248,876],[106,1865],[179,474],[28,783],[264,1125]],[[37295,64851],[476,-3],[1065,-1156],[102,-339]],[[42385,65111],[-70,-1814],[84,-594],[279,-468]],[[40043,63451],[432,50],[150,448]],[[40625,63949],[1299,1197],[461,-35]],[[34846,62019],[594,1310],[257,1791],[426,445]],[[36123,65565],[1172,-714]],[[30611,65550],[639,-1602],[254,-1415]],[[28503,61826],[528,2152],[11,485],[580,965]],[[29622,65428],[989,122]],[[69458,65321],[-193,-982],[110,-1548],[425,-1265],[-279,-1395]],[[62198,61709],[338,208],[274,639],[2091,2412],[811,325],[923,551],[877,-796],[382,-91],[684,152],[518,298],[362,-86]],[[69458,65321],[780,375],[1134,221],[150,-159],[93,-1247],[607,-841]],[[27237,63045],[217,867]],[[27454,63912],[309,1465],[-189,541]],[[27574,65918],[1083,-580],[965,90]],[[6213,65636],[510,-1355],[822,-731],[259,-852],[-142,-978]],[[4169,62100],[370,454],[78,548],[720,870],[414,2104]],[[5751,66076],[290,109],[172,-549]],[[14811,66208],[485,-16],[238,-888],[-33,-433],[271,-134],[-109,-553],[454,-75]],[[13132,63747],[291,1431],[-19,1264]],[[13404,66442],[1407,-234]],[[27591,66177],[-17,-259]],[[27454,63912],[-639,322],[-40,445],[-428,210],[-208,1053],[498,818]],[[26637,66760],[954,-583]],[[34377,67161],[780,-186],[80,-693],[253,-354],[766,55]],[[36256,65983],[-133,-418]],[[33623,63504],[307,1767],[447,1890]],[[45827,66056],[206,-1076],[447,-1679]],[[42385,65111],[10,1378],[259,537],[612,-168],[382,301],[1046,61]],[[44694,67220],[879,-588],[254,-576]],[[45827,66056],[1365,871],[759,318]],[[47951,67245],[-266,-512],[-162,-1367],[224,-954]],[[18414,66766],[347,-428],[620,-378]],[[19381,65960],[454,-800],[736,-539],[19,-495]],[[17007,64299],[337,395],[484,1177],[-3,1401]],[[17825,67272],[589,-506]],[[386,60280],[221,1253],[154,1706],[334,1381],[750,1133]],[[1845,65753],[328,-10],[299,1044],[572,565]],[[3044,67352],[441,-445],[1243,-465],[15,-228],[522,57],[486,-195]],[[50059,65849],[-509,-570],[166,-614],[486,-618],[267,-807]],[[47951,67245],[508,154],[758,-364],[842,-1186]],[[12536,67278],[571,-390],[297,-446]],[[11950,63904],[-415,184],[-341,891],[-7,1280]],[[11187,66259],[291,-12],[278,1170]],[[11756,67417],[780,-139]],[[6213,65636],[155,-30]],[[6368,65606],[640,75],[268,581],[575,-359],[640,-19],[209,-237],[455,133],[-162,994],[199,730]],[[9192,67504],[1275,-650],[720,-595]],[[25432,67534],[424,-86],[121,-321],[660,-367]],[[24262,63834],[334,959],[133,2743],[703,-2]],[[29700,67722],[334,-343],[577,-1829]],[[27591,66177],[285,2125]],[[27876,68302],[728,43],[1096,-623]],[[39582,68856],[663,-1232],[-22,-746],[-424,-645],[331,-1138],[477,-866],[18,-280]],[[36256,65983],[401,173],[641,669],[-48,598],[-725,130],[509,231],[459,771]],[[37493,68555],[2089,301]],[[46020,68959],[874,-188],[213,-1014],[844,-512]],[[44694,67220],[-73,1859]],[[44621,69079],[1399,-120]],[[53703,68462],[-671,-956],[-940,-428],[-587,-790],[-368,-282],[-38,319],[-729,-303]],[[50370,66022],[-30,822]],[[50340,66844],[450,1142],[797,1120],[581,259],[759,-243],[776,-660]],[[26870,69192],[758,-279]],[[27628,68913],[-12,-637],[260,26]],[[25432,67534],[-13,747],[142,1295]],[[25561,69576],[1309,-384]],[[34402,69287],[83,-326],[-107,-1797]],[[34378,67164],[-870,-202],[-582,-292],[-571,-656],[-836,-534],[-908,70]],[[29700,67722],[331,1804],[221,478]],[[30252,70004],[1679,-459],[2471,-258]],[[14771,70151],[17,-914],[191,-680],[-4,-1257],[-178,-424],[14,-668]],[[12536,67278],[382,438],[67,2369]],[[12985,70085],[919,296],[867,-230]],[[12982,70088],[3,-3]],[[11756,67417],[209,788],[79,1225],[214,957],[724,-299]],[[49666,70388],[177,-9]],[[49843,70379],[-12,-1645],[382,-458],[127,-1432]],[[50370,66022],[-311,-173]],[[47951,67245],[11,1253],[152,1294],[187,624]],[[48301,70416],[1365,-28]],[[25300,69657],[261,-81]],[[22891,63522],[-195,918],[-172,1551],[432,911],[-37,1366],[-139,922],[-242,646],[-610,220]],[[21928,70056],[463,504]],[[22391,70560],[192,-262],[970,-477],[482,105],[1265,-269]],[[19381,65960],[482,1227],[261,1223],[107,1327],[-55,894]],[[20176,70631],[1752,-575]],[[46020,68959],[536,458],[81,1123],[983,174]],[[47620,70714],[681,-298]],[[18414,66766],[803,3189],[587,971]],[[19804,70926],[372,-295]],[[15839,70978],[1059,-1732]],[[16898,69246],[432,-681],[134,-786],[361,-507]],[[14771,70151],[427,874],[641,-47]],[[1845,65753],[159,252],[34,1366],[-298,-39],[-96,1215],[-209,-18],[593,1530],[297,1188]],[[2325,71247],[111,-23],[140,-1224],[200,-609],[313,3],[-45,-2042]],[[25300,69657],[473,1123],[636,510]],[[26409,71290],[339,-735],[122,-1363]],[[53532,71211],[810,-1600],[-639,-1149]],[[49843,70379],[453,23],[993,649],[853,239],[1390,-79]],[[27628,68913],[352,1055],[1022,1649]],[[29002,71617],[321,-576],[929,-1037]],[[19185,71795],[619,-869]],[[16898,69246],[529,441],[326,880],[290,1240]],[[18043,71807],[1142,-12]],[[26231,71727],[151,-328]],[[26382,71399],[27,-109]],[[22391,70560],[872,1215]],[[23263,71775],[231,-390],[396,58],[613,452],[927,-390],[801,222]],[[34377,67161],[1,3]],[[34402,69287],[798,2693]],[[35200,71980],[1323,-1060],[725,-441],[1,-436],[322,-1190],[-78,-298]],[[6368,65606],[30,962],[235,377],[-106,379],[350,530],[58,1273],[-108,1359]],[[6827,70486],[1403,135],[300,936],[424,578]],[[8954,72135],[99,-414],[-46,-1363],[375,-951],[-190,-1903]],[[15839,70978],[1132,743],[219,421]],[[17190,72142],[853,-335]],[[6129,71677],[698,-1191]],[[2325,71247],[-56,550],[180,944]],[[2449,72741],[668,-468],[875,-264],[780,-527],[616,-213],[741,408]],[[41492,72764],[1912,-2539],[260,-596],[957,-550]],[[39582,68856],[299,1261],[780,2716]],[[40661,72833],[831,-69]],[[29200,72485],[-198,-868]],[[26382,71399],[404,198],[918,1274]],[[27704,72871],[851,-55],[645,-331]],[[25881,72303],[350,-576]],[[23263,71775],[118,337],[663,692],[403,821],[325,71]],[[24772,73696],[305,-583],[804,-810]],[[28187,73999],[-483,-1128]],[[25881,72303],[626,1291],[219,256],[1258,629],[203,-480]],[[17228,74631],[-38,-2489]],[[12982,70088],[-123,1338],[-410,649],[-699,204],[-355,903]],[[11395,73182],[66,699],[1129,282]],[[12590,74163],[590,189],[403,-152]],[[13583,74200],[1257,233],[1581,14],[807,184]],[[49666,70388],[99,521],[-242,939],[112,939],[1057,881],[-88,230],[578,805]],[[51182,74703],[1002,-165],[19,-233],[576,-216],[137,-436],[-176,-303],[538,-920],[254,-1219]],[[24402,74823],[370,-1127]],[[21928,70056],[544,1942],[-80,396],[251,454],[14,872],[539,253],[18,938]],[[23214,74911],[777,-252],[411,164]],[[9483,74676],[814,-343],[1098,-1151]],[[8954,72135],[-521,1715],[88,1070]],[[8521,74920],[962,-244]],[[6129,71677],[356,799]],[[6485,72476],[777,2150],[395,211]],[[7657,74837],[864,83]],[[19185,71795],[507,2312],[455,1026]],[[20147,75133],[892,-308],[745,-17],[846,169],[584,-66]],[[35300,73937],[-113,-846],[13,-1111]],[[29200,72485],[566,490],[730,98],[381,285],[1864,582],[233,219],[345,1098]],[[33319,75257],[480,-247],[1501,-1073]],[[2449,72741],[198,1200],[84,1120],[511,627]],[[3242,75688],[413,-708],[753,-833],[1019,-568],[686,-950],[372,-153]],[[12744,76010],[-87,-470],[183,-550],[-250,-827]],[[9483,74676],[196,286],[-65,1495]],[[9614,76457],[468,-175],[1127,9],[474,-262],[1061,-19]],[[28503,76165],[-7,-1809],[-309,-357]],[[24402,74823],[-124,159]],[[24278,74982],[663,1260],[370,460],[610,436]],[[25921,77138],[999,-851],[339,-132],[1244,10]],[[48644,77277],[-97,-1811],[-369,-2134],[-571,-1255],[13,-1363]],[[41492,72764],[1258,580],[1169,752],[591,874],[97,849]],[[44607,75819],[88,400],[319,117],[639,-161],[307,204]],[[45960,76379],[2164,891],[520,7]],[[14360,77284],[-139,-1193],[-253,-230],[-385,-1661]],[[12744,76010],[85,477]],[[12829,76487],[561,311],[365,-21],[127,362],[478,145]],[[39228,77353],[-108,-1558],[678,-605],[570,-956],[161,-1377],[132,-24]],[[35300,73937],[874,917],[796,1329],[472,13],[470,618],[161,-106],[246,1163]],[[38319,77871],[909,-518]],[[19465,76738],[184,-292],[61,-840],[437,-473]],[[17228,74631],[-76,1754],[271,1587]],[[17423,77972],[297,-600],[1745,-634]],[[9933,77777],[-319,-1320]],[[7657,74837],[2,614],[-198,18],[-62,770],[-491,488]],[[6908,76727],[75,446],[458,168],[48,305]],[[7489,77646],[1718,690]],[[9207,78336],[726,-559]],[[11556,78063],[1273,-1576]],[[9933,77777],[664,471],[709,133],[250,-318]],[[26885,78536],[2130,-800]],[[29015,77736],[-381,-785],[-131,-786]],[[25921,77138],[631,1459]],[[26552,78597],[333,-61]],[[50035,78087],[2,-3]],[[50037,78084],[267,-808],[633,-1143],[-41,-292],[286,-1138]],[[48644,77277],[81,650],[429,720]],[[49154,78647],[881,-560]],[[14360,77284],[574,-28],[1248,1404]],[[16182,78660],[1241,-688]],[[6643,78341],[846,-695]],[[6908,76727],[-1099,28],[-394,740],[-448,356],[-477,-263]],[[4490,77588],[380,910],[644,255],[1129,-412]],[[23477,77229],[-216,-1073],[1017,-1174]],[[19465,76738],[265,1034],[426,907]],[[20156,78679],[262,-160],[1094,287],[706,-669],[1259,-908]],[[32472,78197],[836,-1108],[-247,-739],[504,-440],[-246,-653]],[[29015,77736],[270,1219]],[[29285,78955],[1756,-616],[1164,180],[267,-322]],[[23477,77229],[125,1163],[463,559],[500,208],[391,-111],[640,173],[956,-624]],[[42100,79560],[644,-301],[56,-1271],[997,-1457],[810,-712]],[[39228,77353],[154,-191],[1247,578],[1052,1177],[419,643]],[[9291,80363],[-129,-611],[45,-1416]],[[6643,78341],[44,859],[282,1697]],[[6969,80897],[959,-110],[1363,-424]],[[26885,78536],[-95,1206],[103,1030],[1712,746]],[[28605,81518],[529,-1013],[-4,-1130],[155,-420]],[[11390,81710],[164,-1180],[268,-287]],[[11822,80243],[235,-468],[-501,-1712]],[[9291,80363],[176,367],[569,77],[773,559],[359,444],[222,-100]],[[49154,78647],[-747,1047],[-226,79],[171,1550]],[[48352,81323],[761,496]],[[49113,81819],[199,-1321],[-230,-1307],[953,-1104]],[[4487,77585],[3,3]],[[3242,75688],[372,375],[873,1522]],[[17507,82505],[56,-885],[161,-422],[-291,-869],[-702,-169],[-515,-757],[12,-318]],[[16228,79085],[-193,35],[-350,1067],[-331,1888]],[[15354,82075],[382,217],[1771,213]],[[14079,82494],[1275,-419]],[[16228,79085],[-46,-425]],[[11822,80243],[685,822],[1165,998],[29,601],[378,-170]],[[17507,82505],[-20,229]],[[17487,82734],[847,-171],[807,-505],[240,-585],[197,-1381],[578,-1413]],[[48092,82621],[240,-455],[20,-843]],[[45960,76379],[-443,1530],[54,300],[-652,134],[245,696],[760,95],[-206,596],[28,1468],[1080,1445],[796,166],[470,-188]],[[33131,81350],[-371,-1313],[-288,-1840]],[[28605,81518],[319,1387]],[[28924,82905],[1209,-354],[1063,-665],[1375,-462],[560,-74]],[[38062,79847],[275,-956],[-18,-1020]],[[33131,81350],[414,239],[866,1351],[819,325]],[[35230,83265],[526,-1208],[121,-659],[590,-730],[834,-283],[761,-538]],[[42252,82445],[547,857],[137,679]],[[42936,83981],[1162,-642],[-60,-891],[-580,13],[-697,-244],[-509,228]],[[42877,84314],[59,-333]],[[42252,82445],[199,-1038],[-77,-858],[-333,-584],[59,-405]],[[38062,79847],[355,465],[618,465],[629,977],[560,552],[412,105],[126,973],[642,909]],[[41404,84293],[1473,21]],[[6969,80897],[-180,1130]],[[6789,82027],[391,777],[603,1659]],[[7783,84463],[891,-407],[872,762]],[[9546,84818],[756,-1095],[676,-794],[412,-1219]],[[14079,82494],[199,925],[347,747],[582,769]],[[15207,84935],[850,-322],[292,-403],[895,-666],[243,-810]],[[34857,84514],[699,-102],[-326,-1147]],[[28924,82905],[210,1708],[330,189],[511,-70],[346,359]],[[30321,85091],[683,14],[2551,-238],[1302,-353]],[[47714,84613],[-25,-1339],[403,-653]],[[42877,84314],[1518,-21],[381,90],[-12,440],[1251,676]],[[46015,85499],[561,337],[676,-529],[462,-694]],[[41236,85158],[168,-865]],[[34857,84514],[301,437],[421,191]],[[35579,85142],[253,-457],[307,815],[72,1060]],[[36211,86560],[1072,-179],[743,-692],[1623,152],[1078,-806],[509,123]],[[56512,84747],[-576,-1136],[-769,-1081],[-705,-480],[-662,-748],[-249,-1480],[548,-1892],[-500,-141],[-1274,245],[-1506,-19],[-782,69]],[[49113,81819],[255,1203],[312,936],[1015,331],[419,287],[146,1203],[379,876],[244,239]],[[51883,86894],[710,-97],[420,241],[881,-1458],[337,15],[1770,-964],[511,116]],[[48335,87343],[-154,-1133],[372,-166],[-2,-590],[-384,-537],[-453,-304]],[[46015,85499],[65,805]],[[46080,86304],[241,-64],[847,398],[182,722]],[[47350,87360],[985,-17]],[[30321,85091],[303,684],[650,693],[862,1189]],[[32136,87657],[16,-439],[1681,-482],[1324,-1065],[422,-529]],[[6789,82027],[-806,273],[-1479,-483],[-574,-20]],[[3930,81797],[11,665],[758,1372],[110,-43],[320,1358],[-50,478],[482,1811],[1780,237],[8,-897],[-163,-1570],[92,-825],[505,80]],[[44124,87670],[639,-299],[309,-756],[1008,-311]],[[41236,85158],[234,1179],[303,694]],[[41773,87031],[698,265],[356,-175],[384,480]],[[43211,87601],[485,552],[428,-483]],[[9546,84818],[301,413],[166,1418],[426,1098],[397,638],[68,562],[547,-6],[354,-279],[111,373],[729,-901],[473,-411],[952,-1158],[342,-649],[34,-437],[299,-387],[462,-157]],[[52123,88656],[-185,-861],[-55,-901]],[[48335,87343],[530,884],[150,583],[1126,799]],[[50141,89609],[402,-90],[1580,-863]],[[52123,88656],[510,590],[62,1198],[-132,80]],[[52563,90524],[557,425],[663,-236],[633,-537],[788,142],[240,557],[861,18],[1405,-722],[249,-462],[-7,-817],[209,-1241],[-254,-1465],[-170,-1597],[-1225,158]],[[42182,91081],[369,-996],[350,-288],[526,-1411],[-216,-785]],[[41773,87031],[-593,602],[-188,640],[86,1329],[-176,586],[292,958]],[[41194,91146],[988,-65]],[[35956,89168],[-1042,-248],[-351,1901]],[[34563,90821],[452,239],[645,898]],[[35660,91958],[-197,-1059],[-25,-811],[352,-240],[166,-680]],[[39051,90991],[2143,155]],[[36211,86560],[18,1075],[-273,1533]],[[35660,91958],[538,-85],[326,-354],[1954,-556],[573,28]],[[50141,89609],[201,483],[-200,1378]],[[50142,91470],[1214,714],[999,-396],[218,95],[-10,-1359]],[[43647,91239],[779,-931],[-284,-1462],[-18,-1176]],[[42182,91081],[697,1414]],[[42879,92495],[444,-484],[-8,-349],[332,-423]],[[47001,93214],[270,-236],[515,-11],[314,-269],[457,30]],[[48557,92728],[182,-671],[582,6],[464,-797],[357,204]],[[47350,87360],[-265,150],[-199,1319],[-62,1347],[127,30],[-209,1177],[51,1401],[125,434]],[[46918,93218],[83,-4]],[[43647,91239],[482,1989],[-62,1426],[194,730]],[[44261,95384],[1232,-24],[7,-1244],[669,-255],[749,-643]],[[42879,92495],[-152,652],[652,2406]],[[43379,95553],[882,-169]],[[34563,90821],[-1,1]],[[34562,90822],[161,317],[-492,1062],[-1292,1197],[-168,-51],[166,1295],[-46,1095],[357,1984]],[[33248,97721],[1913,-447],[714,-1196],[174,-1378],[-125,-720],[103,-627],[-331,-633],[-36,-762]],[[39051,90991],[28,1686],[-212,1018],[313,623],[-498,2257],[-680,1598]],[[38002,98173],[598,498],[1130,-392],[717,47],[551,-297],[500,-1219],[865,-309],[334,-496],[682,-452]],[[33248,97721],[503,891],[1407,85],[1807,-114],[530,-552],[507,142]],[[47001,93214],[542,640],[887,825],[278,511],[1239,1174],[124,581],[-217,2149],[119,905],[839,-1015],[560,-1529],[-58,-493],[145,-1121],[-40,-1132],[-667,-485],[-1009,-484],[-642,-439],[-544,-573]],[[18403,41280],[446,1765],[104,1413]],[[4487,77585],[-945,1596],[-56,835],[255,1669],[189,112]],[[32136,87657],[131,471],[-81,947],[23,1188],[1921,-137],[432,696]]],"transform":{"scale":[1.1341913419134197e-05,8.242682426824257e-06],"translate":[78.09989,16.00815]},"objects":{"villages":{"type":"GeometryCollection","geometries":[{"arcs":[[0,1,2]],"type":"Polygon","properties":{"n":"Vemkal","c":576369,"d":"Nagarkurnool","s":"TELANGANA"}},{"arcs":[[3,4,-1,5]],"type":"Polygon","properties":{"n":"Malleswaram","c":576370,"d":"Nagarkurnool","s":"TELANGANA"}},{"arcs":[[6,-6,-3,7,8,9]],"type":"Polygon","properties":{"n":"Manchalakatta","c":576366,"d":"Nagarkurnool","s":"TELANGANA"}},{"arcs":[[10,11,12,-4,-7,13,14,15]],"type":"Polygon","properties":{"n":"Somasila","c":576371,"d":"Nagarkurnool","s":"TELANGANA"}},{"arcs":[[-14,-10,16]],"type":"Polygon","properties":{"n":"Chennampalle","c":576368,"d":"Nagarkurnool","s":"TELANGANA"}},{"arcs":[[17,18,-9,19,20]],"type":"Polygon","properties":{"n":"Pentlavelli","c":576365,"d":"Nagarkurnool","s":"TELANGANA"}},{"arcs":[[21,-15,-17,-19,22,23]],"type":"Polygon","properties":{"n":"Ramapur","c":576367,"d":"Nagarkurnool","s":"TELANGANA"}},{"arcs":[[24,25,-12,26,27]],"type":"Polygon","properties":{"n":"Amaragiri","c":576372,"d":"Nagarkurnool","s":"TELANGANA"}},{"arcs":[[28,29,30]],"type":"Polygon","properties":{"n":"Bollaram","c":576374,"d":"Nagarkurnool","s":"TELANGANA"}},{"arcs":[[-23,-18,31,32,33]],"type":"Polygon","properties":{"n":"Narsingaraopalle","c":576364,"d":"Nagarkurnool","s":"TELANGANA"}},{"arcs":[[34,-16,-22,35,36]],"type":"Polygon","properties":{"n":"Wardyal","c":576362,"d":"Nagarkurnool","s":"TELANGANA"}},{"arcs":[[-27,-11,-35,37,38]],"type":"Polygon","properties":{"n":"Kollapur","c":576363,"d":"Nagarkurnool","s":"TELANGANA"}},{"arcs":[[-30,39,-25,40,41]],"type":"Polygon","properties":{"n":"Asadpur","c":576373,"d":"Nagarkurnool","s":"TELANGANA"}},{"arcs":[[42,-33,43,44]],"type":"Polygon","properties":{"n":"Narsimhapuram","c":576349,"d":"Nagarkurnool","s":"TELANGANA"}},{"arcs":[[45,-44,-32,-21,46,47]],"type":"Polygon","properties":{"n":"Chintalapalle","c":576348,"d":"Nagarkurnool","s":"TELANGANA"}},{"arcs":[[48,-38,-37,49,50]],"type":"Polygon","properties":{"n":"Chukkaipalle","c":576355,"d":"Nagarkurnool","s":"TELANGANA"}},{"arcs":[[51,-41,-28,-39,-49,52,53,54]],"type":"Polygon","properties":{"n":"Yellur","c":576361,"d":"Nagarkurnool","s":"TELANGANA"}},{"arcs":[[55,56,-48,57,58]],"type":"Polygon","properties":{"n":"Machinenipalle","c":576351,"d":"Nagarkurnool","s":"TELANGANA"}},{"arcs":[[59,-50,-36,-24,-34,-43,60,61]],"type":"Polygon","properties":{"n":"Choutabetla","c":576354,"d":"Nagarkurnool","s":"TELANGANA"}},{"arcs":[[-61,-45,-46,-57,62,63,64]],"type":"Polygon","properties":{"n":"Enmanabetla","c":576350,"d":"Nagarkurnool","s":"TELANGANA"}},{"arcs":[[-63,-56,65,66,67]],"type":"Polygon","properties":{"n":"Jawaipalle","c":576352,"d":"Nagarkurnool","s":"TELANGANA"}},{"arcs":[[-53,-51,-60,68,69]],"type":"Polygon","properties":{"n":"Ankiraopalle","c":576356,"d":"Nagarkurnool","s":"TELANGANA"}},{"arcs":[[-66,-59,70,71]],"type":"Polygon","properties":{"n":"Badigadinne","c":576161,"d":"Nagarkurnool","s":"TELANGANA"}},{"arcs":[[-54,-70,72,73,74]],"type":"Polygon","properties":{"n":"Kudikilla","c":576357,"d":"Nagarkurnool","s":"TELANGANA"}},{"arcs":[[75,76,-55,-75,77]],"type":"Polygon","properties":{"n":"Narlapuram","c":576358,"d":"Nagarkurnool","s":"TELANGANA"}},{"arcs":[[-42,-52,-77,78,79]],"type":"Polygon","properties":{"n":"Malachintapalle","c":576360,"d":"Nagarkurnool","s":"TELANGANA"}},{"arcs":[[-79,-76,80,81]],"type":"Polygon","properties":{"n":"Malabaswapur","c":576359,"d":"Nagarkurnool","s":"TELANGANA"}},{"arcs":[[82,83,-64,-68,84,85]],"type":"Polygon","properties":{"n":"Singavatnam","c":576353,"d":"Nagarkurnool","s":"TELANGANA"}},{"arcs":[[86,-73,-69,-62,-65,-84,87,88]],"type":"Polygon","properties":{"n":"Kalwakole","c":576139,"d":"Nagarkurnool","s":"TELANGANA"}},{"arcs":[[89,90,-81,-78,-74,-87,91]],"type":"Polygon","properties":{"n":"Thirumalampalle","c":576140,"d":"Nagarkurnool","s":"TELANGANA"}},{"arcs":[[-85,-67,-72,92,93,94]],"type":"Polygon","properties":{"n":"Narsaipalle","c":576162,"d":"Nagarkurnool","s":"TELANGANA"}},{"arcs":[[95,-88,-83,96,97]],"type":"Polygon","properties":{"n":"Kondraopallle","c":576164,"d":"Nagarkurnool","s":"TELANGANA"}},{"arcs":[[98,-89,-96,99,100]],"type":"Polygon","properties":{"n":"Chennapuraopalle","c":576138,"d":"Nagarkurnool","s":"TELANGANA"}},{"arcs":[[101,102,-92,-99,103,104]],"type":"Polygon","properties":{"n":"Kothapeta","c":576142,"d":"Nagarkurnool","s":"TELANGANA"}},{"arcs":[[105,106,107,108]],"type":"Polygon","properties":{"n":"Maredumandinne","c":576145,"d":"Nagarkurnool","s":"TELANGANA"}},{"arcs":[[-108,109,-90,-103,110]],"type":"Polygon","properties":{"n":"Vedukaraopalle","c":576141,"d":"Nagarkurnool","s":"TELANGANA"}},{"arcs":[[-100,-98,111,112,113]],"type":"Polygon","properties":{"n":"Mahasamudram","c":576137,"d":"Nagarkurnool","s":"TELANGANA"}},{"arcs":[[114,115,116]],"type":"Polygon","properties":{"n":"Rangayapalle","c":576116,"d":"Nagarkurnool","s":"TELANGANA"}},{"arcs":[[117,118,119,120,-31,-80,-82,-91,-110,-107,121,122,-115,123]],"type":"Polygon","properties":{"n":"KOLLAPUR RESERVED FOREST","c":0,"d":"Nagarkurnool","s":"TELANGANA"}},{"arcs":[[124,-120,125,126]],"type":"Polygon","properties":{"n":"AMRABAD RESERVED FOREST","c":0,"d":"Nagarkurnool","s":"TELANGANA"}},{"arcs":[[127,-116,-123,128,129]],"type":"Polygon","properties":{"n":"Gorremadugu","c":576144,"d":"Nagarkurnool","s":"TELANGANA"}},{"arcs":[[-112,-97,-86,-95,130,131,132]],"type":"Polygon","properties":{"n":"Yetham","c":576163,"d":"Nagarkurnool","s":"TELANGANA"}},{"arcs":[[133,-118,134,135]],"type":"Polygon","properties":{"n":"Chandapuram","c":576118,"d":"Nagarkurnool","s":"TELANGANA"}},{"arcs":[[136,137,138]],"type":"Polygon","properties":{"n":"Pochapur","c":576133,"d":"Nagarkurnool","s":"TELANGANA"}},{"arcs":[[-109,-111,-102,139,-137,140,141]],"type":"Polygon","properties":{"n":"Bhavanampalle","c":576134,"d":"Nagarkurnool","s":"TELANGANA"}},{"arcs":[[-131,-94,142,143,144,145]],"type":"Polygon","properties":{"n":"Mailaram","c":576160,"d":"Nagarkurnool","s":"TELANGANA"}},{"arcs":[[146,147,-114,148]],"type":"Polygon","properties":{"n":"Gantraopalle","c":576132,"d":"Nagarkurnool","s":"TELANGANA"}},{"arcs":[[149,-135,-124,-117,-128,150]],"type":"Polygon","properties":{"n":"Rayavaram","c":576117,"d":"Nagarkurnool","s":"TELANGANA"}},{"arcs":[[151,-138,-140,-105,152,153]],"type":"Polygon","properties":{"n":"Sathapur","c":576135,"d":"Nagarkurnool","s":"TELANGANA"}},{"arcs":[[154]],"type":"Polygon","properties":{"n":"Vatwarlapalle (CT)","c":575632,"d":"Nagarkurnool","s":"TELANGANA"}},{"arcs":[[-144,155,156]],"type":"Polygon","properties":{"n":"Kadirepadu","c":576159,"d":"Nagarkurnool","s":"TELANGANA"}},{"arcs":[[-153,-104,-101,-148,157,158]],"type":"Polygon","properties":{"n":"Narayanpalle","c":576136,"d":"Nagarkurnool","s":"TELANGANA"}},{"arcs":[[159,-132,-146,160,161]],"type":"Polygon","properties":{"n":"Nagulapalle","c":576157,"d":"Nagarkurnool","s":"TELANGANA"}},{"arcs":[[162,163,164,-141,-139,-152,165,166]],"type":"Polygon","properties":{"n":"Bacharam","c":576130,"d":"Nagarkurnool","s":"TELANGANA"}},{"arcs":[[167,-166,-154,-159,168,169]],"type":"Polygon","properties":{"n":"Jonnalaboguda","c":576131,"d":"Nagarkurnool","s":"TELANGANA"}},{"arcs":[[-169,-158,-147,170,171]],"type":"Polygon","properties":{"n":"Khanapur","c":576155,"d":"Nagarkurnool","s":"TELANGANA"}},{"arcs":[[172,173,-161,-145,-157,174,175,176]],"type":"Polygon","properties":{"n":"Rajapuram","c":576158,"d":"Nagarkurnool","s":"TELANGANA"}},{"arcs":[[-176,177,178]],"type":"Polygon","properties":{"n":"Rekulapalle","c":576146,"d":"Nagarkurnool","s":"TELANGANA"}},{"arcs":[[179,-171,-149,-113,-133,-160,180,181]],"type":"Polygon","properties":{"n":"Kodair","c":576156,"d":"Nagarkurnool","s":"TELANGANA"}},{"arcs":[[182,183,184]],"type":"Polygon","properties":{"n":"Kothakuntapalle","c":576113,"d":"Nagarkurnool","s":"TELANGANA"}},{"arcs":[[185,-184,186,-136,-150,187,188]],"type":"Polygon","properties":{"n":"Ausalikunta","c":576114,"d":"Nagarkurnool","s":"TELANGANA"}},{"arcs":[[189,190,-129,-122,-106,-142,-165,191,192]],"type":"Polygon","properties":{"n":"Yapatla","c":576143,"d":"Nagarkurnool","s":"TELANGANA"}},{"arcs":[[-192,-164,193,194]],"type":"Polygon","properties":{"n":"Chinnakarpamula","c":576129,"d":"Nagarkurnool","s":"TELANGANA"}},{"arcs":[[195,-181,-162,-174,196,197]],"type":"Polygon","properties":{"n":"Muthireddipalle","c":576150,"d":"Nagarkurnool","s":"TELANGANA"}},{"arcs":[[198,199,200,201,-126,-119,-134,-187,-183,202,203,204]],"type":"Polygon","properties":{"n":"Lingal","c":576119,"d":"Nagarkurnool","s":"TELANGANA"}},{"arcs":[[205,-201,206,207]],"type":"Polygon","properties":{"n":"Ambagiri","c":576099,"d":"Nagarkurnool","s":"TELANGANA"}},{"arcs":[[-188,-151,-130,-191,208,209]],"type":"Polygon","properties":{"n":"Anbatpalle","c":576115,"d":"Nagarkurnool","s":"TELANGANA"}},{"arcs":[[-203,-185,-186,210,211]],"type":"Polygon","properties":{"n":"Maqdumpur","c":576110,"d":"Nagarkurnool","s":"TELANGANA"}},{"arcs":[[-197,-173,212,213,214]],"type":"Polygon","properties":{"n":"Turkadinne","c":576149,"d":"Nagarkurnool","s":"TELANGANA"}},{"arcs":[[215,-182,-196,216,217,218]],"type":"Polygon","properties":{"n":"Janumpalle","c":576151,"d":"Nagarkurnool","s":"TELANGANA"}},{"arcs":[[219,-205,220,221]],"type":"Polygon","properties":{"n":"Jillellapalle","c":576097,"d":"Nagarkurnool","s":"TELANGANA"}},{"arcs":[[222,223,224]],"type":"Polygon","properties":{"n":"Billakal","c":576101,"d":"Nagarkurnool","s":"TELANGANA"}},{"arcs":[[-221,-204,-212,225,226,227,228]],"type":"Polygon","properties":{"n":"Surapur","c":576112,"d":"Nagarkurnool","s":"TELANGANA"}},{"arcs":[[229,-170,-172,-180,-216,230,231,232]],"type":"Polygon","properties":{"n":"Paspula","c":576154,"d":"Nagarkurnool","s":"TELANGANA"}},{"arcs":[[-193,-195,233,234,235]],"type":"Polygon","properties":{"n":"Dedinenipalle","c":576128,"d":"Nagarkurnool","s":"TELANGANA"}},{"arcs":[[-213,-177,-179,236,237]],"type":"Polygon","properties":{"n":"Singaipalle","c":576147,"d":"Nagarkurnool","s":"TELANGANA"}},{"arcs":[[-226,-211,-189,238,239,240]],"type":"Polygon","properties":{"n":"Jeelugupalle","c":576111,"d":"Nagarkurnool","s":"TELANGANA"}},{"arcs":[[-234,-194,-163,241,242,243]],"type":"Polygon","properties":{"n":"Peddakarpamula","c":576127,"d":"Nagarkurnool","s":"TELANGANA"}},{"arcs":[[244,245,-208,246,247]],"type":"Polygon","properties":{"n":"Ramagiri","c":576100,"d":"Nagarkurnool","s":"TELANGANA"}},{"arcs":[[248]],"type":"Polygon","properties":{"n":"Maddimadugu","c":575628,"d":"Nagarkurnool","s":"TELANGANA"}},{"arcs":[[249,-242,-167,-168,-230,250,251]],"type":"Polygon","properties":{"n":"Peddakothapalle","c":576126,"d":"Nagarkurnool","s":"TELANGANA"}},{"arcs":[[-214,-238,252]],"type":"Polygon","properties":{"n":"Machupalle","c":576148,"d":"Nagarkurnool","s":"TELANGANA"}},{"arcs":[[-251,-233,253]],"type":"Polygon","properties":{"n":"Devalthirumalpur","c":576120,"d":"Nagarkurnool","s":"TELANGANA"}},{"arcs":[[-239,-210,254,255,256]],"type":"Polygon","properties":{"n":"Sainpeta","c":576102,"d":"Nagarkurnool","s":"TELANGANA"}},{"arcs":[[-199,-220,257,258,259,260]],"type":"Polygon","properties":{"n":"Ananthavaram","c":576098,"d":"Nagarkurnool","s":"TELANGANA"}},{"arcs":[[-231,-219,261,262]],"type":"Polygon","properties":{"n":"Bawaipalle","c":576153,"d":"Nagarkurnool","s":"TELANGANA"}},{"arcs":[[263,-258,-222,-229,264]],"type":"Polygon","properties":{"n":"Narasaipalle","c":576096,"d":"Nagarkurnool","s":"TELANGANA"}},{"arcs":[[-240,-257,265,266]],"type":"Polygon","properties":{"n":"Datharam","c":576103,"d":"Nagarkurnool","s":"TELANGANA"}},{"arcs":[[267,-262,-218,268]],"type":"Polygon","properties":{"n":"Teegalapalle","c":576152,"d":"Nagarkurnool","s":"TELANGANA"}},{"arcs":[[269,-252,270,271]],"type":"Polygon","properties":{"n":"Adirala","c":576123,"d":"Nagarkurnool","s":"TELANGANA"}},{"arcs":[[272,-265,-228,273,274]],"type":"Polygon","properties":{"n":"Madapur","c":576109,"d":"Nagarkurnool","s":"TELANGANA"}},{"arcs":[[275,-225,276,-245,277,278,279]],"type":"Polygon","properties":{"n":"Kondanagula","c":576093,"d":"Nagarkurnool","s":"TELANGANA"}},{"arcs":[[-274,-227,-241,-267,280,281]],"type":"Polygon","properties":{"n":"Komatikunta","c":576104,"d":"Nagarkurnool","s":"TELANGANA"}},{"arcs":[[282,-223,-276,283,284]],"type":"Polygon","properties":{"n":"Bonala","c":576092,"d":"Nagarkurnool","s":"TELANGANA"}},{"arcs":[[285,-247,-207,-200,-261,286]],"type":"Polygon","properties":{"n":"Balmoor","c":576095,"d":"Nagarkurnool","s":"TELANGANA"}},{"arcs":[[-278,-248,-286,287,288]],"type":"Polygon","properties":{"n":"Mylaram","c":576094,"d":"Nagarkurnool","s":"TELANGANA"}},{"arcs":[[289,-271,-254,-232,-263,-268,290,291]],"type":"Polygon","properties":{"n":"Vennacherla","c":576121,"d":"Nagarkurnool","s":"TELANGANA"}},{"arcs":[[292,-235,-244,293,294]],"type":"Polygon","properties":{"n":"Marrikal","c":576125,"d":"Nagarkurnool","s":"TELANGANA"}},{"arcs":[[295,-275,-282,296,297,298]],"type":"Polygon","properties":{"n":"Bakaram","c":576105,"d":"Nagarkurnool","s":"TELANGANA"}},{"arcs":[[299,-255,-209,-190,-236,-293,300,301]],"type":"Polygon","properties":{"n":"Vattipalle","c":575693,"d":"Nagarkurnool","s":"TELANGANA"}},{"arcs":[[-294,-243,-250,-270,302,303]],"type":"Polygon","properties":{"n":"Mustipalle","c":576124,"d":"Nagarkurnool","s":"TELANGANA"}},{"arcs":[[-297,-281,-266,-256,-300,304,305]],"type":"Polygon","properties":{"n":"Boppepalle","c":575694,"d":"Nagarkurnool","s":"TELANGANA"}},{"arcs":[[306,-259,-264,-273,-296,307,308]],"type":"Polygon","properties":{"n":"Manajipet","c":576108,"d":"Nagarkurnool","s":"TELANGANA"}},{"arcs":[[309,-288,-287,-260,-307,310]],"type":"Polygon","properties":{"n":"Godal","c":576089,"d":"Nagarkurnool","s":"TELANGANA"}},{"arcs":[[311,-279,-289,-310,312,313]],"type":"Polygon","properties":{"n":"Veeramrajupalle","c":576090,"d":"Nagarkurnool","s":"TELANGANA"}},{"arcs":[[314,315,-285,316,317,318]],"type":"Polygon","properties":{"n":"Choutapalle","c":575640,"d":"Nagarkurnool","s":"TELANGANA"}},{"arcs":[[-317,-284,-280,-312,319,320]],"type":"Polygon","properties":{"n":"Ramajipalle","c":576091,"d":"Nagarkurnool","s":"TELANGANA"}},{"arcs":[[321,322,323,324]],"type":"Polygon","properties":{"n":"Uppununthala (B.K)","c":575629,"d":"Nagarkurnool","s":"TELANGANA"}},{"arcs":[[325,-303,-272,-290,326,327]],"type":"Polygon","properties":{"n":"Chandrakal","c":576122,"d":"Nagarkurnool","s":"TELANGANA"}},{"arcs":[[-324,328,329,330]],"type":"Polygon","properties":{"n":"Thirumalapur  (B.K)","c":575631,"d":"Nagarkurnool","s":"TELANGANA"}},{"arcs":[[331,332]],"type":"Polygon","properties":{"n":"Mannanur","c":575617,"d":"Nagarkurnool","s":"TELANGANA"}},{"arcs":[[333,334,-333,335,336]],"type":"Polygon","properties":{"n":"Turkapalle","c":575618,"d":"Nagarkurnool","s":"TELANGANA"}},{"arcs":[[337,-308,-299,338,339]],"type":"Polygon","properties":{"n":"Vallabhapur","c":576107,"d":"Nagarkurnool","s":"TELANGANA"}},{"arcs":[[-339,-298,-306,340,341]],"type":"Polygon","properties":{"n":"Rampur","c":576106,"d":"Nagarkurnool","s":"TELANGANA"}},{"arcs":[[-313,-311,-309,-338,342,343,344]],"type":"Polygon","properties":{"n":"Kondareddipalle","c":576088,"d":"Nagarkurnool","s":"TELANGANA"}},{"arcs":[[345,-315,346,347,348]],"type":"Polygon","properties":{"n":"Gumpampalle","c":575641,"d":"Nagarkurnool","s":"TELANGANA"}},{"arcs":[[-347,-319,349,350]],"type":"Polygon","properties":{"n":"Tangapur (CT)","c":575654,"d":"Nagarkurnool","s":"TELANGANA"}},{"arcs":[[351,352,353]],"type":"Polygon","properties":{"n":"Gudur","c":575624,"d":"Nagarkurnool","s":"TELANGANA"}},{"arcs":[[354,-320,-314,-345,355,356]],"type":"Polygon","properties":{"n":"Chennaram (P.G)","c":576087,"d":"Nagarkurnool","s":"TELANGANA"}},{"arcs":[[357,358]],"type":"Polygon","properties":{"n":"Gangupenta","c":575627,"d":"Nagarkurnool","s":"TELANGANA"}},{"arcs":[[359,360,-349,361,362]],"type":"Polygon","properties":{"n":"Lakshmapur (P.N)","c":575642,"d":"Nagarkurnool","s":"TELANGANA"}},{"arcs":[[363,-337,364]],"type":"Polygon","properties":{"n":"Macharam","c":575619,"d":"Nagarkurnool","s":"TELANGANA"}},{"arcs":[[365,-322,366,367,368,-352,369,370,371],[-249]],"type":"Polygon","properties":{"n":" ","c":0,"d":"Nagarkurnool","s":"TELANGANA"}},{"arcs":[[372,-350,-318,-321,-355,373,374]],"type":"Polygon","properties":{"n":"Polesettipalle","c":576086,"d":"Nagarkurnool","s":"TELANGANA"}},{"arcs":[[375,376,377,378,379,380]],"type":"Polygon","properties":{"n":"Narsaipalle","c":575740,"d":"Nagarkurnool","s":"TELANGANA"}},{"arcs":[[-301,-295,-304,-326,381,382,383,384]],"type":"Polygon","properties":{"n":"Peddapalle","c":575692,"d":"Nagarkurnool","s":"TELANGANA"}},{"arcs":[[-341,-305,-302,385,386,387]],"type":"Polygon","properties":{"n":"Alair","c":575695,"d":"Nagarkurnool","s":"TELANGANA"}},{"arcs":[[388,389,-360,390]],"type":"Polygon","properties":{"n":"Bolghatpalle","c":575643,"d":"Nagarkurnool","s":"TELANGANA"}},{"arcs":[[-377,391,392,-382,-328]],"type":"Polygon","properties":{"n":"Peddamudnur","c":575743,"d":"Nagarkurnool","s":"TELANGANA"}},{"arcs":[[-386,-385,393,394]],"type":"Polygon","properties":{"n":"Pedduru","c":575691,"d":"Nagarkurnool","s":"TELANGANA"}},{"arcs":[[-374,-357,395,396]],"type":"Polygon","properties":{"n":"Mahadevpur","c":576085,"d":"Nagarkurnool","s":"TELANGANA"}},{"arcs":[[-367,-325,-331,397,398,399]],"type":"Polygon","properties":{"n":"Lakshmapur (B.K)","c":575630,"d":"Nagarkurnool","s":"TELANGANA"}},{"arcs":[[400,-392,-376,401,402]],"type":"Polygon","properties":{"n":"Chandubatla","c":575741,"d":"Nagarkurnool","s":"TELANGANA"}},{"arcs":[[-344,403,404,405]],"type":"Polygon","properties":{"n":"Thummanpeta","c":576083,"d":"Nagarkurnool","s":"TELANGANA"}},{"arcs":[[406,-362,-348,-351,-373,407,408,409]],"type":"Polygon","properties":{"n":"Achampet (CT)","c":575653,"d":"Nagarkurnool","s":"TELANGANA"}},{"arcs":[[410,-387,-395,411,412]],"type":"Polygon","properties":{"n":"Gattunellikuduru","c":575690,"d":"Nagarkurnool","s":"TELANGANA"}},{"arcs":[[413,-383,-393,414,415]],"type":"Polygon","properties":{"n":"Gouthampalle","c":575686,"d":"Nagarkurnool","s":"TELANGANA"}},{"arcs":[[-358,416,-370,-354,417,418,419]],"type":"Polygon","properties":{"n":"Maredugu","c":575625,"d":"Nagarkurnool","s":"TELANGANA"}},{"arcs":[[420,421,-389,422,423]],"type":"Polygon","properties":{"n":"Rangapur","c":575644,"d":"Nagarkurnool","s":"TELANGANA"}},{"arcs":[[424,-404,-343,-340,-342,-388,-411,425,426]],"type":"Polygon","properties":{"n":"Lakhnaram","c":575696,"d":"Nagarkurnool","s":"TELANGANA"}},{"arcs":[[427,428,-380,429,430,431]],"type":"Polygon","properties":{"n":"Gudipalle","c":575737,"d":"Nagarkurnool","s":"TELANGANA"}},{"arcs":[[-412,-394,-384,-414,432,433]],"type":"Polygon","properties":{"n":"Raipakula","c":575687,"d":"Nagarkurnool","s":"TELANGANA"}},{"arcs":[[-431,434,435,436]],"type":"Polygon","properties":{"n":"Peddapuram","c":575736,"d":"Nagarkurnool","s":"TELANGANA"}},{"arcs":[[437,-409,438,439]],"type":"Polygon","properties":{"n":"Lingotam","c":575634,"d":"Nagarkurnool","s":"TELANGANA"}},{"arcs":[[-439,-408,-375,-397,440,441]],"type":"Polygon","properties":{"n":"Palukapalle","c":575633,"d":"Nagarkurnool","s":"TELANGANA"}},{"arcs":[[-441,-396,-356,-406,442,443,444,445]],"type":"Polygon","properties":{"n":"Gattuthumman","c":576084,"d":"Nagarkurnool","s":"TELANGANA"}},{"arcs":[[-443,-405,-425,446,447,448]],"type":"Polygon","properties":{"n":"Jinkunta","c":576082,"d":"Nagarkurnool","s":"TELANGANA"}},{"arcs":[[-418,-353,-369,449,450]],"type":"Polygon","properties":{"n":"Udimilla","c":575623,"d":"Nagarkurnool","s":"TELANGANA"}},{"arcs":[[451,-423,-391,-363,-407,452,453]],"type":"Polygon","properties":{"n":"Nadimpalle","c":575639,"d":"Nagarkurnool","s":"TELANGANA"}},{"arcs":[[454,-415,-401,455,456]],"type":"Polygon","properties":{"n":"Gaddampalle","c":575685,"d":"Nagarkurnool","s":"TELANGANA"}},{"arcs":[[457,458,-428,459,460]],"type":"Polygon","properties":{"n":"Auraspalle","c":575738,"d":"Nagarkurnool","s":"TELANGANA"}},{"arcs":[[-371,-417,-359,-420,461,462]],"type":"Polygon","properties":{"n":"Ippalapalle","c":575626,"d":"Nagarkurnool","s":"TELANGANA"}},{"arcs":[[463,-433,-416,-455,464]],"type":"Polygon","properties":{"n":"Ananthasagar","c":575688,"d":"Nagarkurnool","s":"TELANGANA"}},{"arcs":[[465,-402,-381,-429,-459,466,467]],"type":"Polygon","properties":{"n":"Vanapatla","c":575739,"d":"Nagarkurnool","s":"TELANGANA"}},{"arcs":[[-434,-464,468,469]],"type":"Polygon","properties":{"n":"Bandapalle","c":575689,"d":"Nagarkurnool","s":"TELANGANA"}},{"arcs":[[-460,-432,-437,470,471,472]],"type":"Polygon","properties":{"n":"Bondalapalle","c":575734,"d":"Nagarkurnool","s":"TELANGANA"}},{"arcs":[[-421,473,474,475,476]],"type":"Polygon","properties":{"n":"Brahmanapalle","c":575645,"d":"Nagarkurnool","s":"TELANGANA"}},{"arcs":[[477,478,479]],"type":"Polygon","properties":{"n":"Salkarpet","c":575765,"d":"Nagarkurnool","s":"TELANGANA"}},{"arcs":[[480,481,-448,482,483]],"type":"Polygon","properties":{"n":"Polepalle","c":576081,"d":"Nagarkurnool","s":"TELANGANA"}},{"arcs":[[484,-399,485,486]],"type":"Polygon","properties":{"n":"Padra","c":575621,"d":"Nagarkurnool","s":"TELANGANA"}},{"arcs":[[487,-454,488,489,490,491]],"type":"Polygon","properties":{"n":"Hajipur","c":575637,"d":"Nagarkurnool","s":"TELANGANA"}},{"arcs":[[492,-444,-449,-482,493,494]],"type":"Polygon","properties":{"n":"Upparapalle","c":575671,"d":"Nagarkurnool","s":"TELANGANA"}},{"arcs":[[-483,-447,-427,495,496]],"type":"Polygon","properties":{"n":"Rakonda","c":575682,"d":"Nagarkurnool","s":"TELANGANA"}},{"arcs":[[497,498,499]],"type":"Polygon","properties":{"n":"Dharmapur","c":575764,"d":"Nagarkurnool","s":"TELANGANA"}},{"arcs":[[500,501,-450,-368,-400,-485,502]],"type":"Polygon","properties":{"n":"Vankeshwaram","c":575622,"d":"Nagarkurnool","s":"TELANGANA"}},{"arcs":[[-475,503,504]],"type":"Polygon","properties":{"n":"Ainole","c":575646,"d":"Nagarkurnool","s":"TELANGANA"}},{"arcs":[[-489,-453,-410,-438,505,506]],"type":"Polygon","properties":{"n":"Puljala","c":575635,"d":"Nagarkurnool","s":"TELANGANA"}},{"arcs":[[507,508,-445,-493,509,510]],"type":"Polygon","properties":{"n":"Marripalle","c":575672,"d":"Nagarkurnool","s":"TELANGANA"}},{"arcs":[[-461,-473,511,512]],"type":"Polygon","properties":{"n":"Laxmapuram","c":575732,"d":"Nagarkurnool","s":"TELANGANA"}},{"arcs":[[513,514,-469,-465,-457,515,516]],"type":"Polygon","properties":{"n":"Chinnamudnur","c":575684,"d":"Nagarkurnool","s":"TELANGANA"}},{"arcs":[[517,-471,-436,518,-478,519,520]],"type":"Polygon","properties":{"n":"Thoodukurthy","c":575735,"d":"Nagarkurnool","s":"TELANGANA"}},{"arcs":[[521,522,-484,-497,523]],"type":"Polygon","properties":{"n":"Parvathapuram","c":575681,"d":"Nagarkurnool","s":"TELANGANA"}},{"arcs":[[-499,524,525,526]],"type":"Polygon","properties":{"n":"Allipur","c":575763,"d":"Nagarkurnool","s":"TELANGANA"}},{"arcs":[[527,-516,-456,-403,-466,528,529]],"type":"Polygon","properties":{"n":"Manthati","c":575729,"d":"Nagarkurnool","s":"TELANGANA"}},{"arcs":[[-524,-496,-426,-413,-470,-515,530,531]],"type":"Polygon","properties":{"n":"Telkapalle","c":575683,"d":"Nagarkurnool","s":"TELANGANA"}},{"arcs":[[-529,-468,532,533]],"type":"Polygon","properties":{"n":"Deshitkyal","c":575730,"d":"Nagarkurnool","s":"TELANGANA"}},{"arcs":[[534,-492,535,536,537]],"type":"Polygon","properties":{"n":"Raichedu","c":575676,"d":"Nagarkurnool","s":"TELANGANA"}},{"arcs":[[538,-536,-491,539,540]],"type":"Polygon","properties":{"n":"Chennaram (Sabak)","c":575636,"d":"Nagarkurnool","s":"TELANGANA"}},{"arcs":[[-526,541,542,543]],"type":"Polygon","properties":{"n":"Mammaipalle","c":575762,"d":"Nagarkurnool","s":"TELANGANA"}},{"arcs":[[-510,-495,544,545,546]],"type":"Polygon","properties":{"n":"Laxmapur (Pattigodal)","c":575669,"d":"Nagarkurnool","s":"TELANGANA"}},{"arcs":[[-533,-467,-458,-513,547,548,549]],"type":"Polygon","properties":{"n":"Naganul","c":575731,"d":"Nagarkurnool","s":"TELANGANA"}},{"arcs":[[-548,-512,-472,-518,550,551]],"type":"Polygon","properties":{"n":"Sripuram","c":575733,"d":"Nagarkurnool","s":"TELANGANA"}},{"arcs":[[-451,-502,552,553,-462,-419]],"type":"Polygon","properties":{"n":"Akkavaram","c":575652,"d":"Nagarkurnool","s":"TELANGANA"}},{"arcs":[[-508,554,555]],"type":"Polygon","properties":{"n":"Rajanagar","c":575668,"d":"Nagarkurnool","s":"TELANGANA"}},{"arcs":[[556,557,-522,-532,558,559]],"type":"Polygon","properties":{"n":"Gouraram","c":575680,"d":"Nagarkurnool","s":"TELANGANA"}},{"arcs":[[-545,-494,-481,-523,-558,560,561]],"type":"Polygon","properties":{"n":"Mamillapalle","c":575670,"d":"Nagarkurnool","s":"TELANGANA"}},{"arcs":[[562,-537,-539,563,564]],"type":"Polygon","properties":{"n":"Peratwanipalle","c":575675,"d":"Nagarkurnool","s":"TELANGANA"}},{"arcs":[[565,566]],"type":"Polygon","properties":{"n":"Singavaram","c":575647,"d":"Nagarkurnool","s":"TELANGANA"}},{"arcs":[[-517,-528,567,568,569,570]],"type":"Polygon","properties":{"n":"Zamistapur","c":575677,"d":"Nagarkurnool","s":"TELANGANA"}},{"arcs":[[571,-544,572,573]],"type":"Polygon","properties":{"n":"Shainpalle","c":575761,"d":"Nagarkurnool","s":"TELANGANA"}},{"arcs":[[574,-568,-530,-534,575,576]],"type":"Polygon","properties":{"n":"Gaggalpalle","c":575725,"d":"Nagarkurnool","s":"TELANGANA"}},{"arcs":[[577,-506,-440,-442,-446,-509,-556,578,579,580]],"type":"Polygon","properties":{"n":"UPPUNUNTALA","c":575673,"d":"Nagarkurnool","s":"TELANGANA"}},{"arcs":[[581,-546,-562,582,583]],"type":"Polygon","properties":{"n":"Peddapur","c":575656,"d":"Nagarkurnool","s":"TELANGANA"}},{"arcs":[[584,585,586,587]],"type":"Polygon","properties":{"n":"Thippapur","c":575666,"d":"Nagarkurnool","s":"TELANGANA"}},{"arcs":[[588,-520,-480,589,-500,-527,-572,590,591,592]],"type":"Polygon","properties":{"n":"Vaddemanu","c":575766,"d":"Nagarkurnool","s":"TELANGANA"}},{"arcs":[[593,594,-551,-521,-589,595]],"type":"Polygon","properties":{"n":"Nallavelli","c":575720,"d":"Nagarkurnool","s":"TELANGANA"}},{"arcs":[[596,-576,-550,597,598]],"type":"Polygon","properties":{"n":"Chandayapalle","c":575724,"d":"Nagarkurnool","s":"TELANGANA"}},{"arcs":[[599,-555,-511,-547,-582,600]],"type":"Polygon","properties":{"n":"Molgara","c":575657,"d":"Nagarkurnool","s":"TELANGANA"}},{"arcs":[[601,-598,-549,602,603]],"type":"Polygon","properties":{"n":"Nagarkurnool (CT)","c":575744,"d":"Nagarkurnool","s":"TELANGANA"}},{"arcs":[[-565,604,605]],"type":"Polygon","properties":{"n":"Ayyavaripalle","c":575664,"d":"Nagarkurnool","s":"TELANGANA"}},{"arcs":[[606,607,-503,-487,608,-365,-336,-332,-335,609,-329,-323,-366,610,-127,-202,-206,-246,-277,-224,-283,-316,-346,-361,-390,-422,-477,611,612],[-155]],"type":"Polygon","properties":{"n":"Amrabad","c":575620,"d":"Nagarkurnool","s":"TELANGANA"}},{"arcs":[[613,614,615,-583,-561,-557,616,617]],"type":"Polygon","properties":{"n":"Dasarlapalle","c":575655,"d":"Nagarkurnool","s":"TELANGANA"}},{"arcs":[[-603,-552,-595,618,619,620]],"type":"Polygon","properties":{"n":"Uyyalawada","c":575721,"d":"Nagarkurnool","s":"TELANGANA"}},{"arcs":[[621,-569,-575,622,623]],"type":"Polygon","properties":{"n":"Malkapur","c":575726,"d":"Nagarkurnool","s":"TELANGANA"}},{"arcs":[[-591,-574,624,625,626]],"type":"Polygon","properties":{"n":"Mahadevpeta","c":575760,"d":"Nagarkurnool","s":"TELANGANA"}},{"arcs":[[627,-592,-627,628,629]],"type":"Polygon","properties":{"n":"Boyapur","c":575767,"d":"Nagarkurnool","s":"TELANGANA"}},{"arcs":[[630,-596,-593,-628,631,632]],"type":"Polygon","properties":{"n":"Khanapur","c":575768,"d":"Nagarkurnool","s":"TELANGANA"}},{"arcs":[[633,-612,-476,-505,634,635,-567,636,637]],"type":"Polygon","properties":{"n":"Bommenapalle","c":575648,"d":"Nagarkurnool","s":"TELANGANA"}},{"arcs":[[638,-559,-531,-514,-571,639,640,641]],"type":"Polygon","properties":{"n":"Karvanga","c":575678,"d":"Nagarkurnool","s":"TELANGANA"}},{"arcs":[[642,-605,-564,-541,643,-585,644,645,646,647]],"type":"Polygon","properties":{"n":"Veltur","c":575665,"d":"Nagarkurnool","s":"TELANGANA"}},{"arcs":[[-599,648,649]],"type":"Polygon","properties":{"n":"Bheemaram","c":575723,"d":"Nagarkurnool","s":"TELANGANA"}},{"arcs":[[650,-649,-602,651,652]],"type":"Polygon","properties":{"n":"Yendabetla","c":575722,"d":"Nagarkurnool","s":"TELANGANA"}},{"arcs":[[653,-587,654,-581,655,656]],"type":"Polygon","properties":{"n":"Kamsanipalle","c":575667,"d":"Nagarkurnool","s":"TELANGANA"}},{"arcs":[[-579,-600,657,658,659,660]],"type":"Polygon","properties":{"n":"Zapthisadgode","c":575658,"d":"Nagarkurnool","s":"TELANGANA"}},{"arcs":[[-656,-580,-661,661]],"type":"Polygon","properties":{"n":"Thirumalapur (Pattigodal)","c":575659,"d":"Nagarkurnool","s":"TELANGANA"}},{"arcs":[[662,-625,-573,-543,663,664]],"type":"Polygon","properties":{"n":"Gangaram","c":575759,"d":"Nagarkurnool","s":"TELANGANA"}},{"arcs":[[-619,-594,-631,665,666]],"type":"Polygon","properties":{"n":"Venkatapur","c":575753,"d":"Nagarkurnool","s":"TELANGANA"}},{"arcs":[[-617,-560,-639,667,668]],"type":"Polygon","properties":{"n":"Nadigadda","c":575679,"d":"Nagarkurnool","s":"TELANGANA"}},{"arcs":[[669,-640,-570,-622,670,671]],"type":"Polygon","properties":{"n":"Puljal","c":575728,"d":"Nagarkurnool","s":"TELANGANA"}},{"arcs":[[-671,-624,672,673]],"type":"Polygon","properties":{"n":"Venkatapur","c":575727,"d":"Nagarkurnool","s":"TELANGANA"}},{"arcs":[[674,-658,-601,-584,-616,675,676]],"type":"Polygon","properties":{"n":"Ulpara","c":575612,"d":"Nagarkurnool","s":"TELANGANA"}},{"arcs":[[677,678,-618,-669,679,680]],"type":"Polygon","properties":{"n":"Raghupathipeta","c":575592,"d":"Nagarkurnool","s":"TELANGANA"}},{"arcs":[[-553,-501,-608,681,682]],"type":"Polygon","properties":{"n":"Ghanapur","c":575651,"d":"Nagarkurnool","s":"TELANGANA"}},{"arcs":[[-646,683,684]],"type":"Polygon","properties":{"n":"Vighneswarpur","c":575661,"d":"Nagarkurnool","s":"TELANGANA"}},{"arcs":[[685,686,-620,-667,687,688]],"type":"Polygon","properties":{"n":"Lingasanipalle","c":575752,"d":"Nagarkurnool","s":"TELANGANA"}},{"arcs":[[-688,-666,-633,689,690]],"type":"Polygon","properties":{"n":"Palem","c":575754,"d":"Nagarkurnool","s":"TELANGANA"}},{"arcs":[[691,692,-673,-623,-577,-597,-650,-651,693,694]],"type":"Polygon","properties":{"n":"Tadoor","c":575714,"d":"Nagarkurnool","s":"TELANGANA"}},{"arcs":[[695,-648,696,697]],"type":"Polygon","properties":{"n":"Lathifpur","c":575662,"d":"Nagarkurnool","s":"TELANGANA"}},{"arcs":[[-652,-604,-621,-687,698,699,700]],"type":"Polygon","properties":{"n":"Thirumalapur","c":575712,"d":"Nagarkurnool","s":"TELANGANA"}},{"arcs":[[-637,-566,-636,701,-538,-563,-606,-643,-696,702]],"type":"Polygon","properties":{"n":"Penmilla","c":575663,"d":"Nagarkurnool","s":"TELANGANA"}},{"arcs":[[-684,-645,-588,-654,703,704,705]],"type":"Polygon","properties":{"n":"Koratikal","c":575660,"d":"Nagarkurnool","s":"TELANGANA"}},{"arcs":[[-676,-615,706,707]],"type":"Polygon","properties":{"n":"Pothareddipalle","c":575611,"d":"Nagarkurnool","s":"TELANGANA"}},{"arcs":[[708,-659,-675,709,710]],"type":"Polygon","properties":{"n":"Mittasagude","c":575613,"d":"Nagarkurnool","s":"TELANGANA"}},{"arcs":[[-707,-614,-679,711,712]],"type":"Polygon","properties":{"n":"Jogala","c":575610,"d":"Nagarkurnool","s":"TELANGANA"}},{"arcs":[[713,-680,-668,-642,714,715]],"type":"Polygon","properties":{"n":"Polmur","c":575718,"d":"Nagarkurnool","s":"TELANGANA"}},{"arcs":[[716,-613,-634,717]],"type":"Polygon","properties":{"n":"Siddapur","c":575649,"d":"Nagarkurnool","s":"TELANGANA"}},{"arcs":[[-682,-607,-717,718]],"type":"Polygon","properties":{"n":"Mannavaripalle","c":575650,"d":"Nagarkurnool","s":"TELANGANA"}},{"arcs":[[-715,-641,-670,719,720,721]],"type":"Polygon","properties":{"n":"Allapur","c":575719,"d":"Nagarkurnool","s":"TELANGANA"}},{"arcs":[[722,-629,-626,-663,723,724]],"type":"Polygon","properties":{"n":"Polepalle","c":575757,"d":"Nagarkurnool","s":"TELANGANA"}},{"arcs":[[725,-699,-686,726,727]],"type":"Polygon","properties":{"n":"Vasanthapur","c":575751,"d":"Nagarkurnool","s":"TELANGANA"}},{"arcs":[[728,-721,729,730]],"type":"Polygon","properties":{"n":"Yengampalle","c":575716,"d":"Nagarkurnool","s":"TELANGANA"}},{"arcs":[[731,732,-712,-678,733]],"type":"Polygon","properties":{"n":"Annaram","c":575609,"d":"Nagarkurnool","s":"TELANGANA"}},{"arcs":[[734,-704,-657,-662,-660,-709,735,736]],"type":"Polygon","properties":{"n":"Dindichinthalapalle","c":575614,"d":"Nagarkurnool","s":"TELANGANA"}},{"arcs":[[-705,-735,737,738]],"type":"Polygon","properties":{"n":"Ummapur","c":575615,"d":"Nagarkurnool","s":"TELANGANA"}},{"arcs":[[739,740,-694,-653,-701,741,742]],"type":"Polygon","properties":{"n":"Cherlaitikyala","c":575713,"d":"Nagarkurnool","s":"TELANGANA"}},{"arcs":[[-724,-665,743,744,745]],"type":"Polygon","properties":{"n":"Latpalle","c":575758,"d":"Nagarkurnool","s":"TELANGANA"}},{"arcs":[[746,-697,-647,-685,-706,-739,747]],"type":"Polygon","properties":{"n":"Nizamabad","c":575616,"d":"Nagarkurnool","s":"TELANGANA"}},{"arcs":[[748,-727,-689,-691,749,750,751]],"type":"Polygon","properties":{"n":"Gudlanarva","c":575755,"d":"Nagarkurnool","s":"TELANGANA"}},{"arcs":[[-750,-690,-632,-630,-723,752,753,754]],"type":"Polygon","properties":{"n":"Bijinapalle","c":575756,"d":"Nagarkurnool","s":"TELANGANA"}},{"arcs":[[755,-730,-720,-672,-674,-693,756]],"type":"Polygon","properties":{"n":"Gunthakoduru","c":575715,"d":"Nagarkurnool","s":"TELANGANA"}},{"arcs":[[757,-716,-722,-729,758,759]],"type":"Polygon","properties":{"n":"Medipur","c":575717,"d":"Nagarkurnool","s":"TELANGANA"}},{"arcs":[[760,-710,-677,-708,-713,-733,761,762]],"type":"Polygon","properties":{"n":"Rangapur","c":575608,"d":"Nagarkurnool","s":"TELANGANA"}},{"arcs":[[763,-738,-737,764,765]],"type":"Polygon","properties":{"n":"Uppalapahad","c":575606,"d":"Nagarkurnool","s":"TELANGANA"}},{"arcs":[[766,767,768]],"type":"Polygon","properties":{"n":"Thirumalgiri","c":575603,"d":"Nagarkurnool","s":"TELANGANA"}},{"arcs":[[769,770,-759,-731,-756,771,772]],"type":"Polygon","properties":{"n":"Akunellikuduru","c":575705,"d":"Nagarkurnool","s":"TELANGANA"}},{"arcs":[[773,774,-758,775,776]],"type":"Polygon","properties":{"n":"Gundur","c":575590,"d":"Nagarkurnool","s":"TELANGANA"}},{"arcs":[[777,-728,-749,778,779]],"type":"Polygon","properties":{"n":"Karukonda","c":575750,"d":"Nagarkurnool","s":"TELANGANA"}},{"arcs":[[780,-779,-752,781]],"type":"Polygon","properties":{"n":"Anekhanpalle","c":575749,"d":"Nagarkurnool","s":"TELANGANA"}},{"arcs":[[782,783,-768,784,-748,785,786]],"type":"Polygon","properties":{"n":"Gajra","c":575602,"d":"Nagarkurnool","s":"TELANGANA"}},{"arcs":[[787,-772,-757,-692,788,789,790]],"type":"Polygon","properties":{"n":"Yadireddipalle","c":575706,"d":"Nagarkurnool","s":"TELANGANA"}},{"arcs":[[-789,-695,-741,791,792]],"type":"Polygon","properties":{"n":"Indrakal","c":575707,"d":"Nagarkurnool","s":"TELANGANA"}},{"arcs":[[-786,-764,793,794]],"type":"Polygon","properties":{"n":"Venkatapur (Patti Godal)","c":575605,"d":"Nagarkurnool","s":"TELANGANA"}},{"arcs":[[-792,-740,795,796]],"type":"Polygon","properties":{"n":"Yatmatapur","c":575708,"d":"Nagarkurnool","s":"TELANGANA"}},{"arcs":[[797,798,-742,-700,-726,-778,799]],"type":"Polygon","properties":{"n":"Kummera","c":575711,"d":"Nagarkurnool","s":"TELANGANA"}},{"arcs":[[-745,800,801]],"type":"Polygon","properties":{"n":"Gouraram","c":575745,"d":"Nagarkurnool","s":"TELANGANA"}},{"arcs":[[-773,-788,802,803]],"type":"Polygon","properties":{"n":"Nagadevupalle","c":575704,"d":"Nagarkurnool","s":"TELANGANA"}},{"arcs":[[804,-769,-784,805]],"type":"Polygon","properties":{"n":"Thippareddipalle","c":575604,"d":"Nagarkurnool","s":"TELANGANA"}},{"arcs":[[-776,-760,-771,806,807]],"type":"Polygon","properties":{"n":"Suddakal","c":575586,"d":"Nagarkurnool","s":"TELANGANA"}},{"arcs":[[808,-796,-743,-799,809,810]],"type":"Polygon","properties":{"n":"Thummalasugur","c":575709,"d":"Nagarkurnool","s":"TELANGANA"}},{"arcs":[[811,812,-803,-791,813,814]],"type":"Polygon","properties":{"n":"Antharam","c":575703,"d":"Nagarkurnool","s":"TELANGANA"}},{"arcs":[[-762,-732,815,-774,816,817]],"type":"Polygon","properties":{"n":"Mukral","c":575589,"d":"Nagarkurnool","s":"TELANGANA"}},{"arcs":[[-754,818,819,820]],"type":"Polygon","properties":{"n":"Velgonda","c":575747,"d":"Nagarkurnool","s":"TELANGANA"}},{"arcs":[[-810,-798,821,822]],"type":"Polygon","properties":{"n":"Parvathayapalle","c":575710,"d":"Nagarkurnool","s":"TELANGANA"}},{"arcs":[[823,-819,-753,-725,-746,-802,824,825]],"type":"Polygon","properties":{"n":"Manganur","c":575746,"d":"Nagarkurnool","s":"TELANGANA"}},{"arcs":[[826,-765,-736,-711,-761,827,828]],"type":"Polygon","properties":{"n":"Polkampalle","c":575607,"d":"Nagarkurnool","s":"TELANGANA"}},{"arcs":[[829,-807,-770,-804,-813,830,831]],"type":"Polygon","properties":{"n":"Vepur","c":575585,"d":"Nagarkurnool","s":"TELANGANA"}},{"arcs":[[832,-815,833,834]],"type":"Polygon","properties":{"n":"Yatdharpalle","c":575702,"d":"Nagarkurnool","s":"TELANGANA"}},{"arcs":[[835,-831,-812,-833,836]],"type":"Polygon","properties":{"n":"Bekkara","c":575584,"d":"Nagarkurnool","s":"TELANGANA"}},{"arcs":[[837,-822,-800,-780,-781,838,839,840,841]],"type":"Polygon","properties":{"n":"Pothireddipalle","c":575575,"d":"Nagarkurnool","s":"TELANGANA"}},{"arcs":[[-806,-783,842,843]],"type":"Polygon","properties":{"n":"Konetipur","c":575601,"d":"Nagarkurnool","s":"TELANGANA"}},{"arcs":[[844,-834,-814,-790,845,846]],"type":"Polygon","properties":{"n":"Govindayapalle","c":575701,"d":"Nagarkurnool","s":"TELANGANA"}},{"arcs":[[847,-839,-782,-751,-755,-821,848,849]],"type":"Polygon","properties":{"n":"Vattem","c":575748,"d":"Nagarkurnool","s":"TELANGANA"}},{"arcs":[[-849,-820,-824,850,851,852]],"type":"Polygon","properties":{"n":"Bajipuram","c":575569,"d":"Nagarkurnool","s":"TELANGANA"}},{"arcs":[[-846,-793,-797,-809,853,854]],"type":"Polygon","properties":{"n":"Aithole","c":575700,"d":"Nagarkurnool","s":"TELANGANA"}},{"arcs":[[855,-817,-777,-808,-830,856,857]],"type":"Polygon","properties":{"n":"Panjugul","c":575587,"d":"Nagarkurnool","s":"TELANGANA"}},{"arcs":[[-851,-826,858,859]],"type":"Polygon","properties":{"n":"Chegunta","c":575568,"d":"Nagarkurnool","s":"TELANGANA"}},{"arcs":[[860,-840,-848,861,862]],"type":"Polygon","properties":{"n":"Koduparthy","c":575572,"d":"Nagarkurnool","s":"TELANGANA"}},{"arcs":[[863,-837,-835,-845,864,865,866]],"type":"Polygon","properties":{"n":"Thotapalle","c":575583,"d":"Nagarkurnool","s":"TELANGANA"}},{"arcs":[[867,-794,-766,-827,868,869,870]],"type":"Polygon","properties":{"n":"Vangoor","c":575595,"d":"Nagarkurnool","s":"TELANGANA"}},{"arcs":[[871,-841,-861,872,873]],"type":"Polygon","properties":{"n":"Allampalle","c":575573,"d":"Nagarkurnool","s":"TELANGANA"}},{"arcs":[[874,-828,-763,-818,-856,875,876]],"type":"Polygon","properties":{"n":"Yellikal","c":575588,"d":"Nagarkurnool","s":"TELANGANA"}},{"arcs":[[877,-854,-811,-823,-838,878,879]],"type":"Polygon","properties":{"n":"Bhallanpalle","c":575697,"d":"Nagarkurnool","s":"TELANGANA"}},{"arcs":[[880,-862,-850,-853,881,882,883,884]],"type":"Polygon","properties":{"n":"Gummakonda","c":575570,"d":"Nagarkurnool","s":"TELANGANA"}},{"arcs":[[885,-873,-863,-881,886]],"type":"Polygon","properties":{"n":"Appajipalle","c":575571,"d":"Nagarkurnool","s":"TELANGANA"}},{"arcs":[[887,888,-867,889,890]],"type":"Polygon","properties":{"n":"Venkatapoor (Patti Maligara)","c":575577,"d":"Nagarkurnool","s":"TELANGANA"}},{"arcs":[[891,892,-843,-787,-795,-868,893,894]],"type":"Polygon","properties":{"n":"Sarvareddipalle","c":575596,"d":"Nagarkurnool","s":"TELANGANA"}},{"arcs":[[-879,-842,-872,895,896]],"type":"Polygon","properties":{"n":"Bhavajipalle","c":575574,"d":"Nagarkurnool","s":"TELANGANA"}},{"arcs":[[897,-883,898,899]],"type":"Polygon","properties":{"n":"Thirumalagiri","c":575566,"d":"Nagarkurnool","s":"TELANGANA"}},{"arcs":[[900,-865,-847,-855,-878,901,902]],"type":"Polygon","properties":{"n":"Sirsawada","c":575699,"d":"Nagarkurnool","s":"TELANGANA"}},{"arcs":[[903,-857,-832,-836,-864,-889,904,905]],"type":"Polygon","properties":{"n":"Tharnikal","c":575582,"d":"Nagarkurnool","s":"TELANGANA"}},{"arcs":[[-890,-866,-901,906]],"type":"Polygon","properties":{"n":"Velkatta","c":575576,"d":"Nagarkurnool","s":"TELANGANA"}},{"arcs":[[907,-869,-829,-875,908]],"type":"Polygon","properties":{"n":"Kondareddipalle","c":575594,"d":"Nagarkurnool","s":"TELANGANA"}},{"arcs":[[909,-884,-898,910,911]],"type":"Polygon","properties":{"n":"Thimmajipet","c":575565,"d":"Nagarkurnool","s":"TELANGANA"}},{"arcs":[[-905,-888,912,913]],"type":"Polygon","properties":{"n":"Jeedipalle","c":575578,"d":"Nagarkurnool","s":"TELANGANA"}},{"arcs":[[914,915,-887,-885,-910,916]],"type":"Polygon","properties":{"n":"Vedirepalle","c":575564,"d":"Nagarkurnool","s":"TELANGANA"}},{"arcs":[[-895,917,918,919]],"type":"Polygon","properties":{"n":"Kamalapur","c":575598,"d":"Nagarkurnool","s":"TELANGANA"}},{"arcs":[[920,-899,-882,-852,-860,921]],"type":"Polygon","properties":{"n":"Gorita","c":575557,"d":"Nagarkurnool","s":"TELANGANA"}},{"arcs":[[922,923,924]],"type":"Polygon","properties":{"n":"Nerellapalle","c":575562,"d":"Nagarkurnool","s":"TELANGANA"}},{"arcs":[[925,-924,926,-896,-874,-886,-916,927]],"type":"Polygon","properties":{"n":"Marepalle","c":575563,"d":"Nagarkurnool","s":"TELANGANA"}},{"arcs":[[-902,-880,-897,-927,-923,928,929]],"type":"Polygon","properties":{"n":"Papagal","c":575698,"d":"Nagarkurnool","s":"TELANGANA"}},{"arcs":[[930,-918,-894,-871,931]],"type":"Polygon","properties":{"n":"Thimmaipalle","c":575597,"d":"Nagarkurnool","s":"TELANGANA"}},{"arcs":[[932,-906,-914,933,934]],"type":"Polygon","properties":{"n":"Kurmidda","c":575579,"d":"Nagarkurnool","s":"TELANGANA"}},{"arcs":[[935,-876,-858,-904,-933,936,937]],"type":"Polygon","properties":{"n":"Kalwakurthy (CT)","c":575593,"d":"Nagarkurnool","s":"TELANGANA"}},{"arcs":[[938,939]],"type":"Polygon","properties":{"n":"Lingareddipalle","c":575326,"d":"Nagarkurnool","s":"TELANGANA"}},{"arcs":[[940,-939,941,-909,-877,-936,942,943]],"type":"Polygon","properties":{"n":"Tandra","c":575325,"d":"Nagarkurnool","s":"TELANGANA"}},{"arcs":[[-917,-912,944,945,946,947]],"type":"Polygon","properties":{"n":"Ippalapalle","c":575559,"d":"Nagarkurnool","s":"TELANGANA"}},{"arcs":[[-929,-925,-926,948,949]],"type":"Polygon","properties":{"n":"Budhasamudram","c":575561,"d":"Nagarkurnool","s":"TELANGANA"}},{"arcs":[[950,-937,-935,951,952]],"type":"Polygon","properties":{"n":"Marchal","c":575580,"d":"Nagarkurnool","s":"TELANGANA"}},{"arcs":[[953,-932,-870,-908,-942,-940,-941,954,955]],"type":"Polygon","properties":{"n":"Jupalle","c":575327,"d":"Nagarkurnool","s":"TELANGANA"}},{"arcs":[[956,-943,-938,-951,957,958,959]],"type":"Polygon","properties":{"n":"Kotra","c":575324,"d":"Nagarkurnool","s":"TELANGANA"}},{"arcs":[[960,-892,-920,961,962]],"type":"Polygon","properties":{"n":"Charakonda","c":575599,"d":"Nagarkurnool","s":"TELANGANA"}},{"arcs":[[963,-956,964,965,966]],"type":"Polygon","properties":{"n":"Yerravalli","c":575318,"d":"Nagarkurnool","s":"TELANGANA"}},{"arcs":[[-958,-953,967,968]],"type":"Polygon","properties":{"n":"Jillella","c":575581,"d":"Nagarkurnool","s":"TELANGANA"}},{"arcs":[[-946,969,970]],"type":"Polygon","properties":{"n":"Marikal","c":575558,"d":"Nagarkurnool","s":"TELANGANA"}},{"arcs":[[971,-965,-955,-944,-957,972,973,974]],"type":"Polygon","properties":{"n":"Pothepalle","c":575319,"d":"Nagarkurnool","s":"TELANGANA"}},{"arcs":[[-949,-928,-915,-948,975]],"type":"Polygon","properties":{"n":"Avancha","c":575560,"d":"Nagarkurnool","s":"TELANGANA"}},{"arcs":[[976,-962,-919,-931,-954,-964,977,978]],"type":"Polygon","properties":{"n":"Gokaram","c":575317,"d":"Nagarkurnool","s":"TELANGANA"}},{"arcs":[[-963,-977,979,980]],"type":"Polygon","properties":{"n":"Sirsangandla","c":575600,"d":"Nagarkurnool","s":"TELANGANA"}},{"arcs":[[981,-974,982,983]],"type":"Polygon","properties":{"n":"Gundal","c":575320,"d":"Nagarkurnool","s":"TELANGANA"}},{"arcs":[[984,985,986]],"type":"Polygon","properties":{"n":"Karrevanipalle","c":575322,"d":"Nagarkurnool","s":"TELANGANA"}},{"arcs":[[987,-983,-973,-960,988,-987,989]],"type":"Polygon","properties":{"n":"Veldanda","c":575321,"d":"Nagarkurnool","s":"TELANGANA"}},{"arcs":[[-980,-979,990,991]],"type":"Polygon","properties":{"n":"Seriappareddipalle","c":575316,"d":"Nagarkurnool","s":"TELANGANA"}},{"arcs":[[992,-975,-982,993,994]],"type":"Polygon","properties":{"n":"Bollampalle","c":575312,"d":"Nagarkurnool","s":"TELANGANA"}},{"arcs":[[995,996,-991,-978,-967,997,998]],"type":"Polygon","properties":{"n":"Bhairpur","c":575315,"d":"Nagarkurnool","s":"TELANGANA"}},{"arcs":[[-998,-966,-972,-993,999,1000]],"type":"Polygon","properties":{"n":"Chedurvalli","c":575313,"d":"Nagarkurnool","s":"TELANGANA"}},{"arcs":[[-1000,-995,1001,1002]],"type":"Polygon","properties":{"n":"Koneduvada","c":575311,"d":"Nagarkurnool","s":"TELANGANA"}},{"arcs":[[1003,1004,1005,-986]],"type":"Polygon","properties":{"n":"KUPPAGANDLA","c":575308,"d":"Nagarkurnool","s":"TELANGANA"}},{"arcs":[[-1002,-994,-984,-988,1006,1007]],"type":"Polygon","properties":{"n":"Cherkur","c":575310,"d":"Nagarkurnool","s":"TELANGANA"}},{"arcs":[[-1007,-990,-1006,1008]],"type":"Polygon","properties":{"n":"Peddapur","c":575309,"d":"Nagarkurnool","s":"TELANGANA"}},{"arcs":[[-996,1009]],"type":"Polygon","properties":{"n":"Ajilapur","c":575314,"d":"Nagarkurnool","s":"TELANGANA"}},{"arcs":[[-486,-398,-330,-610,-334,-364,-609]],"type":"Polygon","properties":{"n":"Amrabad","c":575620,"d":"Nagarkurnool","s":"TELANGANA"}},{"arcs":[[-327,-292,1010,-378]],"type":"Polygon","properties":{"n":"GANYAGULA","c":575742,"d":"Nagarkurnool","s":"TELANGANA"}},{"arcs":[[-578,-655,-586,-644,-540,-490,-507]],"type":"Polygon","properties":{"n":"Tadoor","c":575674,"d":"Nagarkurnool","s":"TELANGANA"}},{"arcs":[[-635,-504,-474,-424,-452,-488,-535,-702]],"type":"Polygon","properties":{"n":"CHANDRAPUR","c":575638,"d":"Nagarkurnool","s":"TELANGANA"}},{"arcs":[[-734,-681,-714,-775,-816]],"type":"Polygon","properties":{"n":"Lingasanipalle","c":575591,"d":"Nagarkurnool","s":"TELANGANA"}},{"arcs":[[-945,-911,-900,-921,1011,-970]],"type":"Polygon","properties":{"n":"Gorita","c":575567,"d":"Nagarkurnool","s":"TELANGANA"}},{"arcs":[[-985,-989,-959,-969,1012,-1004]],"type":"Polygon","properties":{"n":"Rachur","c":575323,"d":"Nagarkurnool","s":"TELANGANA"}}]}}}