{"type":"Topology","arcs":[[[11854,6901],[678,-1406]],[[12532,5495],[-61,-336]],[[12471,5159],[-1599,1276]],[[10872,6435],[801,533]],[[11673,6968],[181,-67]],[[3212,2085],[-2209,540],[-1003,-52],[867,790],[963,3600]],[[1830,6963],[1063,45]],[[2893,7008],[-125,-2505],[444,-2418]],[[13162,7173],[478,-550],[1413,-76]],[[15053,6547],[39,-283]],[[15092,6264],[-1171,-1226],[-1389,457]],[[11854,6901],[250,331],[1058,-59]],[[5280,3539],[-808,-759],[-1260,-695]],[[2893,7008],[1303,288],[389,510]],[[4585,7806],[445,-2233],[250,-2034]],[[14425,7958],[628,-1411]],[[13162,7173],[271,842]],[[13433,8015],[992,-57]],[[7107,6414],[-718,-1324],[-1109,-1551]],[[4585,7806],[3,450]],[[4588,8256],[2018,-169],[822,411]],[[7428,8498],[-321,-2084]],[[16065,8386],[-120,-1806],[-853,-316]],[[14425,7958],[29,362]],[[14454,8320],[787,250]],[[15241,8570],[824,-184]],[[13433,8015],[192,1516]],[[13625,9531],[829,-1211]],[[25049,9281],[-827,-2813],[-651,-1254],[-1085,-1340],[-1224,-997]],[[21262,2877],[-138,1423],[1662,3663],[742,1271],[1127,485],[394,-438]],[[12179,10542],[-506,-3574]],[[10872,6435],[-1223,897]],[[9649,7332],[114,1759]],[[9763,9091],[766,392],[865,1136]],[[11394,10619],[785,-77]],[[21239,9129],[-311,-862],[-972,-744],[-739,-1333],[-1009,688],[-1835,-48],[188,1207],[-282,549]],[[16279,8586],[255,1828]],[[16534,10414],[863,571]],[[17397,10985],[392,-1356],[2437,-253],[1013,-247]],[[12179,10542],[195,17]],[[12374,10559],[907,512],[344,-1540]],[[17397,10985],[2383,160],[1927,-791],[-468,-1225]],[[11394,10619],[-758,1466]],[[10636,12085],[682,-5]],[[11318,12080],[851,102]],[[12169,12182],[205,-1623]],[[13625,9531],[442,1276],[-210,973]],[[13857,11780],[1008,464]],[[14865,12244],[908,-1673],[-1013,112],[481,-2113]],[[15972,12230],[608,-1033]],[[16580,11197],[-46,-783]],[[16279,8586],[-214,-200]],[[14865,12244],[206,659],[901,-673]],[[9649,7332],[-1236,390],[-873,-473],[-433,-835]],[[7428,8498],[144,495],[35,3308],[-405,1502]],[[7202,13803],[1581,445]],[[8783,14248],[980,-5157]],[[8783,14248],[1081,402]],[[9864,14650],[772,-2565]],[[19355,14067],[779,-1230]],[[20134,12837],[-368,40],[-1333,-990],[-997,-17]],[[17436,11870],[243,2775]],[[17679,14645],[827,-47],[849,-531]],[[13857,11780],[263,1968]],[[14120,13748],[347,79]],[[14467,13827],[1039,1166]],[[15506,14993],[305,-748],[161,-2015]],[[21191,12292],[-1057,545]],[[19355,14067],[1411,928]],[[20766,14995],[425,-2703]],[[23153,13648],[-423,-1002],[-1539,-354]],[[20766,14995],[632,-216]],[[21398,14779],[143,-412],[842,178],[906,619]],[[23289,15164],[-136,-1516]],[[13918,15178],[202,-1430]],[[12169,12182],[695,669],[583,1935],[471,392]],[[17436,11870],[-856,-673]],[[15506,14993],[932,371]],[[16438,15364],[448,345],[793,-1064]],[[24809,13643],[-734,338],[-922,-333]],[[23289,15164],[1406,862]],[[24695,16026],[114,-2383]],[[4588,8256],[24,2696],[159,3286],[614,2116]],[[5385,16354],[1817,-2551]],[[26352,16478],[-163,-1854],[-1162,-1280],[-218,299]],[[24695,16026],[1657,452]],[[19362,17220],[73,-476]],[[19435,16744],[242,-1023],[-322,-1654]],[[17679,14645],[124,2332]],[[17803,16977],[1559,243]],[[20766,14995],[-178,2151]],[[20588,17146],[1364,255]],[[21952,17401],[539,-1076],[-656,-347],[-437,-1199]],[[14467,13827],[-220,897],[342,1573],[701,240],[426,924]],[[15716,17461],[137,-881],[585,-1216]],[[13914,17315],[4,-2137]],[[11318,12080],[533,2908],[305,2503]],[[12156,17491],[1758,-176]],[[19435,16744],[686,264],[248,988]],[[20369,17996],[219,-850]],[[9864,14650],[802,3370]],[[10666,18020],[1490,-529]],[[23289,15164],[320,3684]],[[23609,18848],[486,-238],[478,535]],[[24573,19145],[122,-3119]],[[24828,18470],[692,-386],[1198,-7]],[[26718,18077],[-366,-1599]],[[24573,19145],[255,-675]],[[1830,6963],[62,1350],[-185,1972],[721,3577],[-166,2404],[529,1885],[786,1175],[1040,-990],[768,-1982]],[[15716,17461],[-235,392],[906,1392]],[[16387,19245],[775,115]],[[17162,19360],[641,-2383]],[[27812,19419],[-604,-1059],[-490,-283]],[[26718,18077],[126,1521]],[[26844,19598],[968,-179]],[[21952,17401],[189,340]],[[22141,17741],[960,262],[-235,1035],[319,676],[424,-866]],[[20369,17996],[151,1249]],[[20520,19245],[1533,519],[466,440]],[[22519,20204],[-378,-2463]],[[20113,20228],[407,-983]],[[19362,17220],[-662,3372]],[[18700,20592],[1413,-364]],[[13914,17315],[-348,1904]],[[13566,19219],[1567,736],[1025,773]],[[16158,20728],[229,-1483]],[[24828,18470],[405,2520]],[[25233,20990],[1611,-1392]],[[17162,19360],[510,1337]],[[17672,20697],[744,348],[284,-453]],[[22519,20204],[75,500]],[[22594,20704],[2656,376]],[[25250,21080],[-17,-90]],[[10666,18020],[523,2715],[1206,238],[745,1090]],[[13140,22063],[426,-2844]],[[15931,22189],[227,-1461]],[[13140,22063],[428,250],[2363,-124]],[[21262,2877],[-2153,-1492],[-1542,-1385],[-1934,386],[-1221,1187],[-360,-193],[-392,845],[-6,1664],[-1183,1270]],[[27812,19419],[1325,990]],[[29137,20409],[996,2021]],[[30133,22430],[-1,-948],[963,-7693],[-960,188],[-1331,-1112],[-655,-1885],[-2139,-742],[-961,-957]],[[21124,22513],[1709,-279]],[[22833,22234],[-2,257]],[[22831,22491],[2,-257]],[[22833,22234],[-239,-1530]],[[20113,20228],[-9,1807],[198,647]],[[20302,22682],[185,-552],[637,383]],[[18272,22134],[-600,-1437]],[[15931,22189],[839,386],[586,1123]],[[17356,23698],[916,-1564]],[[22831,22491],[35,74]],[[22866,22565],[1779,1004],[217,374]],[[24862,23943],[343,86],[45,-2949]],[[21124,22513],[519,1989]],[[21643,24502],[1223,-1937]],[[19505,25397],[797,-2715]],[[18272,22134],[502,636],[230,1597],[501,1033]],[[19505,25400],[0,-3]],[[30133,24419],[0,-1989]],[[29137,20409],[-886,102],[-225,569],[-63,2742],[199,464],[1089,140],[635,833]],[[29886,25259],[247,-840]],[[21896,24981],[-253,-479]],[[19505,25397],[958,433]],[[20463,25830],[1433,-849]],[[26844,19598],[-352,2006],[-75,2848],[839,2052]],[[27256,26504],[113,-371],[1064,-341],[924,-897],[529,364]],[[25087,26387],[-225,-2444]],[[21896,24981],[198,416]],[[22094,25397],[1045,1150],[541,-362],[1407,202]],[[20463,25830],[428,1209]],[[20891,27039],[1571,72]],[[22462,27111],[-368,-1714]],[[17356,23698],[671,995],[331,1313]],[[18358,26006],[488,786]],[[18846,26792],[404,723],[255,-2115]],[[29360,27613],[659,-1842],[-133,-512]],[[27256,26504],[1078,1252],[327,45]],[[28661,27801],[699,-188]],[[25087,26387],[-9,1361]],[[25078,27748],[693,-437],[1334,821]],[[27105,28132],[151,-1628]],[[19510,28439],[951,-229]],[[20461,28210],[534,-493]],[[20995,27717],[-104,-678]],[[18846,26792],[152,1549],[512,98]],[[22462,27111],[801,2196]],[[23263,29307],[1155,-745],[660,-814]],[[19071,29429],[439,-990]],[[18358,26006],[-651,3425]],[[17707,29431],[1364,-2]],[[27105,28132],[925,1732]],[[28030,29864],[631,-2063]],[[31403,29938],[667,-1759],[853,-3122]],[[32923,25057],[-1834,-874],[102,967],[-1058,-731]],[[29360,27613],[850,2332]],[[30210,29945],[1193,-7]],[[20401,30185],[60,-1975]],[[19071,29429],[90,761]],[[19161,30190],[1240,-5]],[[34492,26973],[-100,-557]],[[34392,26416],[-1469,-1359]],[[31403,29938],[852,-191]],[[32255,29747],[413,-245],[1958,690]],[[34626,30192],[-1039,-2570],[905,-649]],[[20995,27717],[350,481],[364,2106]],[[21709,30304],[1554,-997]],[[70394,30169],[-1038,-1690],[-1361,-797],[972,1801],[854,391],[330,642]],[[70151,30516],[243,-347]],[[40297,28710],[-955,-619],[-1774,-340],[-196,200]],[[37372,27951],[260,1504],[1077,1259]],[[38709,30714],[830,28]],[[39539,30742],[758,-2032]],[[17707,29431],[248,1385]],[[17955,30816],[948,-107],[258,-519]],[[35832,30878],[-22,-195]],[[35810,30683],[-1168,-2480],[-150,-1230]],[[34626,30192],[404,600]],[[35030,30792],[802,86]],[[37372,27951],[-347,233],[-671,-757],[-1432,-1026],[-530,15]],[[35810,30683],[1337,392],[1562,-361]],[[21773,30664],[-64,-360]],[[20401,30185],[-29,955]],[[20372,31140],[1401,-476]],[[17955,30816],[827,750]],[[18782,31566],[1590,-426]],[[22273,32767],[-500,-2103]],[[18782,31566],[1441,1546],[352,714]],[[20575,33826],[1698,-1059]],[[30625,33857],[-415,-3912]],[[28030,29864],[958,1480],[618,1923]],[[29606,33267],[1019,590]],[[30625,33857],[502,117]],[[31127,33974],[925,842]],[[32052,34816],[-124,-2065],[801,-2887],[-474,-117]],[[23831,33003],[-303,-802],[-265,-2894]],[[22273,32767],[506,2114]],[[22779,34881],[1084,-1290],[-32,-588]],[[35832,30878],[184,987]],[[36016,31865],[515,2230]],[[36531,34095],[612,60],[658,671],[1147,200]],[[38948,35026],[579,-2282],[-86,-729],[-732,-1301]],[[48181,32686],[-993,-485],[-1161,-1104]],[[46027,31097],[-385,1537]],[[45642,32634],[344,1454],[677,1066]],[[46663,35154],[266,-1047],[1095,-381],[157,-1040]],[[39485,35509],[851,-2980],[113,1202],[1016,286],[394,466]],[[41859,34483],[-129,-2915]],[[41730,31568],[-1579,-1038],[-612,212]],[[38948,35026],[537,483]],[[20575,33826],[450,1807]],[[21025,35633],[1754,-752]],[[34329,35804],[238,-1121],[1449,-2818]],[[35030,30792],[-607,2078],[-655,3155]],[[33768,36025],[561,-221]],[[70151,30516],[509,1457],[192,1613],[712,2632],[1410,17],[52,-733],[-1411,-2668],[-1221,-2665]],[[32052,34816],[685,921]],[[32737,35737],[371,698],[660,-410]],[[29606,33267],[122,1809],[-479,714]],[[29249,35790],[1066,818]],[[30315,36608],[-61,-319],[873,-2315]],[[26257,36654],[435,-1359],[-122,-2190],[-1125,-2489],[1660,-2484]],[[23831,33003],[229,-978],[850,-919],[576,293],[722,1478],[362,1506],[-313,2271]],[[42021,35913],[-162,-1430]],[[39485,35509],[566,2061]],[[40051,37570],[1083,-2094],[887,437]],[[66283,37289],[539,-1423]],[[66822,35866],[-64,-959]],[[66758,34907],[-614,-262]],[[66144,34645],[-1167,-405]],[[64977,34240],[-484,1155],[-1104,459]],[[63389,35854],[941,1906]],[[64330,37760],[995,-673],[958,202]],[[36598,34966],[-67,-871]],[[34329,35804],[477,562],[416,1404]],[[35222,37770],[1376,-2804]],[[47067,37506],[-451,-1102],[47,-1250]],[[45642,32634],[-664,3194],[-72,1009],[304,571]],[[45210,37408],[939,409],[918,-311]],[[32639,37936],[98,-2199]],[[30315,36608],[46,17]],[[30361,36625],[847,179],[1431,1132]],[[42021,35913],[-254,2045],[610,47]],[[42377,38005],[-213,-1439],[707,-1157],[125,-826],[-775,-2394],[-491,-621]],[[37422,37363],[-784,-1583],[-40,-814]],[[35222,37770],[458,390],[1742,-797]],[[38427,38281],[-180,-692],[195,-1278],[506,-1285]],[[37422,37363],[621,1392],[384,-474]],[[28249,38522],[1000,-2732]],[[26257,36654],[-146,2196]],[[26111,38850],[929,-983],[1209,655]],[[58184,39105],[8,-1380],[466,-1171]],[[58658,36554],[-1,-24]],[[58657,36530],[-2094,1718]],[[56563,38248],[678,823],[943,34]],[[44860,38077],[350,-669]],[[46027,31097],[-432,-479],[-1017,-252],[-1743,405],[-761,-405],[-859,-1911],[-601,-478],[-317,733]],[[42377,38005],[438,-14],[94,1066]],[[42909,39057],[449,-771],[727,883],[775,-1092]],[[62852,37827],[537,-1973]],[[64977,34240],[-1401,-233],[-1120,519],[-1710,-224],[-826,231],[-1263,1997]],[[58658,36554],[552,2234],[899,205]],[[60109,38993],[949,543],[112,-441],[955,386],[727,-1654]],[[21025,35633],[-242,1770],[423,1433],[670,835],[917,162],[1132,-481],[2186,-502]],[[40035,38074],[16,-504]],[[38427,38281],[832,1609]],[[39259,39890],[295,-1230],[481,-586]],[[64123,40340],[371,-1421],[-164,-1159]],[[62852,37827],[110,797]],[[62962,38624],[1161,1716]],[[49122,39250],[542,-1368],[960,-3851]],[[50624,34031],[-2060,-1314],[-383,-31]],[[47067,37506],[512,-105],[23,892],[-432,2506]],[[47170,40799],[723,-1471],[931,231],[298,-309]],[[65135,40756],[618,-806],[978,252]],[[66731,40202],[-209,-2187],[-239,-726]],[[64123,40340],[192,545]],[[64315,40885],[820,-129]],[[35702,40192],[-858,-1318],[-1032,283],[-1173,-1221]],[[30361,36625],[-105,1809],[241,328]],[[30497,38762],[370,202],[1082,-485],[1266,954],[645,1066]],[[33860,40499],[1056,422],[786,-729]],[[68040,40045],[151,-1214],[-659,-2868],[-710,-97]],[[66731,40202],[418,742],[317,-1004],[574,105]],[[68307,41349],[456,-1152],[713,-935],[-264,-1414],[-567,-1073],[-1049,-1326],[-838,-542]],[[68040,40045],[267,1304]],[[58184,39105],[-164,1040]],[[58020,40145],[1709,1247]],[[59729,41392],[380,-2399]],[[41285,41696],[0,-52]],[[41285,41644],[-145,-1806],[-301,-795],[-804,-969]],[[39259,39890],[136,1257],[-237,880]],[[39158,42027],[923,79],[1204,-410]],[[41285,41644],[1092,-81],[1197,633]],[[43574,42196],[-343,-1152],[336,-1513],[-658,-474]],[[64189,42222],[126,-1337]],[[62962,38624],[-242,443],[-12,1561],[225,1342]],[[62933,41970],[1190,-114],[66,366]],[[28249,38522],[599,1011],[1285,2984],[191,3]],[[30324,42520],[173,-3758]],[[33589,40918],[271,-419]],[[30324,42520],[319,-169],[1136,-2754],[1629,660],[181,661]],[[43625,42646],[978,-2042],[1060,-1264]],[[45663,39340],[-803,-1263]],[[43574,42196],[51,450]],[[53351,43691],[825,-1293]],[[54176,42398],[1340,-1420]],[[55516,40978],[452,-2359]],[[55968,38619],[-922,100],[-586,-342],[-1336,-3077],[-2500,-1269]],[[49122,39250],[-179,2620]],[[48943,41870],[222,686],[539,-39],[584,-1451]],[[50288,41066],[818,-1854],[723,-105],[651,650]],[[52480,39757],[294,564],[44,1580],[-334,945],[867,845]],[[68395,42325],[-88,-976]],[[65135,40756],[365,2977]],[[65500,43733],[697,488]],[[66197,44221],[798,-766],[624,-55],[257,-983],[519,-92]],[[48383,44252],[279,-704]],[[48662,43548],[281,-1678]],[[47170,40799],[-138,500],[812,3039]],[[47844,44338],[539,-86]],[[59872,44202],[-143,-2810]],[[58020,40145],[-225,1428],[-3,2101]],[[57792,43674],[706,662],[1374,-134]],[[46026,43862],[170,-588],[-245,-1392],[144,-1340],[-432,-1202]],[[43625,42646],[687,885]],[[44312,43531],[1497,912]],[[45809,44443],[217,-581]],[[54924,44457],[763,-459],[534,-1185]],[[56221,42813],[-347,-1464],[-358,-371]],[[54176,42398],[745,1564],[3,495]],[[56563,38248],[-595,371]],[[56221,42813],[672,30],[591,900],[-266,743]],[[57218,44486],[407,14]],[[57625,44500],[167,-826]],[[50288,41066],[496,904],[755,2658]],[[51539,44628],[-19,-3517],[960,-1354]],[[51539,44628],[1658,103]],[[53197,44731],[154,-1040]],[[47051,45145],[793,-807]],[[46026,43862],[1025,1283]],[[50715,45171],[824,-543]],[[48662,43548],[1171,490],[101,938]],[[49934,44976],[781,195]],[[41285,41696],[-157,583],[294,1148]],[[41422,43427],[636,302],[1225,1499]],[[43283,45228],[117,-709],[912,-988]],[[64189,42222],[89,3182]],[[64278,45404],[1222,-1671]],[[68218,44821],[177,-2496]],[[66197,44221],[324,898]],[[66521,45119],[1443,440],[254,-738]],[[39158,42027],[497,1985],[448,478],[454,1390]],[[40557,45880],[674,-797],[191,-1656]],[[59872,44202],[217,1704]],[[60089,45906],[952,-511],[904,-2559],[159,-1135],[829,269]],[[62933,41970],[-20,3824]],[[62913,45794],[651,205],[714,-595]],[[45097,46361],[712,-1918]],[[43283,45228],[753,1257],[1061,-124]],[[76519,46468],[49,-1230],[-1356,-3734],[-292,-1255],[-726,-1632],[-1113,-1947],[-452,-333],[-750,659],[745,3125],[56,2268],[376,1787],[1108,1692],[735,674],[650,-745],[970,671]],[[35702,40192],[1167,1074],[1180,2544]],[[38049,43810],[253,1892],[2006,992]],[[40308,46694],[249,-814]],[[54826,46753],[165,-304],[-67,-1992]],[[53197,44731],[-379,1347]],[[52818,46078],[479,490],[272,-638],[472,873]],[[54041,46803],[785,-50]],[[60089,45906],[34,1995]],[[60123,47901],[2790,-2107]],[[57881,47415],[182,-1637],[-438,-1278]],[[57218,44486],[-397,380],[-517,1371],[-205,1347],[-337,533]],[[55762,48117],[2119,-702]],[[54826,46753],[588,1483]],[[55414,48236],[348,-119]],[[64471,47408],[-193,-2004]],[[62913,45794],[-131,1274],[553,1218],[324,26]],[[63659,48312],[812,-904]],[[36487,48410],[142,-2121],[263,-780],[1157,-1699]],[[33589,40918],[89,850],[-262,1920],[-86,1968],[307,850],[627,355],[673,1651]],[[34937,48512],[1550,-102]],[[59847,48453],[68,-146]],[[59915,48307],[208,-406]],[[57881,47415],[173,283]],[[58054,47698],[1793,755]],[[64471,47408],[1007,-10],[195,969]],[[65673,48367],[589,350]],[[66262,48717],[-505,-2913],[696,-71],[68,-614]],[[50715,45171],[475,1218],[366,2087]],[[51556,48476],[1100,267]],[[52656,48743],[162,-2665]],[[52656,48743],[1640,236]],[[54296,48979],[-255,-2176]],[[36487,48410],[2293,585]],[[38780,48995],[550,-1961],[978,-340]],[[45868,48867],[-373,-2009],[-398,-497]],[[40308,46694],[337,143],[1581,1992],[1297,509],[1067,-52],[1278,-419]],[[48719,49550],[326,-2185],[610,-1104],[279,-1285]],[[48383,44252],[21,862],[-515,2056],[518,1951]],[[48407,49121],[312,429]],[[47051,45145],[103,1090],[-379,442],[130,2942]],[[46905,49619],[1320,-195],[182,-303]],[[45868,48867],[398,-50],[489,1121]],[[46755,49938],[150,-319]],[[61353,50069],[327,-303]],[[61680,49766],[226,-1494],[507,-181],[675,790],[571,-569]],[[59847,48453],[68,-146]],[[59915,48307],[403,469]],[[60318,48776],[395,1083],[640,210]],[[54976,50216],[438,-1980]],[[54296,48979],[124,1275]],[[54420,50254],[556,-38]],[[54976,50216],[0,7]],[[54976,50223],[2977,507]],[[57953,50730],[101,-3032]],[[52656,48743],[-19,1949]],[[52637,50692],[153,93]],[[52790,50785],[1048,550],[130,-917],[452,-164]],[[57953,50730],[2002,733]],[[59955,51463],[76,-1866],[287,-821]],[[51556,48476],[55,629],[-494,2713]],[[51117,51818],[841,-931],[679,-195]],[[66414,51772],[30,-537]],[[66444,51235],[-134,-1942]],[[66310,49293],[-48,-576]],[[65673,48367],[-401,74],[-542,1347],[362,1211],[980,971]],[[66072,51970],[342,-198]],[[34937,48512],[375,1956],[2270,1733],[885,-1488],[313,-1718]],[[64169,52460],[-575,-826],[-442,-1385],[-965,-852],[-507,369]],[[61353,50069],[368,361],[1119,2054]],[[62840,52484],[1329,-24]],[[66444,51235],[1300,963],[534,974]],[[68278,53172],[244,-431],[-382,-1204],[37,-1009],[513,-916],[-287,-484],[-583,260],[-237,1311],[-1001,-1461],[-272,55]],[[48719,49550],[38,1187],[-324,1535],[-519,909]],[[47914,53181],[370,98]],[[48284,53279],[932,-1628],[567,336],[1334,-169]],[[46755,49938],[-87,1332]],[[46668,51270],[934,1009],[264,1097]],[[47866,53376],[48,-195]],[[64169,52460],[728,1000]],[[64897,53460],[1175,-1490]],[[54976,50223],[568,2725]],[[55544,52948],[2217,600]],[[57761,53548],[192,-2818]],[[57761,53548],[1988,74]],[[59749,53622],[206,-2159]],[[59749,53622],[1335,533],[287,-541],[373,702]],[[61744,54316],[1180,17]],[[62924,54333],[-84,-1849]],[[64422,54205],[475,-745]],[[62924,54333],[1498,-128]],[[55673,54152],[-129,-1204]],[[52790,50785],[-124,1375],[377,1181],[-116,1182]],[[52927,54523],[1504,-628],[525,410],[717,-153]],[[46668,51270],[-453,2199],[1609,1242]],[[47824,54711],[42,-1335]],[[67963,54621],[315,-1449]],[[66414,51772],[578,336],[238,1023],[-256,424],[260,968],[729,98]],[[48284,53279],[1903,1275],[812,-311],[43,1066]],[[51042,55309],[1885,-786]],[[75168,55540],[-80,-2716],[-3027,-2736],[-2136,-2464]],[[69925,47624],[198,1657],[-800,-129],[-313,1026],[812,814],[20,895],[558,711]],[[70400,52598],[567,188]],[[70967,52786],[-447,-1133],[708,112],[669,709]],[[71897,52474],[3051,3344],[220,-278]],[[51031,56520],[11,-1211]],[[47824,54711],[552,238],[587,1269],[2068,302]],[[71327,54628],[-360,-1842]],[[70400,52598],[-184,1178],[-525,1173],[800,1440]],[[70491,56389],[156,460]],[[70647,56849],[454,-752],[226,-1469]],[[51031,56520],[1178,-126],[412,909]],[[52621,57303],[343,-1778],[-37,-1002]],[[69925,47624],[-1107,-1294],[-600,-1509]],[[67963,54621],[586,383],[371,978]],[[68920,55982],[890,1414]],[[69810,57396],[681,-1007]],[[57232,57653],[529,-4105]],[[55673,54152],[5,2213]],[[55678,56365],[1554,1288]],[[54288,57915],[883,-1088]],[[55171,56827],[507,-462]],[[52621,57303],[310,1002]],[[52931,58305],[366,-445],[991,55]],[[73572,55447],[-1292,-1754],[-383,-1219]],[[71327,54628],[803,1728]],[[72130,56356],[375,1323],[572,709]],[[73077,58388],[-52,-1620],[547,-1321]],[[70647,56849],[617,1599]],[[71264,58448],[866,-2092]],[[57232,57653],[1607,1183]],[[58839,58836],[796,-1752],[1093,402],[1097,-1123],[-81,-2047]],[[74374,58493],[388,-657]],[[74762,57836],[-824,-1147],[-366,-1242]],[[73077,58388],[400,548]],[[73477,58936],[897,-443]],[[71375,58848],[-111,-400]],[[69810,57396],[390,1559]],[[70200,58955],[601,357]],[[70801,59312],[574,-464]],[[64422,54205],[757,1332]],[[65179,55537],[405,602]],[[65584,56139],[772,1345],[881,2075]],[[67237,59559],[715,-1773],[968,-1804]],[[67237,59559],[-157,307]],[[67080,59866],[800,31]],[[67880,59897],[676,-1328],[539,-233],[1105,619]],[[79055,60290],[273,-3737],[-748,-1275],[-926,-997],[-563,-229],[-195,1069],[89,1318],[516,2237],[1554,1614]],[[71375,58848],[531,1568]],[[71906,60416],[527,-191],[1044,-1289]],[[57598,60854],[612,-1516],[629,-502]],[[57232,57653],[-293,3327]],[[56939,60980],[659,-126]],[[64341,60561],[112,-1935]],[[64453,58626],[842,-1530],[289,-957]],[[65179,55537],[-1165,1971],[-1224,1554],[-197,552],[876,1478]],[[63469,61092],[872,-531]],[[64453,58626],[2353,3575]],[[66806,62201],[274,-2335]],[[58213,62239],[714,-1109],[385,-43],[846,861]],[[60158,61948],[468,-599],[2065,109]],[[62691,61458],[720,252],[58,-618]],[[57598,60854],[615,1385]],[[69908,62303],[410,-607]],[[70318,61696],[535,-1192],[-52,-1192]],[[67880,59897],[1278,2342]],[[69158,62239],[750,64]],[[72002,61515],[-96,-1099]],[[70318,61696],[815,483]],[[71133,62179],[495,471],[374,-1135]],[[66806,62201],[685,-348],[862,1043]],[[68353,62896],[805,-657]],[[73923,60987],[434,-1564],[17,-930]],[[72002,61515],[1034,1383]],[[73036,62898],[887,-1911]],[[58780,63067],[1378,-1119]],[[58213,62239],[566,830]],[[58779,63069],[1,-2]],[[64752,63319],[-411,-2758]],[[62691,61458],[26,1614]],[[62717,63072],[2035,247]],[[55864,63364],[22,-2329],[-177,-1909],[-538,-2299]],[[54288,57915],[-5,5478]],[[54283,63393],[1581,-29]],[[55864,63364],[801,426]],[[56665,63790],[274,-2810]],[[76537,62241],[-132,-1385],[-1075,-2511],[-568,-509]],[[73923,60987],[1099,2599],[428,504]],[[75450,64090],[1087,-1849]],[[71345,64055],[-212,-1876]],[[69908,62303],[-10,1540]],[[69898,63843],[253,738]],[[70151,64581],[1194,-526]],[[56665,63790],[147,838]],[[56812,64628],[1011,-609],[956,-950]],[[52931,58305],[24,1466],[-448,3389],[-35,1687],[871,-50],[940,-1404]],[[73036,62898],[554,1140],[-165,1168]],[[73425,65206],[1167,419],[858,-1535]],[[68184,65223],[169,-2327]],[[64752,63319],[205,1561]],[[64957,64880],[333,-709],[1345,1790]],[[66635,65961],[1549,-738]],[[68184,65223],[30,195]],[[68214,65418],[492,1157]],[[68706,66575],[637,-533],[13,-924],[542,-1275]],[[76668,65975],[181,-3137],[-312,-597]],[[73425,65206],[925,1581]],[[74350,66787],[461,852],[931,-169],[926,-1495]],[[66175,67991],[460,-2030]],[[64957,64880],[-72,1162]],[[64885,66042],[1290,1949]],[[62717,63072],[-728,2277]],[[61989,65349],[199,567],[1236,1563]],[[63424,67479],[1068,602]],[[64492,68081],[393,-2039]],[[71345,64055],[2479,4109]],[[73824,68164],[526,-1377]],[[58780,63067],[421,5069]],[[59201,68136],[664,371]],[[59865,68507],[681,-1278],[1443,-1880]],[[67500,68821],[158,-1432],[556,-1971]],[[66175,67991],[186,430]],[[66361,68421],[523,662],[616,-262]],[[56812,64628],[-223,369],[440,1680],[70,2675]],[[57099,69352],[2102,-1216]],[[76668,65975],[124,1949],[757,959]],[[77549,68883],[1588,1004]],[[79137,69887],[-53,-1737],[-1589,-1273],[-827,-902]],[[68706,66575],[-6,902],[912,1754]],[[69612,69231],[880,668]],[[70492,69899],[18,-3648],[-359,-1670]],[[80289,70104],[140,-1335],[777,-1440]],[[81206,67329],[-1140,-1830],[-1396,-795],[-1087,-1349],[-524,-1578],[-893,-1904],[-998,-4333]],[[79137,69887],[1152,217]],[[69022,69914],[406,161],[184,-844]],[[67500,68821],[526,1159],[996,-66]],[[83786,70946],[128,-1549],[-684,-1435],[-1530,-83],[-494,-550]],[[80289,70104],[213,1287]],[[80502,71391],[746,-1380],[906,62],[1463,1387]],[[83617,71460],[169,-514]],[[73038,70487],[373,-1587],[413,-736]],[[70492,69899],[929,857]],[[71421,70756],[1058,1142]],[[72479,71898],[559,-1411]],[[65771,70194],[590,-1773]],[[64492,68081],[116,138],[-12,3967]],[[64596,72186],[1175,-1992]],[[65771,70194],[824,1450],[87,664]],[[66682,72308],[196,-1738],[622,-1749]],[[59865,68507],[560,1942],[957,1902]],[[61382,72351],[1635,-3380],[407,-1492]],[[62921,72462],[1674,-88]],[[64595,72374],[1,-188]],[[61382,72351],[104,4]],[[61486,72355],[1435,107]],[[78327,72865],[810,-2978]],[[77549,68883],[-420,-219],[-995,3372]],[[76134,72036],[1879,874],[314,-45]],[[73038,70487],[2814,2513]],[[75852,73000],[282,-964]],[[66682,72308],[131,999]],[[66813,73307],[619,164]],[[67432,73471],[1121,-1999],[469,-1558]],[[88472,73414],[205,-1135],[-252,-935],[39,-1576],[315,-1256],[430,-14],[-527,-2071],[-560,-904],[-1030,-483],[-1109,-969],[-468,783],[753,4286],[853,1849],[1351,2425]],[[75495,74457],[357,-1457]],[[72479,71898],[406,776]],[[72885,72674],[1128,207],[233,1214],[470,728]],[[74716,74823],[333,-959],[446,593]],[[82348,75016],[1294,-3284]],[[83642,71732],[-25,-272]],[[80502,71391],[333,1654]],[[80835,73045],[1513,1971]],[[77999,75568],[329,-999],[363,-31]],[[78691,74538],[-364,-1673]],[[75495,74457],[1288,628],[497,-226],[719,709]],[[80142,75911],[490,-455],[203,-2411]],[[78691,74538],[84,1228],[1367,145]],[[83642,71732],[1433,1982]],[[85075,73714],[1436,2168]],[[86511,75882],[1016,91],[457,-567],[51,-842],[-546,-1323],[-1171,-3572],[-1566,-1588],[-966,2865]],[[82348,75016],[635,849]],[[82983,75865],[943,1476]],[[83926,77341],[1149,-3627]],[[57099,69352],[1121,4519],[847,1050],[1269,2334],[331,95]],[[60667,77350],[-1466,-9214]],[[64595,72374],[121,5081]],[[64716,77455],[712,-435],[924,-3106],[461,-607]],[[70222,75792],[342,145],[391,-2918],[466,-2263]],[[67432,73471],[379,2613],[378,938],[591,436],[1442,-1666]],[[70222,75792],[1200,790],[555,909]],[[71977,77491],[335,-2361],[795,409],[3,-1156],[-660,-1595],[435,-114]],[[60667,77350],[348,210]],[[61015,77560],[-38,-1628],[509,-3577]],[[78824,78507],[683,-112]],[[79507,78395],[369,-1535],[462,-540]],[[80338,76320],[-196,-409]],[[77999,75568],[515,1252],[77,1782],[233,-95]],[[80338,76320],[1227,1718],[246,688]],[[81811,78726],[1172,-2861]],[[61015,77560],[1702,1423]],[[62717,78983],[246,-2680],[-42,-3841]],[[62717,78983],[629,-171],[1370,-1357]],[[74716,74823],[451,590],[-426,2045],[-79,2303]],[[74662,79761],[1064,-526],[669,579],[1334,-426],[1095,-881]],[[71977,77491],[928,1759],[923,580],[834,-69]],[[85914,80030],[178,-2365],[419,-1783]],[[83926,77341],[1454,1951]],[[85380,79292],[534,738]],[[93773,81713],[171,-781],[-268,-935],[153,-1338],[353,-671],[-1112,-2625],[-116,-1661],[-347,-1028],[-486,-304],[-479,-1188],[-991,-50],[-200,835],[85,1657],[565,2756],[-343,2094],[-661,949],[584,593],[1268,-162],[967,1435],[857,424]],[[83457,81960],[645,-1156],[1278,-1512]],[[81811,78726],[890,1871]],[[82701,80597],[756,1363]],[[85020,83050],[733,-650],[433,-1592]],[[86186,80808],[-272,-778]],[[83457,81960],[642,1404]],[[84099,83364],[921,-314]],[[79507,78395],[546,645],[297,1709],[182,2891],[351,495]],[[80883,84135],[823,-2218],[995,-1320]],[[82701,80597],[-52,3738]],[[82649,84335],[678,-71],[772,-900]],[[80883,84135],[631,624],[1135,-424]],[[89484,85025],[-93,-1075],[378,-1216]],[[89769,82734],[-1078,-893],[-2037,-695],[-468,-338]],[[85020,83050],[556,719]],[[85576,83769],[632,-143],[2543,1694]],[[88751,85320],[733,-295]],[[85576,83769],[366,1594]],[[85942,85363],[2078,1228]],[[88020,86591],[731,-1271]],[[85942,85363],[150,2268],[691,1764],[951,-1345],[286,-1459]],[[89484,85025],[763,1019]],[[90247,86044],[1684,469],[594,878],[543,1640],[747,1063],[1157,814],[1520,1759],[583,276],[635,-895],[-135,-704],[-2015,-2568],[-57,-1968],[-896,-376],[-1069,-1190],[-1766,-2577],[-1401,-384],[-602,453]],[[90247,86044],[-63,3486],[308,743],[1610,100],[884,1054],[-376,1506],[-637,800],[306,1354],[2310,2508],[695,-35],[601,583],[378,1856],[880,-1183],[2857,-7896],[-1245,-2135],[-357,-2046],[-757,-2530],[-902,-2358],[-1325,-2318],[-255,-790],[-476,-3032],[-986,-2228],[-748,-633],[-766,-1504],[-1299,-3051],[-738,-1356],[-1088,-1476],[-2317,-1223],[-530,-595],[-1056,-2925],[-707,-4264],[-13,-1297],[-891,-1140],[-1096,-766],[-1043,-2297],[-553,-821],[-1067,-857],[-1060,-1325],[-1488,-1245],[-403,-1190],[168,-552],[-1518,-3510],[-902,-4105],[-538,-1102],[-1155,-1525],[-1487,-3227],[-1967,-3201],[-1393,-743],[-941,-250],[-957,7342]]],"transform":{"scale":[8.53670000000008e-06,4.202042020420181e-06],"translate":[93.73937,26.76366]},"objects":{"villages":{"type":"GeometryCollection","geometries":[{"arcs":[[0,1,2,3,4]],"type":"Polygon","properties":{"n":" ","c":0,"d":"Majuli","s":"ASSAM"}},{"arcs":[[5,6,7]],"type":"Polygon","properties":{"n":" ","c":0,"d":"Majuli","s":"ASSAM"}},{"arcs":[[8,9,10,-1,11]],"type":"Polygon","properties":{"n":" ","c":0,"d":"Majuli","s":"ASSAM"}},{"arcs":[[12,-8,13,14]],"type":"Polygon","properties":{"n":" ","c":0,"d":"Majuli","s":"ASSAM"}},{"arcs":[[15,-9,16,17]],"type":"Polygon","properties":{"n":" ","c":0,"d":"Majuli","s":"ASSAM"}},{"arcs":[[18,-15,19,20,21]],"type":"Polygon","properties":{"n":" ","c":0,"d":"Majuli","s":"ASSAM"}},{"arcs":[[22,-10,-16,23,24,25]],"type":"Polygon","properties":{"n":" ","c":0,"d":"Majuli","s":"ASSAM"}},{"arcs":[[-24,-18,26,27]],"type":"Polygon","properties":{"n":" ","c":0,"d":"Majuli","s":"ASSAM"}},{"arcs":[[28,29]],"type":"Polygon","properties":{"n":" ","c":0,"d":"Majuli","s":"ASSAM"}},{"arcs":[[30,-4,31,32,33,34]],"type":"Polygon","properties":{"n":" ","c":0,"d":"Majuli","s":"ASSAM"}},{"arcs":[[35,36,37,38]],"type":"Polygon","properties":{"n":" ","c":294290,"d":"Majuli","s":"ASSAM"}},{"arcs":[[-27,-17,-12,-5,-31,39,40]],"type":"Polygon","properties":{"n":" ","c":0,"d":"Majuli","s":"ASSAM"}},{"arcs":[[-39,41]],"type":"Polygon","properties":{"n":" ","c":0,"d":"Majuli","s":"ASSAM"}},{"arcs":[[-40,-35,42,43,44,45]],"type":"Polygon","properties":{"n":" ","c":0,"d":"Majuli","s":"ASSAM"}},{"arcs":[[-25,-28,46,47,48]],"type":"Polygon","properties":{"n":" ","c":0,"d":"Majuli","s":"ASSAM"}},{"arcs":[[49,50,-37,51,-26,-49,52]],"type":"Polygon","properties":{"n":" ","c":0,"d":"Majuli","s":"ASSAM"}},{"arcs":[[-33,53,-22,54,55,56]],"type":"Polygon","properties":{"n":" ","c":0,"d":"Majuli","s":"ASSAM"}},{"arcs":[[-43,-34,-57,57,58]],"type":"Polygon","properties":{"n":" ","c":293302,"d":"Majuli","s":"ASSAM"}},{"arcs":[[59,60,61,62]],"type":"Polygon","properties":{"n":" ","c":0,"d":"Majuli","s":"ASSAM"}},{"arcs":[[-53,-48,63,64,65,66]],"type":"Polygon","properties":{"n":" ","c":293312,"d":"Majuli","s":"ASSAM"}},{"arcs":[[67,-60,68,69]],"type":"Polygon","properties":{"n":" ","c":0,"d":"Majuli","s":"ASSAM"}},{"arcs":[[70,-70,71,72,73]],"type":"Polygon","properties":{"n":" ","c":0,"d":"Majuli","s":"ASSAM"}},{"arcs":[[74,-64,-47,-41,-46,75]],"type":"Polygon","properties":{"n":" ","c":293309,"d":"Majuli","s":"ASSAM"}},{"arcs":[[-62,76,-50,-67,77,78]],"type":"Polygon","properties":{"n":" ","c":293318,"d":"Majuli","s":"ASSAM"}},{"arcs":[[79,-74,80,81]],"type":"Polygon","properties":{"n":" ","c":0,"d":"Majuli","s":"ASSAM"}},{"arcs":[[-55,-21,82,83]],"type":"Polygon","properties":{"n":" ","c":0,"d":"Majuli","s":"ASSAM"}},{"arcs":[[84,-82,85]],"type":"Polygon","properties":{"n":" ","c":0,"d":"Majuli","s":"ASSAM"}},{"arcs":[[86,87,-63,88,89]],"type":"Polygon","properties":{"n":" ","c":0,"d":"Majuli","s":"ASSAM"}},{"arcs":[[-72,90,91,92]],"type":"Polygon","properties":{"n":" ","c":0,"d":"Majuli","s":"ASSAM"}},{"arcs":[[-78,-66,93,94]],"type":"Polygon","properties":{"n":" ","c":0,"d":"Majuli","s":"ASSAM"}},{"arcs":[[95,-76,-45,96,97]],"type":"Polygon","properties":{"n":" ","c":0,"d":"Majuli","s":"ASSAM"}},{"arcs":[[-91,-69,-88,98,99]],"type":"Polygon","properties":{"n":" ","c":0,"d":"Majuli","s":"ASSAM"}},{"arcs":[[-97,-44,-59,100,101]],"type":"Polygon","properties":{"n":" ","c":0,"d":"Majuli","s":"ASSAM"}},{"arcs":[[-81,102,103,104]],"type":"Polygon","properties":{"n":" ","c":0,"d":"Majuli","s":"ASSAM"}},{"arcs":[[105,106,-86,-105,107]],"type":"Polygon","properties":{"n":" ","c":0,"d":"Majuli","s":"ASSAM"}},{"arcs":[[-83,-20,-14,-7,108]],"type":"Polygon","properties":{"n":" ","c":293299,"d":"Majuli","s":"ASSAM"}},{"arcs":[[-89,-79,-95,109,110,111]],"type":"Polygon","properties":{"n":" ","c":0,"d":"Majuli","s":"ASSAM"}},{"arcs":[[112,113,114]],"type":"Polygon","properties":{"n":" ","c":0,"d":"Majuli","s":"ASSAM"}},{"arcs":[[-103,-73,-93,115,116]],"type":"Polygon","properties":{"n":" ","c":0,"d":"Majuli","s":"ASSAM"}},{"arcs":[[-116,-92,-100,117,118,119]],"type":"Polygon","properties":{"n":" ","c":0,"d":"Majuli","s":"ASSAM"}},{"arcs":[[120,-118,-99,-87,121,122]],"type":"Polygon","properties":{"n":" ","c":0,"d":"Majuli","s":"ASSAM"}},{"arcs":[[-110,-94,-65,-75,-96,123,124,125]],"type":"Polygon","properties":{"n":" ","c":293308,"d":"Majuli","s":"ASSAM"}},{"arcs":[[-114,-106,126,127]],"type":"Polygon","properties":{"n":" ","c":0,"d":"Majuli","s":"ASSAM"}},{"arcs":[[-122,-90,-112,128,129]],"type":"Polygon","properties":{"n":" ","c":0,"d":"Majuli","s":"ASSAM"}},{"arcs":[[-127,-108,-104,-117,-120,130,131,132]],"type":"Polygon","properties":{"n":" ","c":0,"d":"Majuli","s":"ASSAM"}},{"arcs":[[-124,-98,-102,133,134]],"type":"Polygon","properties":{"n":" ","c":0,"d":"Majuli","s":"ASSAM"}},{"arcs":[[135,-125,-135,136]],"type":"Polygon","properties":{"n":" ","c":293306,"d":"Majuli","s":"ASSAM"}},{"arcs":[[-30,137,-2,-11,-23,-52,-36,-42,-38,-51,-77,-61,-68,-71,-80,-85,-107,-113,138,139,140]],"type":"Polygon","properties":{"n":" ","c":293329,"d":"Majuli","s":"ASSAM"}},{"arcs":[[141,142,143,144,-131,-119,-121,145,146]],"type":"Polygon","properties":{"n":" ","c":0,"d":"Majuli","s":"ASSAM"}},{"arcs":[[147,-129,-111,-126,-136,148,149]],"type":"Polygon","properties":{"n":" ","c":293314,"d":"Majuli","s":"ASSAM"}},{"arcs":[[-132,-145,-144,150,151,152]],"type":"Polygon","properties":{"n":" ","c":0,"d":"Majuli","s":"ASSAM"}},{"arcs":[[-151,-143,-142,153,154]],"type":"Polygon","properties":{"n":" ","c":0,"d":"Majuli","s":"ASSAM"}},{"arcs":[[155,-146,-123,-130,-148,156,157]],"type":"Polygon","properties":{"n":" ","c":0,"d":"Majuli","s":"ASSAM"}},{"arcs":[[158,-140,159,160]],"type":"Polygon","properties":{"n":" ","c":293359,"d":"Majuli","s":"ASSAM"}},{"arcs":[[161,-154,-147,-156,162,163]],"type":"Polygon","properties":{"n":" ","c":293326,"d":"Majuli","s":"ASSAM"}},{"arcs":[[-160,-139,-115,164,165]],"type":"Polygon","properties":{"n":" ","c":0,"d":"Majuli","s":"ASSAM"}},{"arcs":[[166,-152,-155,-162,167,168]],"type":"Polygon","properties":{"n":" ","c":293336,"d":"Majuli","s":"ASSAM"}},{"arcs":[[-168,-164,169,170,171]],"type":"Polygon","properties":{"n":" ","c":0,"d":"Majuli","s":"ASSAM"}},{"arcs":[[-157,-150,172,173,174]],"type":"Polygon","properties":{"n":"Sayong Kerker N.C.","c":287569,"d":"Majuli","s":"ASSAM"}},{"arcs":[[175,-166,176,177]],"type":"Polygon","properties":{"n":" ","c":0,"d":"Majuli","s":"ASSAM"}},{"arcs":[[-165,-128,-133,-153,-167,178,179,180]],"type":"Polygon","properties":{"n":" ","c":0,"d":"Majuli","s":"ASSAM"}},{"arcs":[[181,182,183,-170,-163,-158,-175,184]],"type":"Polygon","properties":{"n":" ","c":293324,"d":"Majuli","s":"ASSAM"}},{"arcs":[[-179,-169,-172,185,186]],"type":"Polygon","properties":{"n":" ","c":0,"d":"Majuli","s":"ASSAM"}},{"arcs":[[187,-185,-174,188,189]],"type":"Polygon","properties":{"n":" ","c":0,"d":"Majuli","s":"ASSAM"}},{"arcs":[[-177,-181,190,191]],"type":"Polygon","properties":{"n":" ","c":0,"d":"Majuli","s":"ASSAM"}},{"arcs":[[192,193,-161,-176,194,195]],"type":"Polygon","properties":{"n":" ","c":0,"d":"Majuli","s":"ASSAM"}},{"arcs":[[196,-182,-188,197,198]],"type":"Polygon","properties":{"n":" ","c":0,"d":"Majuli","s":"ASSAM"}},{"arcs":[[199,200,-193,201,202,203]],"type":"Polygon","properties":{"n":" ","c":293355,"d":"Majuli","s":"ASSAM"}},{"arcs":[[-186,-171,-184,204,205]],"type":"Polygon","properties":{"n":" ","c":293338,"d":"Majuli","s":"ASSAM"}},{"arcs":[[206,207]],"type":"Polygon","properties":{"n":"Major Chapori N.C.","c":293350,"d":"Majuli","s":"ASSAM"}},{"arcs":[[208,209,210,211]],"type":"Polygon","properties":{"n":"Auniati Lakharaj","c":293396,"d":"Majuli","s":"ASSAM"}},{"arcs":[[-198,-190,212,213]],"type":"Polygon","properties":{"n":" ","c":0,"d":"Majuli","s":"ASSAM"}},{"arcs":[[214,215,-204,216,217]],"type":"Polygon","properties":{"n":" ","c":0,"d":"Majuli","s":"ASSAM"}},{"arcs":[[-210,218,-200,-216,219]],"type":"Polygon","properties":{"n":"Bengena-Ati Puroni Satra","c":293377,"d":"Majuli","s":"ASSAM"}},{"arcs":[[220,-205,-183,-197,221,222]],"type":"Polygon","properties":{"n":" ","c":293327,"d":"Majuli","s":"ASSAM"}},{"arcs":[[-222,-199,-214,223,224]],"type":"Polygon","properties":{"n":" ","c":0,"d":"Majuli","s":"ASSAM"}},{"arcs":[[225,-223,-225,226,227]],"type":"Polygon","properties":{"n":" ","c":293325,"d":"Majuli","s":"ASSAM"}},{"arcs":[[228,-195,-178,-192,229,230]],"type":"Polygon","properties":{"n":" ","c":0,"d":"Majuli","s":"ASSAM"}},{"arcs":[[-202,-196,-229,231,232,233]],"type":"Polygon","properties":{"n":" ","c":0,"d":"Majuli","s":"ASSAM"}},{"arcs":[[234,-206,-221,-226,235,236]],"type":"Polygon","properties":{"n":" ","c":0,"d":"Majuli","s":"ASSAM"}},{"arcs":[[-220,-215,237,238,239,240]],"type":"Polygon","properties":{"n":" ","c":293378,"d":"Majuli","s":"ASSAM"}},{"arcs":[[241,242,243,244]],"type":"Polygon","properties":{"n":" ","c":0,"d":"Majuli","s":"ASSAM"}},{"arcs":[[245,246,247,-211,-241,248]],"type":"Polygon","properties":{"n":"Auniati Lakharaj","c":293396,"d":"Majuli","s":"ASSAM"}},{"arcs":[[-236,-228,249,250]],"type":"Polygon","properties":{"n":" ","c":0,"d":"Majuli","s":"ASSAM"}},{"arcs":[[251,-238,-218,252,253]],"type":"Polygon","properties":{"n":"Karati Pathar","c":293366,"d":"Majuli","s":"ASSAM"}},{"arcs":[[-208,254]],"type":"Polygon","properties":{"n":"Kumolia Chapori N.C.","c":293356,"d":"Majuli","s":"ASSAM"}},{"arcs":[[-253,-217,-203,-234,255,256]],"type":"Polygon","properties":{"n":" ","c":293361,"d":"Majuli","s":"ASSAM"}},{"arcs":[[-232,-231,257,258,259]],"type":"Polygon","properties":{"n":" ","c":0,"d":"Majuli","s":"ASSAM"}},{"arcs":[[260,-180,-187,-235,261]],"type":"Polygon","properties":{"n":" ","c":0,"d":"Majuli","s":"ASSAM"}},{"arcs":[[262,-246,263,264]],"type":"Polygon","properties":{"n":"Kakari Kata","c":293395,"d":"Majuli","s":"ASSAM"}},{"arcs":[[265,266,267,268,269,270,271]],"type":"Polygon","properties":{"n":"Goroimari Doloni","c":293441,"d":"Majuli","s":"ASSAM"}},{"arcs":[[272,-239,-252,273,274]],"type":"Polygon","properties":{"n":" ","c":0,"d":"Majuli","s":"ASSAM"}},{"arcs":[[275,-244,276,277]],"type":"Polygon","properties":{"n":" ","c":293397,"d":"Majuli","s":"ASSAM"}},{"arcs":[[278,-256,-233,-260,279,280]],"type":"Polygon","properties":{"n":"Molual Kaibartta Miri","c":293363,"d":"Majuli","s":"ASSAM"}},{"arcs":[[-247,-263,281,282]],"type":"Polygon","properties":{"n":" ","c":0,"d":"Majuli","s":"ASSAM"}},{"arcs":[[283,-275,284]],"type":"Polygon","properties":{"n":" ","c":0,"d":"Majuli","s":"ASSAM"}},{"arcs":[[285,-240,-273,-284,286]],"type":"Polygon","properties":{"n":"Bengena-Ati Puroni Satra","c":293377,"d":"Majuli","s":"ASSAM"}},{"arcs":[[287,-258,-230,-191,-261,288,289]],"type":"Polygon","properties":{"n":"Eri Chapori","c":293347,"d":"Majuli","s":"ASSAM"}},{"arcs":[[290,291,292,293]],"type":"Polygon","properties":{"n":" ","c":0,"d":"Majuli","s":"ASSAM"}},{"arcs":[[294,-277,-243,295,-212,-248,-283,296,297]],"type":"Polygon","properties":{"n":"Auniati Lakharaj","c":293396,"d":"Majuli","s":"ASSAM"}},{"arcs":[[298,-270,299,-292,300,301]],"type":"Polygon","properties":{"n":"Dakhinpat Satra","c":293422,"d":"Majuli","s":"ASSAM"}},{"arcs":[[-289,-262,-237,-251,302]],"type":"Polygon","properties":{"n":" ","c":0,"d":"Majuli","s":"ASSAM"}},{"arcs":[[303,-264,-249,-286,304,305]],"type":"Polygon","properties":{"n":"Singaria Beel","c":293376,"d":"Majuli","s":"ASSAM"}},{"arcs":[[306,-271,-299,307,308]],"type":"Polygon","properties":{"n":"Karhal Gaon","c":293440,"d":"Majuli","s":"ASSAM"}},{"arcs":[[309,310,-245,-276,311,312]],"type":"Polygon","properties":{"n":"Kamalabari Satra","c":293418,"d":"Majuli","s":"ASSAM"}},{"arcs":[[313,314,-272,-307,315,316]],"type":"Polygon","properties":{"n":"Atoi Chuk","c":293442,"d":"Majuli","s":"ASSAM"}},{"arcs":[[317,-281,318,319,320]],"type":"Polygon","properties":{"n":"Molual Kaibartta Miri","c":293363,"d":"Majuli","s":"ASSAM"}},{"arcs":[[321,-266,-315,322]],"type":"Polygon","properties":{"n":"Borboka Pathar","c":293468,"d":"Majuli","s":"ASSAM"}},{"arcs":[[323,-267,-322,324]],"type":"Polygon","properties":{"n":"Bheuchuk","c":293489,"d":"Majuli","s":"ASSAM"}},{"arcs":[[-301,-291,325,326,327]],"type":"Polygon","properties":{"n":"Gagol Doba","c":293423,"d":"Majuli","s":"ASSAM"}},{"arcs":[[328,329,-306,330,331]],"type":"Polygon","properties":{"n":"Kalia Gaon","c":293433,"d":"Majuli","s":"ASSAM"}},{"arcs":[[-297,-282,-265,-304,-330,332,333]],"type":"Polygon","properties":{"n":"Kakari Kata","c":293395,"d":"Majuli","s":"ASSAM"}},{"arcs":[[334,-316,-309,335,336]],"type":"Polygon","properties":{"n":"Chamaguri Satra","c":293439,"d":"Majuli","s":"ASSAM"}},{"arcs":[[-319,-280,-259,-288,337,338]],"type":"Polygon","properties":{"n":"Okhala Chuk","c":293351,"d":"Majuli","s":"ASSAM"}},{"arcs":[[339,-320,-339,340]],"type":"Polygon","properties":{"n":" ","c":0,"d":"Majuli","s":"ASSAM"}},{"arcs":[[341,342,-298,-334,343]],"type":"Polygon","properties":{"n":"Kakari Kata","c":293395,"d":"Majuli","s":"ASSAM"}},{"arcs":[[344,345,346,347,-310,348,349,350,351]],"type":"Polygon","properties":{"n":"Kamalabari Satra","c":293418,"d":"Majuli","s":"ASSAM"}},{"arcs":[[352,-325,-323,-314,353,354,355]],"type":"Polygon","properties":{"n":"Kamjan Alengi","c":293467,"d":"Majuli","s":"ASSAM"}},{"arcs":[[356,357,-349,-313,358,359]],"type":"Polygon","properties":{"n":"Nam Katoni","c":293400,"d":"Majuli","s":"ASSAM"}},{"arcs":[[360,-327,361,362]],"type":"Polygon","properties":{"n":"Kamar Gaon","c":293424,"d":"Majuli","s":"ASSAM"}},{"arcs":[[363,-342,364,365,366]],"type":"Polygon","properties":{"n":"Juguni Dhari","c":293394,"d":"Majuli","s":"ASSAM"}},{"arcs":[[367,368,-346,369]],"type":"Polygon","properties":{"n":"Bhogpur Pathar","c":293416,"d":"Majuli","s":"ASSAM"}},{"arcs":[[-362,-326,-294,370,-347,-369,371,372,373]],"type":"Polygon","properties":{"n":" ","c":0,"d":"Majuli","s":"ASSAM"}},{"arcs":[[-351,374,375]],"type":"Polygon","properties":{"n":"Phutuka Pathar","c":293404,"d":"Majuli","s":"ASSAM"}},{"arcs":[[-352,-376,376,377]],"type":"Polygon","properties":{"n":"Pohar Dia","c":293405,"d":"Majuli","s":"ASSAM"}},{"arcs":[[378,-359,-312,-278,-295,-343,-364,379]],"type":"Polygon","properties":{"n":"Lahalial","c":293398,"d":"Majuli","s":"ASSAM"}},{"arcs":[[380,-375,-350,-358,381,382]],"type":"Polygon","properties":{"n":"Upper Katoni","c":293403,"d":"Majuli","s":"ASSAM"}},{"arcs":[[-365,-344,-333,-329,383,384,385]],"type":"Polygon","properties":{"n":"Borgayan No.2","c":293387,"d":"Majuli","s":"ASSAM"}},{"arcs":[[-354,-317,-335,386,387]],"type":"Polygon","properties":{"n":"Jogi Gaon","c":293443,"d":"Majuli","s":"ASSAM"}},{"arcs":[[388,-356,389,390]],"type":"Polygon","properties":{"n":" ","c":0,"d":"Majuli","s":"ASSAM"}},{"arcs":[[-384,-332,391,392]],"type":"Polygon","properties":{"n":"Alengi Gaon","c":293374,"d":"Majuli","s":"ASSAM"}},{"arcs":[[-336,-308,-302,-328,-361,393,394]],"type":"Polygon","properties":{"n":"Tataya Gaon","c":293438,"d":"Majuli","s":"ASSAM"}},{"arcs":[[-387,-337,395,396]],"type":"Polygon","properties":{"n":"Bon Gaon","c":293444,"d":"Majuli","s":"ASSAM"}},{"arcs":[[397,-366,-386,398]],"type":"Polygon","properties":{"n":"Borgayan No.1","c":293393,"d":"Majuli","s":"ASSAM"}},{"arcs":[[399]],"type":"Polygon","properties":{"n":" ","c":0,"d":"Majuli","s":"ASSAM"}},{"arcs":[[-392,-331,-305,-287,-285,-274,-254,-257,-279,-318,400,401,402]],"type":"Polygon","properties":{"n":"Goal Gaon","c":293369,"d":"Majuli","s":"ASSAM"}},{"arcs":[[403,-370,-345,-378,404,405,406]],"type":"Polygon","properties":{"n":"Bhogpur Satra","c":293415,"d":"Majuli","s":"ASSAM"}},{"arcs":[[-396,-395,407,408]],"type":"Polygon","properties":{"n":"Mekheli Gaon","c":293445,"d":"Majuli","s":"ASSAM"}},{"arcs":[[409,-373,410,411]],"type":"Polygon","properties":{"n":"Burha Senchowa","c":293425,"d":"Majuli","s":"ASSAM"}},{"arcs":[[-411,-372,-368,-404,412,413]],"type":"Polygon","properties":{"n":"Motia Bari","c":293426,"d":"Majuli","s":"ASSAM"}},{"arcs":[[414,-397,415,416]],"type":"Polygon","properties":{"n":"Mudoi Tanti","c":293460,"d":"Majuli","s":"ASSAM"}},{"arcs":[[417,-401,-321,-340,418,419]],"type":"Polygon","properties":{"n":"Malapindha  Chilakola Miri","c":293371,"d":"Majuli","s":"ASSAM"}},{"arcs":[[420,421,-408,-394,-363,-374,-410,422,423]],"type":"Polygon","properties":{"n":"Deka Senchowa","c":293437,"d":"Majuli","s":"ASSAM"}},{"arcs":[[-390,-355,-388,-415,424,425,426]],"type":"Polygon","properties":{"n":"Mera Garh","c":293461,"d":"Majuli","s":"ASSAM"}},{"arcs":[[-405,-377,-381,427,428,429]],"type":"Polygon","properties":{"n":"Mohkhuti No.2","c":293406,"d":"Majuli","s":"ASSAM"}},{"arcs":[[-406,-430,430,431]],"type":"Polygon","properties":{"n":"Mohkhuti No.1","c":293414,"d":"Majuli","s":"ASSAM"}},{"arcs":[[-402,-418,432,433]],"type":"Polygon","properties":{"n":"Chilakola Kaibartta","c":293373,"d":"Majuli","s":"ASSAM"}},{"arcs":[[434,-399,-385,-393,-403,435]],"type":"Polygon","properties":{"n":"Chilakola Chapori","c":293372,"d":"Majuli","s":"ASSAM"}},{"arcs":[[436,-382,-357,437,438]],"type":"Polygon","properties":{"n":"Doria Gaon","c":293402,"d":"Majuli","s":"ASSAM"}},{"arcs":[[-438,-360,-379,439,440]],"type":"Polygon","properties":{"n":"Kerela Gaon","c":293401,"d":"Majuli","s":"ASSAM"}},{"arcs":[[-440,-380,-367,-398,-435,441,442]],"type":"Polygon","properties":{"n":"Mohkina Gaon","c":293392,"d":"Majuli","s":"ASSAM"}},{"arcs":[[443,444,-416,-409,-422,-421,445,446,447]],"type":"Polygon","properties":{"n":" ","c":0,"d":"Majuli","s":"ASSAM"}},{"arcs":[[448,-413,-407,-432,449,450]],"type":"Polygon","properties":{"n":"Bhogpur Miri","c":293427,"d":"Majuli","s":"ASSAM"}},{"arcs":[[-423,-412,-414,-449,451,452,453]],"type":"Polygon","properties":{"n":"Bhuramora No.3","c":293436,"d":"Majuli","s":"ASSAM"}},{"arcs":[[-450,-431,454,455,456]],"type":"Polygon","properties":{"n":"Kakati Bari","c":293428,"d":"Majuli","s":"ASSAM"}},{"arcs":[[-447,-446,-424,-454,457,458]],"type":"Polygon","properties":{"n":"Bhuramora No.2","c":293447,"d":"Majuli","s":"ASSAM"}},{"arcs":[[-455,-429,459,460]],"type":"Polygon","properties":{"n":"Mohkhuti No.3","c":293413,"d":"Majuli","s":"ASSAM"}},{"arcs":[[461,462,463,-426,464,465]],"type":"Polygon","properties":{"n":"Gayan Chuk","c":293462,"d":"Majuli","s":"ASSAM"}},{"arcs":[[-433,-420,466]],"type":"Polygon","properties":{"n":"Chilakola Chapori","c":293372,"d":"Majuli","s":"ASSAM"}},{"arcs":[[467,-444,468,469]],"type":"Polygon","properties":{"n":"Sukan Suti Miri","c":293458,"d":"Majuli","s":"ASSAM"}},{"arcs":[[-463,470,471]],"type":"Polygon","properties":{"n":"Gayan Gaon","c":293463,"d":"Majuli","s":"ASSAM"}},{"arcs":[[-460,-428,-383,-437,472,473,474]],"type":"Polygon","properties":{"n":"Garamur Phutuki Chapori","c":293407,"d":"Majuli","s":"ASSAM"}},{"arcs":[[-473,-439,-441,-443,475,476,477]],"type":"Polygon","properties":{"n":"Garmur Satra","c":293391,"d":"Majuli","s":"ASSAM"}},{"arcs":[[-465,-425,-417,-445,-468,478,479]],"type":"Polygon","properties":{"n":"Dhowachala Gaon","c":293459,"d":"Majuli","s":"ASSAM"}},{"arcs":[[-453,480,481,482]],"type":"Polygon","properties":{"n":"Goalabari No.2","c":293435,"d":"Majuli","s":"ASSAM"}},{"arcs":[[-458,-483,483,484]],"type":"Polygon","properties":{"n":"Bhuramora No.1","c":293448,"d":"Majuli","s":"ASSAM"}},{"arcs":[[-469,-448,-459,-485,485,486,487]],"type":"Polygon","properties":{"n":"Pohumara","c":293457,"d":"Majuli","s":"ASSAM"}},{"arcs":[[488,-479,-470,-488,489]],"type":"Polygon","properties":{"n":"Bor-Nalani No.2","c":293475,"d":"Majuli","s":"ASSAM"}},{"arcs":[[490,-481,-452,-451,-457,491,492]],"type":"Polygon","properties":{"n":"Pokajora Gaon","c":293429,"d":"Majuli","s":"ASSAM"}},{"arcs":[[-477,493,494]],"type":"Polygon","properties":{"n":"Kaibortta Gaon","c":293390,"d":"Majuli","s":"ASSAM"}},{"arcs":[[495,-471,-462,496]],"type":"Polygon","properties":{"n":"Gayan Gaon","c":293463,"d":"Majuli","s":"ASSAM"}},{"arcs":[[-492,-456,-461,-475,497,498]],"type":"Polygon","properties":{"n":"Garamur Jugi Pathar","c":293408,"d":"Majuli","s":"ASSAM"}},{"arcs":[[499,500,501,502,503]],"type":"Polygon","properties":{"n":"Phuloni Chapori","c":293502,"d":"Majuli","s":"ASSAM"}},{"arcs":[[504,-498,-474,-478,-495,505]],"type":"Polygon","properties":{"n":"Monika Pathar","c":293409,"d":"Majuli","s":"ASSAM"}},{"arcs":[[506,-502,507,508,509]],"type":"Polygon","properties":{"n":"Phuloni Chapori","c":293502,"d":"Majuli","s":"ASSAM"}},{"arcs":[[-499,-505,510,511]],"type":"Polygon","properties":{"n":"Bengena Kalia","c":293411,"d":"Majuli","s":"ASSAM"}},{"arcs":[[-508,-501,512,-391,-427,-464,-472,-496,513,514,515]],"type":"Polygon","properties":{"n":"Lahon Gaon","c":293501,"d":"Majuli","s":"ASSAM"}},{"arcs":[[516,-482,-491,517,518]],"type":"Polygon","properties":{"n":"Thakur Suti","c":293450,"d":"Majuli","s":"ASSAM"}},{"arcs":[[519,520,-518,-493,-512,521,522]],"type":"Polygon","properties":{"n":"Pokajora Miri","c":293430,"d":"Majuli","s":"ASSAM"}},{"arcs":[[523,-503,-507,524,525,526]],"type":"Polygon","properties":{"n":" ","c":0,"d":"Majuli","s":"ASSAM"}},{"arcs":[[-525,-510,527,528]],"type":"Polygon","properties":{"n":" ","c":0,"d":"Majuli","s":"ASSAM"}},{"arcs":[[-486,-484,-517,529,530]],"type":"Polygon","properties":{"n":"Jorbeel","c":293449,"d":"Majuli","s":"ASSAM"}},{"arcs":[[531,532,-527,533,534]],"type":"Polygon","properties":{"n":"Kathal Khowa Pam","c":293505,"d":"Majuli","s":"ASSAM"}},{"arcs":[[535,-528,-509,-516,536,537,538]],"type":"Polygon","properties":{"n":"Ratanpur Gabharumelia","c":293506,"d":"Majuli","s":"ASSAM"}},{"arcs":[[-514,-497,-466,-480,-489,539,540,541,542]],"type":"Polygon","properties":{"n":"Owguri Baghpam","c":293473,"d":"Majuli","s":"ASSAM"}},{"arcs":[[-537,-515,-543,543,544,545]],"type":"Polygon","properties":{"n":"Bokajan Pam","c":293500,"d":"Majuli","s":"ASSAM"}},{"arcs":[[546]],"type":"Polygon","properties":{"n":"Bonoria Chapori N C","c":293544,"d":"Majuli","s":"ASSAM"}},{"arcs":[[-534,-526,-529,-536,547,548]],"type":"Polygon","properties":{"n":"Kathal Khowa Kathamia","c":293507,"d":"Majuli","s":"ASSAM"}},{"arcs":[[549,-530,550,551]],"type":"Polygon","properties":{"n":"Goalabari No.2","c":293435,"d":"Majuli","s":"ASSAM"}},{"arcs":[[552,553,-541,554,555]],"type":"Polygon","properties":{"n":"Hawli","c":293477,"d":"Majuli","s":"ASSAM"}},{"arcs":[[-544,-542,-554,556,557]],"type":"Polygon","properties":{"n":"Bokajan Miri","c":293478,"d":"Majuli","s":"ASSAM"}},{"arcs":[[558,559,560,-555,-540,-490,-487,-531,-550,561]],"type":"Polygon","properties":{"n":"Rangachahi","c":293455,"d":"Majuli","s":"ASSAM"}},{"arcs":[[562,563,-538,-546,564,565]],"type":"Polygon","properties":{"n":"Abhoipuria","c":293499,"d":"Majuli","s":"ASSAM"}},{"arcs":[[566,-548,-539,-564,567,568]],"type":"Polygon","properties":{"n":" ","c":0,"d":"Majuli","s":"ASSAM"}},{"arcs":[[-565,-545,-558,569,570]],"type":"Polygon","properties":{"n":"Abhoipuria","c":293499,"d":"Majuli","s":"ASSAM"}},{"arcs":[[571,-535,-549,-567,572,573]],"type":"Polygon","properties":{"n":"Tanti Bari","c":293511,"d":"Majuli","s":"ASSAM"}},{"arcs":[[574,-559,575,576]],"type":"Polygon","properties":{"n":"Jomud Chuk","c":293451,"d":"Majuli","s":"ASSAM"}},{"arcs":[[577,-556,-561,578,579]],"type":"Polygon","properties":{"n":"Phuloni No.2","c":293480,"d":"Majuli","s":"ASSAM"}},{"arcs":[[580,-520,581,582]],"type":"Polygon","properties":{"n":"Namoni Jokaibowa","c":293431,"d":"Majuli","s":"ASSAM"}},{"arcs":[[-551,-519,-521,-581,583,584]],"type":"Polygon","properties":{"n":"Ujoni Jokaibowa","c":293432,"d":"Majuli","s":"ASSAM"}},{"arcs":[[585,-532,-572,586,587]],"type":"Polygon","properties":{"n":" ","c":0,"d":"Majuli","s":"ASSAM"}},{"arcs":[[588,-568,-563,589,590,591]],"type":"Polygon","properties":{"n":"Panikhati","c":293510,"d":"Majuli","s":"ASSAM"}},{"arcs":[[-576,-562,-552,-585,592,593]],"type":"Polygon","properties":{"n":"Kalia Gaon","c":293368,"d":"Majuli","s":"ASSAM"}},{"arcs":[[-582,-523,594]],"type":"Polygon","properties":{"n":"Namoni Jokaibowa","c":293431,"d":"Majuli","s":"ASSAM"}},{"arcs":[[-587,-574,595,596]],"type":"Polygon","properties":{"n":"Mayongia","c":293513,"d":"Majuli","s":"ASSAM"}},{"arcs":[[597,-570,-557,-553,-578,598,599,600]],"type":"Polygon","properties":{"n":"Chiram Chapori","c":293479,"d":"Majuli","s":"ASSAM"}},{"arcs":[[-590,-566,-571,-598,601,602,603]],"type":"Polygon","properties":{"n":"Deuri Gaon","c":293508,"d":"Majuli","s":"ASSAM"}},{"arcs":[[604,-588,-597,605,606]],"type":"Polygon","properties":{"n":"Punia Satra Gaon","c":293515,"d":"Majuli","s":"ASSAM"}},{"arcs":[[607,-600,608,609]],"type":"Polygon","properties":{"n":"Namoni Serepai No.3","c":293488,"d":"Majuli","s":"ASSAM"}},{"arcs":[[-609,-599,-580,610,611,612,613]],"type":"Polygon","properties":{"n":"Phuloni No.1","c":293481,"d":"Majuli","s":"ASSAM"}},{"arcs":[[-606,-596,-573,-569,-589,614,615]],"type":"Polygon","properties":{"n":"Panikhati","c":293510,"d":"Majuli","s":"ASSAM"}},{"arcs":[[-611,-579,-560,-575,616,617,618]],"type":"Polygon","properties":{"n":"Karki Chuk","c":293452,"d":"Majuli","s":"ASSAM"}},{"arcs":[[619,-602,-601,-608,620,621]],"type":"Polygon","properties":{"n":"Namoni Serepai No.2","c":293493,"d":"Majuli","s":"ASSAM"}},{"arcs":[[-617,-577,-594,622,623]],"type":"Polygon","properties":{"n":"Nagan Chuk","c":293454,"d":"Majuli","s":"ASSAM"}},{"arcs":[[624,625,626]],"type":"Polygon","properties":{"n":"Bali Gaon","c":293523,"d":"Majuli","s":"ASSAM"}},{"arcs":[[-591,-604,627,628,629]],"type":"Polygon","properties":{"n":"Deori Pam","c":293497,"d":"Majuli","s":"ASSAM"}},{"arcs":[[630,631,-504,-524,-533,-586,-605,-627,632]],"type":"Polygon","properties":{"n":"Tanti Bari","c":293511,"d":"Majuli","s":"ASSAM"}},{"arcs":[[633,-628,-603,-620,634]],"type":"Polygon","properties":{"n":"Ujoni Serepai No.2","c":293495,"d":"Majuli","s":"ASSAM"}},{"arcs":[[635,-631,636,637,638]],"type":"Polygon","properties":{"n":" ","c":293530,"d":"Majuli","s":"ASSAM"}},{"arcs":[[639,-615,-592,-630,640,641,642]],"type":"Polygon","properties":{"n":"Kuhiar Bari","c":293509,"d":"Majuli","s":"ASSAM"}},{"arcs":[[643,-621,-610,-614,644,645]],"type":"Polygon","properties":{"n":"Jengrai Miri Gaon","c":293482,"d":"Majuli","s":"ASSAM"}},{"arcs":[[-622,-644,646,647]],"type":"Polygon","properties":{"n":"Namoni Serepai No.1","c":293492,"d":"Majuli","s":"ASSAM"}},{"arcs":[[-612,-619,648,649]],"type":"Polygon","properties":{"n":"Jengrai Miri Gaon","c":293482,"d":"Majuli","s":"ASSAM"}},{"arcs":[[650,651,-645,-613,-650,652,653]],"type":"Polygon","properties":{"n":"Jengrai Chapori","c":293483,"d":"Majuli","s":"ASSAM"}},{"arcs":[[654,-626,655,656]],"type":"Polygon","properties":{"n":"Apechi Pathar","c":293522,"d":"Majuli","s":"ASSAM"}},{"arcs":[[-656,-625,-607,-616,-640,657,658]],"type":"Polygon","properties":{"n":"Kandhulimari","c":293516,"d":"Majuli","s":"ASSAM"}},{"arcs":[[-635,-648,659,660,661]],"type":"Polygon","properties":{"n":"Ujoni Serepai No.1","c":293494,"d":"Majuli","s":"ASSAM"}},{"arcs":[[662]],"type":"Polygon","properties":{"n":" ","c":293542,"d":"Majuli","s":"ASSAM"}},{"arcs":[[663,-658,-643,664,665,666]],"type":"Polygon","properties":{"n":"Phuloni No.2","c":293480,"d":"Majuli","s":"ASSAM"}},{"arcs":[[667,668,-638,669,670]],"type":"Polygon","properties":{"n":" ","c":293529,"d":"Majuli","s":"ASSAM"}},{"arcs":[[671,672,-657,-659,-664,673]],"type":"Polygon","properties":{"n":"Ratanpur Miri Pathar","c":293521,"d":"Majuli","s":"ASSAM"}},{"arcs":[[674,-670,-637,-633,-655,-673,675]],"type":"Polygon","properties":{"n":"Kachari Gaon","c":293525,"d":"Majuli","s":"ASSAM"}},{"arcs":[[-639,-669,676,677,678]],"type":"Polygon","properties":{"n":" ","c":0,"d":"Majuli","s":"ASSAM"}},{"arcs":[[-677,-668,679,680,681]],"type":"Polygon","properties":{"n":" ","c":293532,"d":"Majuli","s":"ASSAM"}},{"arcs":[[-624,682,683]],"type":"Polygon","properties":{"n":"Jengrai Chapori","c":293483,"d":"Majuli","s":"ASSAM"}},{"arcs":[[-660,-647,-646,-652,684,685]],"type":"Polygon","properties":{"n":"Namoni Serepai No.1","c":293492,"d":"Majuli","s":"ASSAM"}},{"arcs":[[686,-641,-629,-634,-662,687]],"type":"Polygon","properties":{"n":"Major Deuri","c":293496,"d":"Majuli","s":"ASSAM"}},{"arcs":[[-665,-642,-687,688,689]],"type":"Polygon","properties":{"n":"Monbhal Chuk","c":293518,"d":"Majuli","s":"ASSAM"}},{"arcs":[[-653,-649,-618,-684,690,691]],"type":"Polygon","properties":{"n":"Moghua Chuk","c":293484,"d":"Majuli","s":"ASSAM"}},{"arcs":[[692,693,694,-676,-672,695]],"type":"Polygon","properties":{"n":"Ratanpur Miri Pam","c":293526,"d":"Majuli","s":"ASSAM"}},{"arcs":[[-680,-671,-675,-695,696,697]],"type":"Polygon","properties":{"n":"Haladhi Bari","c":293528,"d":"Majuli","s":"ASSAM"}},{"arcs":[[-654,-692,698,699]],"type":"Polygon","properties":{"n":"Moghua Chuk","c":293484,"d":"Majuli","s":"ASSAM"}},{"arcs":[[-685,-651,-700,700]],"type":"Polygon","properties":{"n":"Bor Pamua No.1","c":293490,"d":"Majuli","s":"ASSAM"}},{"arcs":[[-696,-674,-667,701,702]],"type":"Polygon","properties":{"n":"Ratanpur Miri Gaon","c":293520,"d":"Majuli","s":"ASSAM"}},{"arcs":[[-702,-666,-690,703]],"type":"Polygon","properties":{"n":"Borbeel Bebejia","c":293519,"d":"Majuli","s":"ASSAM"}},{"arcs":[[704,-678,-682,705,706]],"type":"Polygon","properties":{"n":" ","c":293533,"d":"Majuli","s":"ASSAM"}},{"arcs":[[707]],"type":"Polygon","properties":{"n":" ","c":0,"d":"Majuli","s":"ASSAM"}},{"arcs":[[708,-706,-681,-698,709,710]],"type":"Polygon","properties":{"n":"Gezera","c":293534,"d":"Majuli","s":"ASSAM"}},{"arcs":[[711,712,-707,-709,713,714]],"type":"Polygon","properties":{"n":" ","c":0,"d":"Majuli","s":"ASSAM"}},{"arcs":[[-710,-697,-694,715,716]],"type":"Polygon","properties":{"n":"Chawrekia","c":293527,"d":"Majuli","s":"ASSAM"}},{"arcs":[[-714,-711,717,718]],"type":"Polygon","properties":{"n":"Anai Chuk No.2","c":293535,"d":"Majuli","s":"ASSAM"}},{"arcs":[[-718,-717,719]],"type":"Polygon","properties":{"n":"Anai Chuk No.1","c":293536,"d":"Majuli","s":"ASSAM"}},{"arcs":[[720,721,-712,722,723,724]],"type":"Polygon","properties":{"n":"Jabor Chuk Kathoni","c":293539,"d":"Majuli","s":"ASSAM"}},{"arcs":[[-724,725,726,727]],"type":"Polygon","properties":{"n":"Anai Chuk No.2","c":293535,"d":"Majuli","s":"ASSAM"}},{"arcs":[[-727,728]],"type":"Polygon","properties":{"n":" ","c":0,"d":"Majuli","s":"ASSAM"}},{"arcs":[[-721,729,730]],"type":"Polygon","properties":{"n":"Takarchuk Chapori N C","c":293541,"d":"Majuli","s":"ASSAM"}},{"arcs":[[-268,-324,-353,-389,-513,-500,-632,-636,-679,-705,-713,-722,-731,731],[-207,-255],[-400],[-547],[-663],[-708]],"type":"Polygon","properties":{"n":"Neul Gaon","c":293580,"d":"Majuli","s":"ASSAM"}}]}}}