{"type":"Topology","arcs":[[[39630,36344],[-140,-582],[-96,-794],[-215,-909],[-561,-170],[-74,-1080],[-230,-282],[-1840,176],[-118,184],[-1375,134],[-355,226],[-842,-157],[-1050,254],[-495,378],[466,162],[185,189],[118,485],[244,14],[702,756],[-1397,443],[103,139],[-539,115],[281,291],[-407,166],[148,138],[-399,148],[52,203],[-665,152],[-1250,-41],[-317,-429],[-481,-416],[-414,102],[-1500,152],[-407,623],[-1914,-32],[281,295],[-192,79],[1079,1042],[-613,245],[44,83],[-577,212],[-1515,-876],[-369,189],[-252,-162],[-702,494],[-687,-540],[-776,572],[-1013,628],[-680,360],[-258,55]],[[18618,39758],[214,563],[-118,383],[140,526],[-88,125]],[[18766,41355],[761,18],[1493,153],[1507,369],[1153,323],[2136,489],[2292,563],[805,318]],[[28913,43588],[45,-590],[-303,-826],[-651,-656],[-1116,-1033],[81,-33],[562,-1342],[67,-296],[303,-170],[-178,-139],[762,-1878],[953,789],[1338,-231],[517,817],[2373,14],[2838,41],[1094,-235],[1027,-678],[1005,-798]],[[24590,45817],[14,-203],[-687,-558],[-636,-97],[-236,-900],[-318,124],[-939,167],[-1027,41],[-894,-1333],[-296,-102],[-480,-1181],[-325,-420]],[[18618,39758],[-473,-530],[229,-356],[-880,-37],[-968,-489],[-554,-374],[-532,-503],[-813,-1093],[-333,-259],[-229,-420]],[[14065,35697],[-2033,379],[-805,295],[-1404,28]],[[9823,36399],[-917,231],[214,946],[-938,13],[-451,-263],[-1271,300],[-1405,120],[-495,-92],[-835,166],[-1559,-240],[-1146,97],[-532,157],[-192,729],[-296,581],[407,227],[879,1130],[650,545],[1641,1019],[584,263],[599,443],[162,277],[518,457],[1234,411],[924,447],[7,370]],[[7605,44733],[739,-70],[1449,420],[236,462],[592,761],[584,568],[236,-28],[192,420],[-458,148]],[[11175,47414],[495,309],[1249,-240],[429,291],[613,-434],[606,-291],[725,-189],[3695,-429],[170,221],[1530,-111],[37,-489],[488,-106],[192,-351],[1715,84],[325,152],[443,-102],[237,213],[466,-125]],[[5979,51779],[-872,-766],[2491,-821],[517,-231],[163,-240],[-673,-720],[-717,-1103]],[[6888,47898],[-798,-134],[-599,-18],[-7,-231],[-436,-69],[-214,655],[-621,734],[-451,950],[-1833,1168],[-1885,955],[318,328],[-44,447],[192,1403],[303,314],[414,-106],[931,-688],[1818,-1126],[2003,-701]],[[7605,44733],[-384,180],[44,193],[-665,273],[22,424],[525,208],[155,715],[710,-5],[29,434],[222,309]],[[8263,47464],[1190,46],[1722,-96]],[[39630,36344],[798,350],[917,296],[606,516],[732,263],[1396,-816],[-88,-310],[1101,490],[1219,1273],[15,397],[577,171],[1020,-268],[-141,-484],[665,32],[89,364],[710,-73],[251,-669],[-488,-467],[-429,-295],[-103,-1043],[-687,-572],[-215,-489],[-591,-891],[-22,-581],[-214,-582],[1862,-249],[-990,-816],[-52,-162],[-37,-1638],[-96,-743],[-761,-738],[-658,-517]],[[46016,28093],[-2181,637],[-1936,623],[-709,623],[-673,-536],[-880,203],[-1374,-92],[-717,-277],[-355,-231],[-10074,3710],[-155,273],[-236,-10],[-2728,762],[-1071,277],[-185,369],[-377,-65],[214,-166],[-318,-715],[-1167,-1380],[-1139,-1107],[-3215,-2234],[-399,-535]],[[16341,28222],[-1929,549],[-488,231],[577,18],[1449,517],[864,905],[636,913],[44,586],[-251,37],[-1478,443],[-1094,429],[-259,457],[237,1301],[15,365],[-230,397],[-369,327]],[[36940,43288],[-458,-687],[-1900,258],[-3259,798],[-540,74],[-1463,33],[-407,-176]],[[24590,45817],[280,231],[961,457],[872,73],[1486,-50],[81,97],[776,198],[0,983],[-1005,1347],[-74,332],[-303,300],[-665,65],[-37,508],[266,18],[229,457],[-295,23],[340,568],[-215,36],[414,647]],[[27701,52107],[532,-273],[968,5],[614,101],[325,-143],[-828,-152],[89,-83],[1493,28],[798,-176],[-1190,-678],[-458,-485],[-303,-742],[273,-56],[-532,-900],[8,-290],[384,-65],[-148,-318],[-236,-28],[0,-521],[480,-19],[178,-360],[-141,-129],[-96,-623],[-414,-88],[52,-337],[207,-9],[281,-309],[-289,-23],[392,-318],[717,-319],[2801,-987],[1848,-176],[1434,-346]],[[26563,52443],[1138,-336]],[[8263,47464],[-1301,245],[-74,189]],[[5979,51779],[377,217],[466,-19],[791,582],[783,221],[1936,1071],[1250,660],[1396,909],[274,341],[0,240],[1729,835],[658,-406],[-539,-900],[-178,-152],[200,-166],[1426,-351],[872,-9],[1634,-798],[2461,-1800],[421,23],[170,-147],[880,493],[621,176],[680,32],[1027,-111],[1249,-277]],[[51818,80421],[-163,-226],[-946,-2561],[-2343,-1223],[-909,-623],[-436,-1237],[-525,-1098]],[[46496,73453],[-495,-1200],[-1249,448],[-436,92]],[[44316,72793],[-7,263],[-1331,102],[-2114,240],[-2380,835],[-761,332]],[[37723,74565],[540,1504],[88,628],[562,1343],[-259,0]],[[38654,78040],[259,1356],[251,-4],[496,1509],[280,184]],[[39940,81085],[281,-97],[-480,-941],[207,-23],[296,360],[177,-286],[591,890],[-15,-419],[355,-107],[96,180],[954,-281],[1160,-277],[207,281],[525,-46],[207,148],[332,1204],[-524,130],[517,4],[2010,-443],[1671,-198],[1123,-272],[2188,-471]],[[37723,74565],[-406,180],[-961,-1998],[-791,-720],[-362,-37],[-126,-369]],[[35077,71621],[-1774,138],[-2136,42],[-1019,-46],[-1856,78],[-2697,250],[-1966,115],[-895,88],[-2025,83],[-377,226]],[[20332,72595],[-184,1398],[-156,388],[296,530],[702,545]],[[20990,75456],[776,-328],[569,14],[170,244],[-1456,1011],[8,401]],[[21057,76798],[325,217],[451,-60],[532,-355],[879,-198],[1848,-10],[1286,-369],[998,-369],[2188,452],[1256,369],[2077,670],[1574,226],[362,-42],[2284,715],[1537,-4]],[[44316,72793],[74,-1103],[502,-318],[1153,148],[355,-914],[540,-812],[561,-988],[1020,-111],[688,-179],[-503,-891],[-1197,-1694]],[[47509,65931],[-1715,47],[-1471,-74],[-961,37],[-1175,203],[-827,203],[118,110],[-1397,157]],[[40081,66614],[-74,199],[-1042,226],[-843,535],[-776,757],[-968,364],[-510,300],[-909,646],[89,974],[-89,480],[118,526]],[[51175,70864],[-23,-337],[-362,-766],[-3230,333],[2876,890],[1271,2091],[-1515,927],[-2809,-932],[-887,383]],[[51818,80421],[2343,-738],[317,-185],[126,-337],[-44,-932],[207,-309],[-141,-434],[-828,-831],[-406,-650],[-7,-374],[613,-277],[0,-184],[665,-222],[-266,-752],[-185,-1011],[-2187,-484],[-850,-1837]],[[51175,70864],[680,-27],[347,-277],[-621,-1491],[-295,-890],[-230,-882],[533,-738],[-621,-526]],[[50968,66033],[-850,-794]],[[50118,65239],[-1501,452],[-1108,240]],[[50118,65239],[-2099,-452],[-798,-443],[-89,-554],[-266,-526],[-192,-1024],[66,-729],[-199,-665],[-651,-1403],[-125,-682],[236,-1011],[-22,-1043],[-155,-863],[81,-683],[473,-1052],[0,-267],[296,-268],[-60,-1666],[-192,-614],[89,-600],[702,-1264],[481,-1107],[140,-711],[170,-332],[1190,-1435]],[[49194,45845],[-1271,-263],[-5425,-946],[-1109,-222],[-2291,-300],[-1648,-55],[-510,-771]],[[26563,52443],[155,33],[-52,669],[-251,203],[266,530],[-1035,10],[-36,87],[761,346],[2505,1417],[451,365],[1833,1716],[1752,1588],[1892,1019],[2387,2137],[1530,2616],[244,319],[805,660],[311,456]],[[10613,82834],[59,-600],[932,-613],[303,-1080],[177,-369],[340,-222]],[[12424,79950],[444,-295],[2416,-42],[518,-484],[-111,-757],[473,-489],[939,-568],[450,-415],[939,-526],[1131,-342],[1367,-576]],[[20332,72595],[-2586,-1422],[0,1011],[199,531],[-266,300],[-1182,969],[-732,166],[-961,120],[-976,240],[-554,309],[-983,923],[-1064,300],[-2639,853],[-465,190],[-1626,927],[-1212,1929],[613,429],[-266,185],[1227,1038],[687,-9],[-369,193],[221,204],[614,253],[687,434],[843,180],[1071,-14]],[[12424,79950],[562,342],[1035,383],[2084,923],[820,466],[2358,1578],[1338,1338],[975,494],[1087,346],[354,-97],[-569,-1301],[-635,-882],[-798,-1370],[-45,-835],[111,-683],[52,-1445],[-252,-627],[-96,-706],[318,-932],[-66,-144]],[[13422,92151],[1315,-785],[1686,-364],[-15,-448],[746,-277],[850,-452],[1072,-807],[2084,-679],[1707,-1227],[3230,-157],[2543,1084],[1057,416],[1094,489],[1167,207],[1397,425],[1382,268],[1168,-42],[1175,291]],[[37080,90093],[643,-1343],[1057,-1034],[1212,-1296],[89,-420],[-89,-1117],[89,-309],[-148,-918],[44,-628],[-450,-69],[-67,-157],[1286,-97],[-192,-226],[-170,-766],[-444,-628]],[[10613,82834],[266,978],[-118,291],[-709,485],[-451,110],[-1360,5],[-281,148],[103,332],[503,669],[-296,277],[-1352,78],[-1582,365],[-428,295],[-230,296],[170,452],[510,687],[-59,457],[-561,895],[-954,166],[-1057,503],[-44,360],[369,762],[-443,673],[81,476],[200,180],[443,115],[621,-226],[1656,-438],[2742,-453],[1027,-23],[983,56],[2417,221],[643,125]],[[39408,91795],[-901,-41],[-1087,-831],[-458,-696],[118,-134]],[[13422,92151],[939,291],[2505,1264],[2299,1084],[1071,540],[2676,1694],[-540,996],[813,245],[2218,480],[1626,457],[835,194],[820,304],[547,129]],[[29231,99829],[-680,-780],[-236,-1176],[857,-1643],[1951,-724],[1634,-531],[1426,-623],[2018,-1108],[650,-415],[1626,-743],[931,-291]],[[29231,99829],[259,171],[1256,-457],[1737,-378],[1101,-374],[710,-129],[1278,-19],[1028,-563],[798,-752],[259,-969],[-503,-521],[-266,-549],[104,-453],[-222,-747],[2136,-1777],[510,-304],[-8,-213]],[[64877,19455],[-2246,-310],[-1279,194],[-1249,388],[-599,964],[-451,942],[-776,1481],[-1337,1066],[-828,540],[-1922,720],[-3296,1153],[-1907,632],[-2971,868]],[[49194,45845],[828,-1048],[968,-761],[1086,-480],[3518,-1403],[1538,-328],[2542,-313],[628,-323],[370,-282],[710,33],[450,170],[1552,-434],[769,-281],[976,-581],[1663,-854],[1478,-471],[598,-558],[1338,369],[311,-411],[598,-304],[466,-669],[857,-1034],[-51,-535],[465,-522],[37,-913],[-192,-540],[-554,-180],[-577,18],[-325,-286],[7,-434],[-184,-387],[-614,-651],[-7,-900],[-141,-364],[-1108,-1306],[-252,-360],[-938,-369],[-510,-342],[-495,-553],[-178,-393],[37,-355],[488,-212],[52,-397],[-318,-365],[-754,-655],[-15,-383],[-236,-406],[-30,-604],[192,-430],[540,-650],[288,-577],[259,-1504],[347,-406],[-74,-111],[-2720,-355]],[[50968,66033],[665,-1034],[2276,688],[902,175],[1456,-171],[739,0],[1973,-106],[2040,-138],[436,-60],[45,-554],[1160,-692],[-894,-1430],[-458,-665],[-170,106],[-1508,189],[-1567,291],[-569,-1057],[-835,-1952],[-281,-549],[-614,-1467],[-495,-1426],[-510,-1112],[1774,-355],[1803,-965],[1974,-115],[-473,-1361],[1212,-656],[266,430],[983,-144],[66,254],[1959,83],[200,-452],[702,143],[717,0],[451,-152],[-385,-725],[-1589,-3862],[-502,-1324],[-488,101],[-503,-572],[-295,69],[-200,-318],[-887,46],[-636,-1135],[-266,-388],[156,-410],[539,-706],[200,0],[495,-536],[820,-277],[1020,-184],[503,-148],[1049,-69],[1279,-374],[857,-337],[252,-595],[369,-46],[458,-526],[281,-79],[52,-244],[2069,710],[104,-55],[3296,1361],[1900,573],[731,184],[-377,-231],[230,-129],[-15,-332],[473,-434],[658,-1153],[354,-1122],[-81,-747],[-222,-69],[222,-591],[340,92],[170,-217],[-1789,-263],[-1064,-581],[-251,-683],[-303,-199],[776,-161],[761,14],[-214,-1015],[125,-693],[932,-272],[51,-314],[-524,-300],[-547,-18],[-37,-563],[-362,-461],[-510,-93],[-702,-392],[450,-540],[89,-544],[-355,-499],[30,-987],[273,-346],[555,-369],[214,-319],[1190,-890],[1079,-900],[1826,-1712],[746,-595],[1013,-993],[1263,-729],[3016,-2741],[1774,-1592],[650,-618],[421,-863],[414,-600],[555,-613],[199,-333],[2107,-2039],[1906,-1777],[2986,-2589],[1782,-1610],[650,-461],[-1242,-854],[-2320,-849],[997,-715],[252,-1071],[-74,-558],[-939,-1648],[-325,-32],[-1020,914],[-1560,918],[-1936,923],[-222,1333],[-362,254],[-1108,1122],[-910,701],[-576,351],[-480,166],[-1678,401],[-1360,-323],[-2247,-355],[-1434,-83],[185,1329],[894,263],[370,378],[547,129],[-52,965],[-229,1564],[-318,392],[-222,586],[-37,370],[-236,189],[-2018,1001],[-1988,614],[-2631,-1145],[-2365,-1098],[-1301,-627],[665,-743],[325,-453],[170,-498],[244,-28],[-1544,-175],[-695,692],[-643,517],[-1131,1537],[-325,618],[-392,268],[-377,516],[-539,194],[-318,711],[-1360,1753],[-1064,1149],[-244,836],[81,424],[-30,905]],[[16341,28222],[-1012,-1384],[-1294,-932],[-428,-263],[-1811,-891],[-1611,-651],[-1582,794],[-429,120],[-325,323],[-717,508],[-510,673],[-155,651],[-436,1186],[-606,180],[310,1560],[163,1448],[-399,199],[251,627],[-222,227],[385,69],[2099,1569],[-370,295],[1345,1029],[836,840]]],"transform":{"scale":[1.3530135301353099e-06,2.1670999999999907e-06],"translate":[77.1679,28.57143]},"objects":{"villages":{"type":"GeometryCollection","geometries":[{"arcs":[[0,1,2,3]],"type":"Polygon","properties":{"n":"DELHI","c":0,"d":"Central","s":"DELHI"}},{"arcs":[[4,-2,5,6,7,8,9]],"type":"Polygon","properties":{"n":" ","c":0,"d":"Central","s":"DELHI"}},{"arcs":[[10,11]],"type":"Polygon","properties":{"n":"NIMRI","c":0,"d":"Central","s":"DELHI"}},{"arcs":[[-9,12,13]],"type":"Polygon","properties":{"n":"NIMRI","c":0,"d":"Central","s":"DELHI"}},{"arcs":[[14,15,16,-6,-1]],"type":"Polygon","properties":{"n":" ","c":0,"d":"Central","s":"DELHI"}},{"arcs":[[17,-3,-5,18,19]],"type":"Polygon","properties":{"n":"DELHI","c":0,"d":"Central","s":"DELHI"}},{"arcs":[[20,-19,-10,-14,21,-11,22]],"type":"Polygon","properties":{"n":"SADORA KALAN","c":0,"d":"Central","s":"DELHI"}},{"arcs":[[23,24,25,26,27,28]],"type":"Polygon","properties":{"n":"Jagat Pur ilaqa Delhi","c":63954,"d":"Central","s":"DELHI"}},{"arcs":[[-27,29,30,31,32,33]],"type":"Polygon","properties":{"n":"Jharoda Majra Burari  (CT)","c":63958,"d":"Central","s":"DELHI"}},{"arcs":[[-26,34,35,36,-30]],"type":"Polygon","properties":{"n":" ","c":0,"d":"Central","s":"DELHI"}},{"arcs":[[37,-24,38]],"type":"Polygon","properties":{"n":"Jagat Pur ilaqa Shahdara (un-inhabited)","c":63953,"d":"Central","s":"DELHI"}},{"arcs":[[39,40,41,-35,-25,-38]],"type":"Polygon","properties":{"n":" ","c":0,"d":"Central","s":"DELHI"}},{"arcs":[[-42,42,43,-20,-21,44,-36]],"type":"Polygon","properties":{"n":"DMC (U)","c":800441,"d":"Central","s":"DELHI"}},{"arcs":[[45,46,-32,47]],"type":"Polygon","properties":{"n":"Mukand Pur (CT)","c":63955,"d":"Central","s":"DELHI"}},{"arcs":[[48,-33,-47]],"type":"Polygon","properties":{"n":"Kamal Pur Majra Burari (CT)","c":63956,"d":"Central","s":"DELHI"}},{"arcs":[[49,50,-28,-34,-49,-46,51]],"type":"Polygon","properties":{"n":"Burari  (CT)","c":63957,"d":"Central","s":"DELHI"}},{"arcs":[[52,-50,53,54]],"type":"Polygon","properties":{"n":"Salem Pur Majra Burari","c":63951,"d":"Central","s":"DELHI"}},{"arcs":[[-55,55]],"type":"Polygon","properties":{"n":"BADARPUR","c":0,"d":"Central","s":"DELHI"}},{"arcs":[[56,-15,-4,-18,-44,57]],"type":"Polygon","properties":{"n":"NDMC","c":800442,"d":"Central","s":"DELHI"}},{"arcs":[[-58,-43,-41,58]],"type":"Polygon","properties":{"n":" ","c":0,"d":"Central","s":"DELHI"}},{"arcs":[[-17,59,-7]],"type":"Polygon","properties":{"n":" ","c":0,"d":"Central","s":"DELHI"}}]}}}