{"type":"Topology","arcs":[[[53818,292],[-1362,129],[-596,-421],[-2408,558],[-535,9],[-389,-232],[-1897,318],[827,2464],[827,2335],[474,1220],[681,2000],[632,1632],[633,1348]],[[50705,11652],[729,-215],[98,-463],[389,-387],[899,-292],[1107,69],[1350,343],[2225,1675]],[[57502,12382],[644,-867],[1192,-1108],[511,-584],[705,-532],[36,-619],[304,-343],[207,-747],[-12,-558],[-195,-601],[-1787,-1537],[-2031,-1829],[-1629,-1760],[-486,-601],[-1143,-404]],[[57502,12382],[608,549],[340,516],[475,1322],[303,575]],[[59228,15344],[1131,-421],[2481,-729],[316,626],[474,-60],[37,447],[-183,1374],[730,68],[2699,43]],[[66913,16692],[61,-455],[-158,-1425],[-182,-807],[-292,-2739],[-426,-928],[-559,-876],[-474,-541],[1106,-386],[-121,-610],[-694,-669],[122,-267],[-2091,-1150],[705,-481],[1459,-180],[-328,-438],[-742,-541],[-535,51],[-316,-274],[1337,-747],[-705,-327],[1411,-232],[-523,-128],[644,-138],[-1763,-721],[-1751,-378],[-1313,-455],[-3709,-438],[-2067,-146],[-1191,26]],[[68117,23089],[-377,-1451],[-486,-2335],[-12,-335],[-377,-1821],[48,-455]],[[59228,15344],[-328,601],[-85,2113],[328,996],[-73,274],[1204,868],[1399,841],[-86,103],[1496,687],[1715,584],[960,446],[1155,996]],[[66913,23853],[523,-652],[681,-112]],[[42400,30860],[1143,-421],[1739,-446],[1507,-163]],[[46789,29830],[-1276,-473],[-487,-541],[-1070,-2000],[-608,-910],[-632,-1202],[-486,-1220],[-317,-1391],[-182,-1348],[-170,-618],[-316,-2301],[-547,-2722]],[[40698,15104],[-912,17],[-2335,197],[-1909,1203],[-1058,592],[-2176,541],[-742,120],[48,292],[791,1778],[815,2653],[1009,2730],[462,1022],[194,764],[280,507],[462,1322],[438,1039],[936,1967],[1228,-198],[1350,-343],[1179,-121],[1642,-326]],[[52468,29229],[1824,-584],[279,292],[499,-60],[863,-421],[426,249],[571,-138],[645,35],[596,189],[790,-327],[571,-403],[268,180]],[[59800,28241],[267,-189],[3429,-773],[1326,-240],[134,112]],[[64956,27151],[2140,-455],[-37,-850],[-316,-979],[-462,-670],[632,-344]],[[50705,11652],[-742,283],[-1179,0],[-1156,-266],[-328,842],[-3222,-155],[-110,-472],[-1617,266],[-438,-799],[-1665,962],[-329,258],[365,1022],[414,1511]],[[46789,29830],[171,-146],[583,94],[1155,-34],[2384,-481],[498,-146],[888,112]],[[59800,28241],[1046,661]],[[60846,28902],[2176,-850],[231,35],[2152,-524],[-449,-412]],[[75109,36931],[352,-129]],[[75461,36802],[1046,-395],[1265,-747],[1143,-378]],[[78915,35282],[-839,43],[-487,-472],[-292,-850],[2396,-833],[1435,-558],[-693,-833],[2808,-1340],[-620,-626],[-2663,686],[-1629,224],[-219,-266],[-474,-1125],[24,-395],[1046,-172],[109,-824],[-194,-9],[0,-1090],[523,-86],[-73,-455],[2067,-172],[-37,944],[365,447],[1970,-421],[-1325,-1228],[1459,-489],[2067,-593],[-1155,-1511],[-317,-120],[-693,-687],[-632,713],[-328,214],[-1155,413],[-304,-146],[-1046,-1194]],[[80009,22471],[-3113,618],[584,876]],[[77480,23965],[-61,240],[1350,653],[-1326,988],[353,360],[49,644],[-487,112],[-97,764],[-1155,-17],[-146,137],[-1289,189],[-863,-970],[-924,-1520],[-232,-635],[-1301,-1245],[-1896,807],[-475,-1065]],[[68980,23407],[-863,-318]],[[60846,28902],[2237,1357],[523,361]],[[63606,30620],[1167,420],[2371,962],[1082,498],[1873,988],[2152,1528],[1143,1485],[414,636],[1301,-206]],[[77480,23965],[-1751,-154],[-936,-181],[-1824,-472],[-1642,-249],[-2347,498]],[[86745,35651],[158,-180],[-170,-953],[1350,-644],[340,-507],[170,-678],[681,-481],[1070,-429],[1447,-799],[1545,-300],[1337,-52],[705,-137],[1508,-567],[1301,-412],[256,-301],[-353,-412],[1483,-4070],[171,-1425],[255,-550],[-146,-1167],[-559,-1220],[-742,-1262],[-3064,309],[-1544,77],[-1460,155],[-24,146],[-2091,395],[-2019,721],[-1009,421],[-1593,807],[-717,-730],[-1690,-1425],[-450,524],[-1435,1107],[-1447,859]],[[78915,35282],[474,-26],[1641,112],[2469,335],[2128,120],[912,-8],[206,-164]],[[75461,36802],[487,618],[1106,953],[1496,1099],[583,928],[803,987],[438,421],[255,464],[1021,1176],[1909,1683],[937,979],[875,790]],[[85371,46900],[122,-120],[1350,-395],[2140,-928],[1896,-541],[-2358,-2413],[316,-2361],[-3466,-1966],[754,-627],[292,-464],[-207,-824],[535,-610]],[[75109,36931],[279,26],[-12,455],[-255,601],[12,704],[-219,180],[-4815,713],[-1678,300],[-1763,481],[-924,198],[-1581,626],[-1727,447],[-2006,584]],[[60420,42246],[-1009,687],[-1885,927],[-1009,301],[-195,283],[-450,-26],[-437,198],[-1253,850],[-1556,910],[-608,223],[-1715,1245],[-1179,1108],[-985,1365],[-425,910],[-61,430],[170,335],[-644,1494],[48,626],[1046,1890],[-255,1253],[48,1941]],[[48066,59196],[85,-121],[2602,-1725],[2384,-1331],[1325,-988],[1143,-77],[5849,507],[3514,455],[3003,231],[499,146],[693,550],[1252,-60],[3040,-644],[1313,-739],[5970,-4413],[4013,-2774],[620,-1313]],[[63606,30620],[-1751,747],[-693,352],[-924,876],[-171,1451],[-924,858],[-1544,138],[-194,-112],[-1715,352],[-608,-120]],[[55082,35162],[-12,197]],[[55070,35359],[134,473],[1970,1193],[85,782],[316,626],[1216,1786],[936,1048],[255,507],[438,472]],[[52468,29229],[1495,1064],[900,1160],[-328,60],[292,1004],[-12,1323],[-122,334],[389,988]],[[42400,30860],[693,1133],[1471,2662],[-304,267],[-1605,1021],[73,421]],[[42728,36364],[718,283],[1580,911]],[[45026,37558],[949,120],[1836,34],[1641,-180],[1581,-344],[2177,-841],[-171,-283],[304,-181],[1727,-524]],[[46947,63231],[-97,-128],[766,-3280],[450,-627]],[[45026,37558],[110,77],[-389,1425],[-949,2216],[-267,1202],[-304,626],[-706,1100],[-547,515],[-972,712],[-450,962],[-876,902],[-644,498],[912,1468],[340,404],[-97,266],[571,1125],[-1228,369]],[[39530,51425],[-1933,670],[-486,51]],[[37111,52146],[717,842],[267,1021],[-279,456],[-170,1202],[-317,489],[462,206],[-474,1340],[924,506],[706,52],[352,730],[791,1116],[-134,103],[790,893],[1240,859],[1569,1288],[-97,403]],[[43458,63652],[1957,-172],[1046,0],[486,-249]],[[42728,36364],[-146,610],[-717,111],[-3356,258],[-3247,197],[-1216,0],[-2395,344]],[[31651,37884],[1265,644],[109,592],[547,1975],[-255,86],[243,824],[-2237,-85],[-548,-181],[61,747],[-754,498],[1472,1108],[1568,1262],[-2079,1211],[839,549],[730,928],[231,670],[24,652],[-438,902],[827,0],[1338,-241],[1410,-60],[681,-180],[997,489],[948,103],[621,601],[279,447]],[[31651,37884],[-1484,-352],[-3745,-1280],[-1094,1924],[1021,979],[-875,1374],[377,1640],[486,1657],[1022,2773],[-572,515],[-596,121],[-522,-69],[1398,3417],[3599,902],[146,867]],[[30812,52352],[1386,-86],[1836,-395],[839,-43],[1313,69],[390,232],[535,17]],[[30812,52352],[158,1013],[438,1400],[-1095,412],[0,344],[-1009,515],[12,695],[669,1211],[1362,1546],[231,807],[-340,575],[72,1735],[-206,626],[-353,241]],[[30751,63472],[2323,429],[1009,-8],[1362,-164],[4024,-249],[2712,189],[1216,121],[61,-138]],[[30751,63472],[-170,103],[-2323,816]],[[28258,64391],[-1702,4662],[-280,1279],[742,361],[195,429],[693,885],[24,1056],[523,1743],[0,1717]],[[28453,76523],[1021,-283],[2821,-876],[2834,-953],[3660,-1005],[1033,-240],[1812,-86],[5241,644],[2176,232],[-267,-1580],[279,-266],[3016,-1168],[316,-378],[12,-1691],[61,-241],[-3624,-5255],[-1811,-25],[-86,-121]],[[23370,79331],[560,9]],[[23930,79340],[-256,-567],[73,-764],[1362,-472],[1095,-207],[1568,-609],[681,-198]],[[28258,64391],[-1009,429],[-2322,592],[-1800,413],[-1848,506],[-1131,103],[-1617,266],[-3307,825],[-852,-9],[864,-240],[-547,-2241],[-341,-275],[-85,-533],[-243,-111],[207,661],[-779,69],[-304,-524],[-1909,515],[-1568,524],[-158,-335],[-584,197],[231,644],[-207,138],[-972,-1657],[-231,163],[243,335],[-304,34],[-487,-670],[-340,43],[657,1271],[133,481],[-462,180],[474,627],[256,541],[279,1425],[317,421],[-2116,180],[109,292],[742,129],[-73,1168],[243,1709],[-146,575],[0,781],[146,1297],[-146,781],[-912,1134]],[[6359,77245],[3879,-35],[2602,533],[1034,506],[1167,9],[1301,-155],[1836,181],[3283,446],[256,464],[741,163],[912,-26]],[[24380,85290],[121,-1030],[-255,-2361],[219,-1606],[-535,-953]],[[23370,79331],[-681,1142],[-2419,1606],[-414,859],[-1155,2017]],[[18701,84955],[-61,352],[2615,9],[3125,-26]],[[6359,77245],[-1082,1279],[-839,867],[-900,1056],[-668,1452],[-134,712],[-450,584],[754,1297],[1787,1545],[1484,78]],[[6311,86115],[182,-155],[1459,-438],[2894,-112],[5338,-489],[1131,-60],[1386,94]],[[6311,86115],[-292,249],[304,146],[-839,566],[-3514,3306],[365,1391],[-171,842],[438,1021],[827,971],[-426,1803],[-1313,1399],[-1690,1048],[6894,378],[6360,515],[1957,249],[5241,-1898],[1581,-515],[-2177,-858],[-3623,-1323],[-7515,-2619],[-1617,-635],[2627,-249],[1605,-198],[1678,-738],[1276,-412],[900,8],[3563,-970],[511,-618],[352,-739],[-49,-772],[-401,-979],[4973,-52],[244,-1142]]],"transform":{"scale":[8.224082240822284e-07,1.1646116461164612e-06],"translate":[77.21603,28.67007]},"objects":{"villages":{"type":"GeometryCollection","geometries":[{"arcs":[[0,1,2]],"type":"Polygon","properties":{"n":"GHOGDA CHAUHAN KHADAR","c":0,"d":"North East","s":"DELHI"}},{"arcs":[[-3,3,4,5]],"type":"Polygon","properties":{"n":"GHOGDA CHAUHAN BANGAR","c":0,"d":"North East","s":"DELHI"}},{"arcs":[[6,-5,7,8]],"type":"Polygon","properties":{"n":" ","c":0,"d":"North East","s":"DELHI"}},{"arcs":[[9,10,11]],"type":"Polygon","properties":{"n":"Garhi Mendu","c":63967,"d":"North East","s":"DELHI"}},{"arcs":[[12,13,14,-8,-4,-2,15,-11,16]],"type":"Polygon","properties":{"n":"GHOGDA GUJRAN KHADAR","c":0,"d":"North East","s":"DELHI"}},{"arcs":[[-14,17,18]],"type":"Polygon","properties":{"n":"Khan Pur Dhani (CT)","c":63974,"d":"North East","s":"DELHI"}},{"arcs":[[19,20,21,22,23,24,-9,-15,-19,25,26]],"type":"Polygon","properties":{"n":"Tukhmir Pur (CT)","c":63975,"d":"North East","s":"DELHI"}},{"arcs":[[27,-24]],"type":"Polygon","properties":{"n":"KHANPUR HDANI","c":0,"d":"North East","s":"DELHI"}},{"arcs":[[28,-22,29]],"type":"Polygon","properties":{"n":"Gokal Pur (CT)","c":63979,"d":"North East","s":"DELHI"}},{"arcs":[[-30,-21,30,31]],"type":"Polygon","properties":{"n":"Jiwan Pur alias Johri Pur (CT)","c":63972,"d":"North East","s":"DELHI"}},{"arcs":[[-31,-20,32,33,34]],"type":"Polygon","properties":{"n":"Mustafabad (CT)","c":63973,"d":"North East","s":"DELHI"}},{"arcs":[[-27,35,36,37,-33]],"type":"Polygon","properties":{"n":"Mustafabad (CT)","c":63973,"d":"North East","s":"DELHI"}},{"arcs":[[-26,-18,-13,38,-36]],"type":"Polygon","properties":{"n":"Mir Pur Turk (CT)","c":63977,"d":"North East","s":"DELHI"}},{"arcs":[[-37,-39,-17,-10,39,40,41]],"type":"Polygon","properties":{"n":"Khajoori Khas (CT)","c":63976,"d":"North East","s":"DELHI"}},{"arcs":[[42,-34,-38,-42,43,44,45,46]],"type":"Polygon","properties":{"n":"Bihari Pur","c":63965,"d":"North East","s":"DELHI"}},{"arcs":[[-41,47,48,-44]],"type":"Polygon","properties":{"n":"Sadat Pur Gujran (CT)","c":63968,"d":"North East","s":"DELHI"}},{"arcs":[[-45,-49,49,50]],"type":"Polygon","properties":{"n":"Sadat Pur Musalmanan (un-inhabited)","c":63964,"d":"North East","s":"DELHI"}},{"arcs":[[-46,-51,51,52]],"type":"Polygon","properties":{"n":"Baqiabad (CT)","c":63969,"d":"North East","s":"DELHI"}},{"arcs":[[-47,-53,53,54,55]],"type":"Polygon","properties":{"n":"Saba Pur Shahdara","c":63963,"d":"North East","s":"DELHI"}},{"arcs":[[56,57,-55,58,59]],"type":"Polygon","properties":{"n":"Saba Pur Delhi","c":63962,"d":"North East","s":"DELHI"}},{"arcs":[[60,-57,61,62]],"type":"Polygon","properties":{"n":"Pur Shahdara","c":63961,"d":"North East","s":"DELHI"}},{"arcs":[[-62,-60,63,64]],"type":"Polygon","properties":{"n":"Pur Delhi","c":63960,"d":"North East","s":"DELHI"}},{"arcs":[[-63,-65,65]],"type":"Polygon","properties":{"n":"Badar Pur Khadar","c":63959,"d":"North East","s":"DELHI"}}]}}}